{"type":"FeatureCollection","features":[{"type":"Feature","properties":{"role":"world-minus-de","quelle":"isellsoap/deutschlandGeoJSON 1_deutschland + grosszuegige Nord-/Ostsee-Flaechen (vereinfacht 0.003 Grad) (Aussenringe als Loecher)"},"geometry":{"type":"Polygon","coordinates":[[[-179.9,-85.0],[179.9,-85.0],[179.9,85.0],[-179.9,85.0],[-179.9,-85.0]],[[8.8133,54.91231],[8.82872,54.9138],[8.83143,54.9043],[8.85045,54.89315],[8.90238,54.9052],[8.95067,54.90279],[8.95192,54.89836],[8.97505,54.90058],[8.9763,54.89614],[8.98401,54.89688],[8.98525,54.89245],[8.99296,54.89319],[8.9942,54.88876],[9.02676,54.88035],[9.02715,54.87649],[9.04717,54.8691],[9.14315,54.87075],[9.19638,54.85594],[9.22478,54.85595],[9.22591,54.85184],[9.24217,54.84887],[9.24505,54.83966],[9.25275,54.84037],[9.25518,54.83151],[9.26288,54.83223],[9.2653,54.82336],[9.273,54.82407],[9.28259,54.80223],[9.31633,54.80991],[9.31753,54.80548],[9.34063,54.80762],[9.34564,54.80354],[9.35125,54.81467],[9.36982,54.81899],[9.37434,54.82892],[9.38204,54.82963],[9.38084,54.83406],[9.39984,54.83876],[9.4,55.1],[14.5,55.1],[14.5,53.85],[13.98083,53.84986],[13.9425,53.84319],[13.91917,53.84625],[13.89861,53.83958],[13.86361,53.84236],[13.84813,53.85],[13.81694,53.85],[13.81417,53.84597],[13.82139,53.84625],[13.81528,53.84403],[13.81861,53.8418],[13.85028,53.84347],[13.86806,53.83597],[13.87361,53.82097],[13.90083,53.80264],[13.91695,53.80625],[13.92139,53.79792],[13.93306,53.79764],[13.9725,53.77208],[14.01861,53.76431],[14.03861,53.75514],[14.06139,53.75514],[14.10139,53.74014],[14.12417,53.73736],[14.16361,53.74292],[14.17417,53.73542],[14.18417,53.73597],[14.23361,53.76181],[14.25806,53.7557],[14.27083,53.74014],[14.28306,53.73875],[14.26805,53.73653],[14.25306,53.72014],[14.22028,53.70958],[14.21528,53.70264],[14.24472,53.69375],[14.27316,53.69931],[14.27594,53.68114],[14.28349,53.68152],[14.28474,53.67256],[14.27027,53.66731],[14.27089,53.66283],[14.29158,53.65946],[14.28935,53.63378],[14.31355,53.61859],[14.32491,53.61865],[14.319,53.61119],[14.3185,53.59304],[14.31097,53.59266],[14.31529,53.56129],[14.30776,53.56091],[14.309,53.55195],[14.30147,53.55157],[14.30271,53.54261],[14.31837,53.53889],[14.32517,53.53004],[14.3182,53.52279],[14.33539,53.5004],[14.34806,53.50022],[14.35971,53.48903],[14.36367,53.45948],[14.37562,53.45945],[14.37357,53.42619],[14.38407,53.40026],[14.40093,53.37799],[14.39968,53.35953],[14.39306,53.35592],[14.41084,53.34824],[14.42025,53.32563],[14.41414,53.31126],[14.42432,53.2887],[14.42328,53.27791],[14.44413,53.27657],[14.44893,53.26164],[14.44708,53.25653],[14.43971,53.25617],[14.44025,53.25168],[14.43278,53.25131],[14.43408,53.24249],[14.42651,53.24197],[14.42712,53.23748],[14.41397,53.2233],[14.4065,53.2229],[14.4077,53.21396],[14.37892,53.20416],[14.3747,53.18073],[14.36714,53.18033],[14.37016,53.15792],[14.37769,53.15833],[14.38629,53.14972],[14.38812,53.13629],[14.38068,53.13589],[14.38251,53.11482],[14.36934,53.10823],[14.37451,53.0965],[14.37174,53.0903],[14.36429,53.08993],[14.36609,53.07648],[14.3587,53.07611],[14.35993,53.06708],[14.3463,53.06],[14.3457,53.05292],[14.31155,53.0376],[14.31207,53.03308],[14.29779,53.02787],[14.29839,53.02349],[14.28354,53.02262],[14.27733,53.01328],[14.2699,53.01289],[14.27051,53.00841],[14.25581,53.00654],[14.25627,53.00317],[14.23521,52.9931],[14.20358,52.98922],[14.17716,52.97829],[14.16446,52.9679],[14.14245,52.96111],[14.15589,52.87956],[14.12262,52.85494],[14.12127,52.84027],[14.12963,52.83854],[14.13088,52.82957],[14.13827,52.82997],[14.1389,52.82549],[14.15712,52.82804],[14.1617,52.82217],[14.18388,52.82334],[14.18449,52.81886],[14.21407,52.8204],[14.22269,52.81182],[14.23008,52.81221],[14.23125,52.80361],[14.25469,52.79543],[14.25591,52.78647],[14.2633,52.78685],[14.27272,52.77831],[14.31803,52.7671],[14.32662,52.75851],[14.34138,52.75927],[14.35854,52.74209],[14.37156,52.73824],[14.38155,52.72517],[14.39841,52.72155],[14.39959,52.71258],[14.42177,52.69436],[14.42114,52.68696],[14.45592,52.67931],[14.45767,52.66586],[14.46504,52.66623],[14.4662,52.65726],[14.48094,52.65799],[14.50502,52.6438],[14.54334,52.63401],[14.55185,52.62541],[14.56658,52.62613],[14.56715,52.62165],[14.57452,52.62201],[14.57508,52.61752],[14.60624,52.60551],[14.60836,52.58875],[14.61586,52.58793],[14.61643,52.58344],[14.63906,52.58003],[14.63962,52.57555],[14.63227,52.57519],[14.6334,52.56622],[14.61247,52.55617],[14.6136,52.5472],[14.60625,52.54684],[14.60795,52.53339],[14.6006,52.53302],[14.60117,52.52854],[14.60852,52.5289],[14.61078,52.51096],[14.62603,52.50719],[14.63125,52.49913],[14.62772,52.49373],[14.62038,52.49337],[14.62151,52.4844],[14.60552,52.48175],[14.60463,52.46666],[14.59249,52.46302],[14.59204,52.45548],[14.5799,52.45188],[14.5735,52.44444],[14.54321,52.43749],[14.54171,52.41118],[14.52891,52.39641],[14.54658,52.3769],[14.55175,52.37701],[14.54715,52.37241],[14.55,52.34998],[14.55814,52.34381],[14.56011,52.32829],[14.56747,52.32828],[14.57812,52.31206],[14.58435,52.31106],[14.58548,52.30209],[14.57132,52.29712],[14.5709,52.28956],[14.59561,52.28001],[14.59617,52.27553],[14.62594,52.27248],[14.6265,52.26799],[14.64186,52.26331],[14.68473,52.2597],[14.68932,52.24852],[14.69957,52.24109],[14.69821,52.22244],[14.69254,52.21869],[14.692,52.21122],[14.67528,52.20369],[14.67474,52.19622],[14.69468,52.17392],[14.6715,52.15142],[14.67015,52.13275],[14.675,52.12531],[14.66935,52.12155],[14.67392,52.11038],[14.68926,52.09927],[14.71594,52.09566],[14.7313,52.08454],[14.73588,52.07337],[14.74128,52.07339],[14.72967,52.06214],[14.72885,52.05096],[14.73397,52.04725],[14.7283,52.04349],[14.72776,52.03603],[14.72236,52.036],[14.72155,52.02481],[14.71022,52.01729],[14.70968,52.00983],[14.6989,52.00977],[14.69864,52.00604],[14.70401,52.00607],[14.70266,51.98741],[14.69162,51.98362],[14.69053,51.96869],[14.69591,51.96872],[14.70587,51.95758],[14.70478,51.94266],[14.68809,51.9351],[14.69265,51.92393],[14.68728,51.9239],[14.68054,51.9052],[14.66393,51.89758],[14.65909,51.88588],[14.65185,51.88552],[14.65295,51.87655],[14.61842,51.8613],[14.61898,51.85681],[14.60451,51.85609],[14.60562,51.84712],[14.58503,51.83707],[14.58559,51.83258],[14.59282,51.83294],[14.5867,51.8236],[14.59393,51.82396],[14.59615,51.80602],[14.63283,51.80332],[14.63338,51.79883],[14.64838,51.79506],[14.65496,51.7412],[14.66217,51.74156],[14.65605,51.73222],[14.67879,51.72432],[14.68042,51.71085],[14.68763,51.7112],[14.70802,51.69279],[14.7239,51.68915],[14.71796,51.68166],[14.72878,51.68172],[14.73319,51.66683],[14.73873,51.66687],[14.73238,51.65564],[14.7374,51.64822],[14.73633,51.6333],[14.74116,51.62215],[14.74682,51.62219],[14.74603,51.611],[14.71083,51.58468],[14.71597,51.58098],[14.71056,51.58095],[14.69869,51.56597],[14.69814,51.55851],[14.72867,51.55067],[14.73135,51.52822],[14.73853,51.52857],[14.73907,51.52408],[14.78656,51.52189],[14.78633,51.51816],[14.79757,51.51789],[14.80365,51.51086],[14.82017,51.50995],[14.82069,51.50546],[14.82787,51.5058],[14.83608,51.49733],[14.84475,51.50005],[14.85032,51.49265],[14.87452,51.49659],[14.88032,51.49292],[14.91036,51.49319],[14.90997,51.48574],[14.92802,51.48591],[14.94019,51.4705],[14.94535,51.47074],[14.95658,51.45324],[14.96375,51.45354],[14.96529,51.44007],[14.97246,51.44041],[14.97297,51.43592],[14.95914,51.43076],[14.96221,51.40381],[14.96948,51.40318],[14.96988,51.39966],[14.96272,51.39932],[14.96476,51.38136],[14.97959,51.37754],[14.9806,51.36856],[14.9668,51.3634],[14.96782,51.35442],[14.97497,51.35475],[14.9764,51.34219],[14.99927,51.33148],[15.00465,51.31679],[15.01673,51.317],[15.02848,51.3098],[15.02228,51.30599],[15.02815,51.3024],[15.02783,51.29499],[15.03387,51.29509],[15.03811,51.2403],[15.01771,51.23032],[15.01871,51.22134],[15.01158,51.22101],[15.01258,51.21203],[15.00545,51.2117],[15.00797,51.18924],[15.00084,51.1889],[15.00285,51.17094],[14.99573,51.1706],[14.99784,51.16134],[14.98975,51.16],[14.99736,51.15024],[14.99704,51.14284],[14.99169,51.14274],[14.99672,51.13544],[14.99252,51.13536],[14.99314,51.12985],[14.98602,51.12951],[14.98753,51.11604],[14.9738,51.11088],[14.97531,51.0974],[14.98243,51.09774],[14.97582,51.09291],[14.97733,51.07944],[14.96362,51.07428],[14.96325,51.06462],[14.95683,51.05712],[14.95073,51.057],[14.95008,51.04221],[14.9377,51.03829],[14.94365,51.03471],[14.93754,51.03458],[14.93738,51.0309],[14.94349,51.03101],[14.93315,51.02768],[14.93569,51.00522],[14.92859,51.00488],[14.93011,50.99141],[14.91643,50.98617],[14.91795,50.97276],[14.90376,50.97209],[14.90478,50.9631],[14.89769,50.96276],[14.90331,50.95269],[14.87838,50.94483],[14.87792,50.93472],[14.87172,50.93362],[14.87139,50.92623],[14.8527,50.92216],[14.85236,50.91477],[14.82037,50.89197],[14.82574,50.87348],[14.82243,50.87332],[14.82346,50.86434],[14.8165,50.86302],[14.81742,50.85501],[14.81247,50.85477],[14.81214,50.84752],[14.80575,50.84369],[14.80508,50.82892],[14.79277,50.83235],[14.77116,50.82449],[14.7552,50.83151],[14.75503,50.82782],[14.71087,50.82676],[14.71754,50.8343],[14.71237,50.84081],[14.67974,50.8407],[14.61193,50.85478],[14.60647,50.86211],[14.62543,50.88412],[14.6263,50.89878],[14.64455,50.90614],[14.64673,50.91432],[14.65381,50.91468],[14.65167,50.93264],[14.62988,50.93606],[14.62387,50.92672],[14.60262,50.92565],[14.60315,50.92116],[14.56774,50.91936],[14.5672,50.92385],[14.56011,50.92348],[14.55957,50.92797],[14.56665,50.92834],[14.56568,50.93639],[14.57094,50.94304],[14.59121,50.96121],[14.59012,50.97019],[14.59722,50.97055],[14.59506,50.98851],[14.58796,50.98815],[14.58742,50.99264],[14.58032,50.99228],[14.57978,50.99677],[14.5614,51.00617],[14.52977,51.00169],[14.53991,51.01425],[14.50243,51.01682],[14.49724,51.02068],[14.49678,51.03318],[14.50388,51.03355],[14.50168,51.05151],[14.49217,51.0465],[14.491,51.04094],[14.49756,51.04125],[14.49066,51.02036],[14.47095,51.01942],[14.47233,51.0236],[14.46194,51.03132],[14.4488,51.0307],[14.40988,51.00861],[14.39741,51.00828],[14.36746,51.01514],[14.36993,51.02692],[14.35158,51.03015],[14.35286,51.03429],[14.31931,51.02534],[14.30299,51.04013],[14.30544,51.05227],[14.29402,51.05416],[14.29459,51.04968],[14.28096,51.04443],[14.28325,51.02648],[14.27615,51.0261],[14.2773,51.01712],[14.25659,51.01149],[14.25716,51.007],[14.26426,51.00739],[14.2654,50.99841],[14.24773,50.99467],[14.24745,50.98753],[14.25319,50.98731],[14.25305,50.98374],[14.24687,50.9732],[14.28128,50.96502],[14.31108,50.97186],[14.31657,50.96109],[14.31298,50.96111],[14.31366,50.9558],[14.32074,50.95618],[14.32131,50.95169],[14.34257,50.95282],[14.34314,50.94833],[14.35731,50.94909],[14.35787,50.9446],[14.40095,50.94235],[14.40262,50.92888],[14.39554,50.92851],[14.39666,50.91953],[14.38958,50.91916],[14.39126,50.90569],[14.37879,50.90052],[14.37836,50.89216],[14.37227,50.88858],[14.33689,50.88887],[14.33064,50.88168],[14.29494,50.8748],[14.27733,50.87505],[14.27183,50.88239],[14.25452,50.88638],[14.24237,50.87579],[14.22496,50.87622],[14.22423,50.86169],[14.21187,50.84744],[14.21206,50.85108],[14.20626,50.85123],[14.19409,50.8406],[14.14159,50.83473],[14.12363,50.82426],[14.07675,50.81463],[14.07075,50.81113],[14.07034,50.80379],[14.05855,50.80047],[14.04143,50.80466],[14.02344,50.79416],[14.02367,50.79784],[13.99502,50.80242],[13.99524,50.8061],[13.98392,50.81015],[13.98369,50.80646],[13.95461,50.80371],[13.94861,50.8002],[13.94768,50.78546],[13.89547,50.78347],[13.89582,50.77444],[13.88877,50.77404],[13.88852,50.76514],[13.88249,50.76163],[13.89872,50.74296],[13.86482,50.741],[13.86543,50.73652],[13.85838,50.73611],[13.85682,50.72172],[13.85081,50.7182],[13.82164,50.7154],[13.7934,50.72741],[13.75867,50.72853],[13.74661,50.72148],[13.7237,50.72594],[13.71162,50.71846],[13.69049,50.71721],[13.68986,50.72169],[13.66747,50.7294],[13.66684,50.73389],[13.65275,50.73305],[13.65338,50.72856],[13.64865,50.72828],[13.65397,50.72452],[13.61941,50.71748],[13.62005,50.71299],[13.54898,50.71321],[13.54813,50.70572],[13.53632,50.70238],[13.5381,50.68994],[13.54514,50.69036],[13.54583,50.67218],[13.5413,50.66751],[13.52723,50.66665],[13.52787,50.66217],[13.51444,50.65683],[13.51506,50.64708],[13.52063,50.64317],[13.52669,50.6467],[13.52597,50.63554],[13.49035,50.6255],[13.47167,50.60896],[13.47232,50.60447],[13.46565,50.60393],[13.46519,50.59649],[13.42511,50.60895],[13.42535,50.61267],[13.41369,50.61306],[13.41418,50.62051],[13.40387,50.63642],[13.38916,50.64003],[13.38861,50.64378],[13.38632,50.64011],[13.37491,50.64366],[13.37947,50.62538],[13.36367,50.62033],[13.36432,50.61585],[13.34325,50.61452],[13.33754,50.60511],[13.32376,50.60241],[13.32679,50.58181],[13.2987,50.58004],[13.29937,50.57555],[13.29235,50.57511],[13.29169,50.57959],[13.28467,50.57914],[13.28364,50.59113],[13.26152,50.59185],[13.26094,50.59574],[13.24862,50.59227],[13.2481,50.5848],[13.24225,50.585],[13.2359,50.57773],[13.23517,50.56694],[13.22295,50.55946],[13.2227,50.55573],[13.22856,50.55553],[13.22684,50.53925],[13.21348,50.53387],[13.21482,50.5249],[13.1968,50.51548],[13.19599,50.50059],[13.14335,50.50598],[13.13728,50.50244],[13.13393,50.51514],[13.11103,50.50912],[13.11171,50.50464],[13.09069,50.50327],[13.09137,50.49879],[13.0556,50.50134],[13.05429,50.50993],[13.03327,50.50855],[13.03533,50.4951],[13.02832,50.49464],[13.03107,50.47672],[13.02407,50.47625],[13.02819,50.44936],[12.99527,50.4336],[12.99665,50.42463],[12.97742,50.41883],[12.97705,50.41427],[12.93579,50.40699],[12.9351,50.41147],[12.92042,50.41501],[12.91972,50.41949],[12.89996,50.42301],[12.87427,50.43906],[12.86727,50.43859],[12.86657,50.44307],[12.85957,50.4426],[12.85887,50.44708],[12.85188,50.44661],[12.85117,50.45108],[12.84417,50.45061],[12.84347,50.45509],[12.82948,50.45414],[12.82877,50.45862],[12.82177,50.45815],[12.82319,50.44918],[12.81619,50.44871],[12.8169,50.44423],[12.8099,50.44375],[12.81239,50.43256],[12.80655,50.4327],[12.79164,50.44703],[12.76141,50.44043],[12.71852,50.41991],[12.70607,50.40898],[12.70513,50.39776],[12.67771,50.41355],[12.67802,50.41728],[12.66656,50.41763],[12.65453,50.41053],[12.61506,50.41923],[12.60282,50.40848],[12.58008,50.4093],[12.55652,50.40252],[12.51611,50.40009],[12.49188,50.38232],[12.48512,50.36751],[12.4901,50.36736],[12.49309,50.34916],[12.45821,50.34666],[12.45894,50.34218],[12.44499,50.34118],[12.44722,50.32775],[12.44031,50.32725],[12.4411,50.32288],[12.42315,50.32602],[12.41933,50.32568],[12.42006,50.32129],[12.40612,50.32026],[12.40761,50.3113],[12.40072,50.3108],[12.40148,50.30633],[12.40833,50.30688],[12.40983,50.29791],[12.39664,50.29238],[12.39739,50.2879],[12.37654,50.28639],[12.37109,50.27692],[12.36409,50.27642],[12.36554,50.26747],[12.35858,50.26696],[12.36379,50.23571],[12.35687,50.23511],[12.3561,50.23959],[12.33522,50.23807],[12.3397,50.2113],[12.32655,50.20571],[12.32729,50.20129],[12.33447,50.20172],[12.32849,50.19452],[12.31687,50.19455],[12.32759,50.17973],[12.28272,50.18268],[12.2829,50.19409],[12.27173,50.19751],[12.2663,50.20508],[12.27789,50.20892],[12.28412,50.22028],[12.27832,50.21649],[12.27869,50.22388],[12.28441,50.22743],[12.27307,50.22749],[12.2735,50.23492],[12.27921,50.23494],[12.25765,50.23851],[12.23416,50.25328],[12.2345,50.25708],[12.24011,50.25708],[12.24048,50.26453],[12.25751,50.25708],[12.25812,50.26849],[12.25293,50.2757],[12.19489,50.27911],[12.19568,50.29413],[12.19018,50.29828],[12.19067,50.30511],[12.19647,50.3053],[12.1972,50.31628],[12.18768,50.31787],[12.19469,50.31848],[12.19409,50.32288],[12.13122,50.31815],[12.13198,50.31371],[12.12502,50.31316],[12.12965,50.2863],[12.13717,50.28211],[12.12572,50.27441],[12.10876,50.27428],[12.09736,50.26669],[12.09732,50.25914],[12.08586,50.25535],[12.10037,50.2516],[12.10178,50.24341],[12.1157,50.24446],[12.11724,50.2355],[12.16052,50.22968],[12.16252,50.21798],[12.17074,50.21807],[12.17638,50.21054],[12.1852,50.20886],[12.18766,50.19927],[12.19892,50.19562],[12.19896,50.18417],[12.2046,50.18043],[12.20462,50.1728],[12.21025,50.17287],[12.21028,50.16523],[12.19901,50.15749],[12.19902,50.14988],[12.19337,50.14603],[12.19338,50.12702],[12.19905,50.12322],[12.19906,50.11182],[12.21042,50.10423],[12.22353,50.10746],[12.22429,50.10298],[12.23122,50.1035],[12.23238,50.09666],[12.24445,50.10056],[12.24448,50.09541],[12.26124,50.09212],[12.26274,50.08317],[12.26968,50.08368],[12.27273,50.07799],[12.25603,50.06228],[12.28805,50.05784],[12.31578,50.05988],[12.31653,50.0554],[12.32346,50.05592],[12.3257,50.04248],[12.34724,50.03953],[12.34725,50.03189],[12.35869,50.02803],[12.36444,50.02038],[12.40018,50.0162],[12.40846,50.00849],[12.42243,50.00875],[12.42317,50.00428],[12.43702,50.00528],[12.43849,49.99632],[12.43156,49.99582],[12.4323,49.99134],[12.46831,49.99588],[12.46827,49.98941],[12.47457,49.98986],[12.4753,49.98539],[12.48915,49.98638],[12.49723,49.97248],[12.49194,49.96922],[12.49279,49.96399],[12.48587,49.96349],[12.4866,49.95901],[12.47276,49.95801],[12.47568,49.94009],[12.51171,49.93362],[12.51244,49.92915],[12.54774,49.92714],[12.55134,49.90474],[12.54443,49.90425],[12.54588,49.89529],[12.53206,49.8943],[12.53278,49.88982],[12.51968,49.88435],[12.51928,49.86399],[12.50259,49.86046],[12.50151,49.83884],[12.48423,49.84295],[12.4726,49.83582],[12.47831,49.83203],[12.4781,49.81731],[12.46826,49.81376],[12.47207,49.79027],[12.40875,49.76619],[12.40289,49.75516],[12.41977,49.73292],[12.43123,49.73282],[12.43549,49.71509],[12.44237,49.71559],[12.44377,49.70695],[12.47968,49.70017],[12.49925,49.68806],[12.5166,49.6916],[12.52786,49.68776],[12.52751,49.67673],[12.5336,49.6678],[12.52751,49.66237],[12.52888,49.65387],[12.522,49.65337],[12.52048,49.64873],[12.53165,49.6434],[12.52537,49.63235],[12.53666,49.62855],[12.5339,49.6225],[12.56482,49.62449],[12.55885,49.61719],[12.56985,49.60965],[12.56937,49.59858],[12.58037,49.59104],[12.57391,49.57266],[12.57943,49.56889],[12.58805,49.544],[12.5962,49.53632],[12.62321,49.53137],[12.64032,49.53483],[12.64583,49.53106],[12.64238,49.5073],[12.64581,49.48547],[12.63281,49.48001],[12.64367,49.47567],[12.64932,49.46306],[12.65404,49.46339],[12.65981,49.45329],[12.66107,49.43217],[12.68231,49.42914],[12.683,49.42466],[12.71037,49.42659],[12.71177,49.41763],[12.72614,49.41411],[12.72684,49.40963],[12.74052,49.41059],[12.74121,49.40611],[12.75973,49.4003],[12.75906,49.38182],[12.7823,49.36367],[12.78411,49.35191],[12.84831,49.34744],[12.8763,49.33591],[12.88266,49.33953],[12.87675,49.35451],[12.90608,49.35352],[12.93512,49.34518],[12.95289,49.34827],[12.95845,49.34071],[12.97019,49.34031],[12.98148,49.32886],[12.99322,49.32847],[12.99293,49.32109],[12.99881,49.32089],[12.99865,49.3172],[13.01039,49.31681],[13.01011,49.30941],[13.03359,49.30864],[13.03261,49.28273],[13.03793,49.26773],[13.0614,49.26696],[13.06099,49.25585],[13.07258,49.25177],[13.07245,49.24806],[13.09577,49.24359],[13.09251,49.22634],[13.11427,49.21873],[13.11754,49.1963],[13.13863,49.19318],[13.13928,49.18869],[13.14609,49.18914],[13.14739,49.18017],[13.1542,49.18063],[13.16231,49.1721],[13.17593,49.17301],[13.17648,49.1692],[13.18046,49.17431],[13.18608,49.16671],[13.18618,49.15545],[13.18048,49.15185],[13.18021,49.14444],[13.2088,49.12873],[13.21426,49.12118],[13.24413,49.11409],[13.2598,49.11512],[13.26306,49.12063],[13.29591,49.12018],[13.31753,49.10498],[13.33936,49.09724],[13.35547,49.08588],[13.3605,49.07471],[13.37693,49.07073],[13.38195,49.05957],[13.40373,49.05178],[13.403,49.03705],[13.40836,49.03327],[13.40725,49.01114],[13.41276,49.01105],[13.40678,48.98877],[13.42243,48.98136],[13.40608,48.98534],[13.40162,48.98391],[13.4226,48.98073],[13.42384,48.97175],[13.43741,48.97262],[13.44543,48.96408],[13.45899,48.96494],[13.45961,48.96045],[13.46639,48.96089],[13.46762,48.95191],[13.48119,48.95277],[13.48919,48.94422],[13.49598,48.94465],[13.49659,48.94016],[13.50954,48.94551],[13.5102,48.9682],[13.58851,48.9686],[13.58911,48.96411],[13.59589,48.96453],[13.59815,48.94777],[13.63126,48.95058],[13.62503,48.93969],[13.63461,48.93072],[13.65296,48.89563],[13.6665,48.89647],[13.67133,48.88309],[13.72307,48.88184],[13.72248,48.88633],[13.73295,48.88882],[13.73244,48.88143],[13.75134,48.87452],[13.75428,48.85205],[13.76105,48.85247],[13.7628,48.83899],[13.77692,48.83532],[13.77751,48.83083],[13.78999,48.83158],[13.78944,48.82438],[13.79472,48.82054],[13.78888,48.81699],[13.80999,48.80161],[13.81038,48.78754],[13.80362,48.78713],[13.8042,48.78264],[13.81096,48.78305],[13.81191,48.77571],[13.83596,48.77505],[13.83382,48.76734],[13.81793,48.76001],[13.81044,48.73543],[13.79875,48.72847],[13.8043,48.72829],[13.78706,48.72151],[13.80261,48.70635],[13.81447,48.70278],[13.81233,48.68193],[13.81626,48.66033],[13.81013,48.65382],[13.82572,48.64122],[13.81583,48.61102],[13.80129,48.59674],[13.80994,48.5909],[13.80215,48.57689],[13.78044,48.57175],[13.76332,48.55681],[13.75788,48.56707],[13.75085,48.5621],[13.75179,48.55154],[13.74241,48.5489],[13.74605,48.53555],[13.74002,48.52897],[13.73193,48.52997],[13.72109,48.51679],[13.66158,48.53805],[13.64761,48.55401],[13.62156,48.56084],[13.59443,48.57615],[13.58357,48.57638],[13.57741,48.56544],[13.56715,48.56566],[13.51949,48.59617],[13.50316,48.59651],[13.49702,48.58557],[13.50245,48.58545],[13.502,48.57808],[13.49655,48.5782],[13.48497,48.56736],[13.47432,48.57127],[13.47385,48.5639],[13.4573,48.56055],[13.44709,48.57183],[13.43575,48.56468],[13.43507,48.55362],[13.45071,48.54222],[13.44504,48.53865],[13.44435,48.52758],[13.44979,48.52747],[13.45454,48.5163],[13.42387,48.46081],[13.43655,48.4415],[13.43667,48.42935],[13.41062,48.37774],[13.36864,48.35582],[13.32257,48.32257],[13.28572,48.30517],[13.24713,48.29614],[13.18485,48.29859],[13.14127,48.28553],[13.09059,48.28144],[13.02089,48.26045],[12.96319,48.21687],[12.86821,48.20367],[12.86791,48.19539],[12.85626,48.18424],[12.85599,48.17681],[12.83888,48.16937],[12.8386,48.16194],[12.80353,48.1516],[12.78715,48.12847],[12.77605,48.13589],[12.76486,48.13588],[12.76447,48.12474],[12.75303,48.11729],[12.75822,48.10615],[12.75755,48.08758],[12.77373,48.07272],[12.85971,48.02047],[12.87359,47.97205],[12.87901,47.97202],[12.87865,47.96458],[12.88407,47.96456],[12.8813,47.96101],[12.91145,47.95901],[12.91891,47.95463],[12.92205,47.93995],[12.93573,47.9454],[12.93894,47.94275],[12.94544,47.92508],[12.95921,47.91499],[12.95554,47.91061],[13.00115,47.85223],[12.97729,47.82666],[12.982,47.82183],[12.96569,47.80265],[12.94738,47.78691],[12.93769,47.78545],[12.94932,47.77499],[12.93636,47.75652],[12.92383,47.75335],[12.91127,47.73124],[12.93072,47.71896],[12.95147,47.72162],[12.95653,47.71375],[12.98884,47.71287],[13.00396,47.71975],[13.00962,47.72991],[13.04354,47.72099],[13.06299,47.69936],[13.08156,47.69137],[13.07812,47.67168],[13.10559,47.6392],[13.09662,47.6284],[13.08799,47.62947],[13.0661,47.60748],[13.06683,47.60184],[13.07653,47.595],[13.07645,47.58745],[13.04788,47.58479],[13.05336,47.56568],[13.06478,47.56523],[13.03635,47.53656],[13.04868,47.52658],[13.04861,47.51697],[13.0533,47.51696],[13.05375,47.49486],[13.02409,47.48013],[13.02424,47.47276],[13.01346,47.46577],[12.97915,47.48872],[12.97924,47.477],[12.96986,47.47709],[12.93506,47.49275],[12.91306,47.49674],[12.88481,47.52439],[12.8516,47.53233],[12.85165,47.54861],[12.84593,47.5523],[12.82291,47.55041],[12.79982,47.56146],[12.78131,47.58155],[12.79886,47.60682],[12.82668,47.61626],[12.77109,47.64505],[12.76455,47.65763],[12.77915,47.66219],[12.78598,47.67282],[12.78277,47.67592],[12.76103,47.66544],[12.7367,47.6822],[12.67399,47.68481],[12.65295,47.67418],[12.63679,47.67661],[12.62767,47.68296],[12.6177,47.67667],[12.60533,47.67925],[12.57735,47.63448],[12.53238,47.63899],[12.50606,47.62885],[12.48623,47.64648],[12.46674,47.65414],[12.45892,47.66811],[12.44026,47.68138],[12.44005,47.69673],[12.43596,47.70073],[12.36549,47.68632],[12.36217,47.69202],[12.36215,47.68808],[12.35653,47.69204],[12.34563,47.6882],[12.34052,47.69556],[12.32972,47.69544],[12.28068,47.68379],[12.27512,47.67629],[12.25878,47.67622],[12.24805,47.69124],[12.25378,47.71],[12.27054,47.72873],[12.2649,47.73643],[12.25428,47.73999],[12.23191,47.7138],[12.20981,47.70262],[12.19888,47.70643],[12.19329,47.69894],[12.17435,47.69888],[12.17923,47.68114],[12.19269,47.67271],[12.20518,47.65419],[12.21656,47.62456],[12.22089,47.60991],[12.20928,47.6012],[12.18746,47.60131],[12.18755,47.60871],[12.17101,47.6089],[12.14895,47.60172],[12.08838,47.60612],[12.07187,47.61375],[12.05534,47.6102],[12.03883,47.6141],[12.0388,47.60666],[12.02779,47.60678],[12.01681,47.62178],[11.99478,47.61828],[11.98374,47.61097],[11.97274,47.6148],[11.93966,47.60773],[11.92315,47.61162],[11.91209,47.60433],[11.86248,47.59747],[11.85687,47.57905],[11.79628,47.58341],[11.77921,47.58722],[11.77685,47.5949],[11.66769,47.58627],[11.647,47.59824],[11.63634,47.59827],[11.62536,47.57786],[11.61433,47.57797],[11.60876,47.56325],[11.60325,47.56331],[11.59296,47.55285],[11.5976,47.52273],[11.58104,47.51552],[11.58102,47.51182],[11.52587,47.50871],[11.51482,47.50144],[11.48723,47.50911],[11.45403,47.50573],[11.44847,47.51685],[11.43738,47.51326],[11.39603,47.48358],[11.38803,47.47192],[11.39852,47.46553],[11.41387,47.46548],[11.42408,47.44562],[11.38361,47.45184],[11.34161,47.45182],[11.32445,47.43606],[11.2939,47.4302],[11.29672,47.4109],[11.29059,47.39881],[11.2739,47.39101],[11.25736,47.39504],[11.22414,47.39127],[11.24155,47.41513],[11.25743,47.42612],[11.25234,47.42859],[11.25624,47.43204],[11.24606,47.43478],[11.20115,47.4329],[11.15119,47.42356],[11.12369,47.4108],[11.11872,47.39968],[11.11049,47.39724],[11.04341,47.39493],[11.0147,47.40076],[10.97752,47.39611],[10.96858,47.3993],[10.96487,47.40604],[10.97867,47.41408],[10.97851,47.42215],[10.92721,47.46207],[10.92188,47.4621],[10.92651,47.47808],[10.91048,47.47819],[10.91031,47.48218],[10.87892,47.47804],[10.87901,47.47409],[10.863,47.47803],[10.8704,47.50206],[10.91859,47.51609],[10.90904,47.52135],[10.89765,47.52011],[10.88313,47.53811],[10.84531,47.53583],[10.83758,47.52968],[10.82635,47.53175],[10.80596,47.52255],[10.77203,47.51614],[10.75947,47.52272],[10.76028,47.53292],[10.74637,47.5394],[10.71292,47.5402],[10.70759,47.54519],[10.69141,47.5458],[10.68622,47.56013],[10.62685,47.56173],[10.62161,47.56947],[10.59997,47.56983],[10.60006,47.57365],[10.58142,47.55866],[10.5753,47.54152],[10.56138,47.53593],[10.56147,47.53979],[10.49111,47.54497],[10.47511,47.55689],[10.45343,47.56102],[10.46848,47.57276],[10.46706,47.5799],[10.47738,47.58396],[10.47773,47.58854],[10.43225,47.58556],[10.43341,47.572],[10.4518,47.55756],[10.43639,47.52686],[10.43972,47.51693],[10.43105,47.50676],[10.43323,47.49765],[10.43845,47.48816],[10.45851,47.48423],[10.46283,47.48722],[10.47157,47.43306],[10.45634,47.42901],[10.44577,47.41608],[10.43579,47.41546],[10.42293,47.39054],[10.43358,47.37872],[10.41734,47.38284],[10.40632,47.37522],[10.39,47.37544],[10.38441,47.36775],[10.38418,47.3561],[10.35107,47.33326],[10.34153,47.31667],[10.34525,47.31392],[10.32324,47.30259],[10.30693,47.30284],[10.29597,47.2953],[10.28501,47.2954],[10.27475,47.28454],[10.26325,47.28808],[10.2364,47.27722],[10.23156,47.26986],[10.19755,47.27729],[10.17017,47.2699],[10.16469,47.27359],[10.16911,47.27364],[10.17071,47.29244],[10.19252,47.29654],[10.20913,47.31174],[10.20389,47.32311],[10.19306,47.32667],[10.1985,47.32679],[10.20196,47.33812],[10.23173,47.37249],[10.22687,47.39292],[10.20981,47.37954],[10.19338,47.38666],[10.19336,47.39042],[10.17851,47.39349],[10.16746,47.38593],[10.16609,47.37111],[10.16066,47.36725],[10.13359,47.3667],[10.11735,47.37386],[10.09596,47.35487],[10.08066,47.39157],[10.08433,47.39966],[10.06883,47.41166],[10.09482,47.41848],[10.10082,47.43166],[10.08861,47.45065],[10.09076,47.45659],[10.08299,47.45954],[10.06661,47.45569],[10.06652,47.45943],[10.04991,47.46686],[10.0439,47.48926],[10.03365,47.49181],[9.99734,47.48623],[9.99013,47.4994],[9.99221,47.50684],[9.96119,47.52304],[9.96656,47.52676],[9.96092,47.53424],[9.97119,47.55048],[9.96303,47.54898],[9.95506,47.53693],[9.93599,47.53775],[9.92061,47.53198],[9.91274,47.53484],[9.90606,47.54557],[9.881,47.54855],[9.87367,47.53072],[9.85165,47.53825],[9.84889,47.54332],[9.81313,47.55075],[9.82387,47.56306],[9.8183,47.57161],[9.82326,47.57805],[9.81814,47.5889],[9.80154,47.59716],[9.77422,47.5968],[9.75271,47.57429],[9.74724,47.57417],[9.74744,47.55902],[9.73711,47.54968],[9.73563,47.54136],[9.71459,47.55172],[9.68873,47.54398],[9.6848,47.54706],[9.69068,47.55114],[9.68919,47.55716],[9.66073,47.55855],[9.64948,47.56718],[9.61987,47.57188],[9.60567,47.58844],[9.5573,47.58923],[9.53728,47.60558],[9.52054,47.63966],[9.4987,47.65277],[9.46969,47.65178],[9.41797,47.66987],[9.35618,47.66404],[9.31517,47.67697],[9.25241,47.70838],[9.23387,47.72507],[9.2313,47.74222],[9.22443,47.74821],[9.14112,47.7765],[9.12199,47.79169],[9.08927,47.80472],[9.06716,47.81993],[9.04401,47.82369],[9.03196,47.8127],[9.07135,47.78354],[9.13358,47.75558],[9.15314,47.75304],[9.177,47.73775],[9.18495,47.71954],[9.18399,47.70956],[9.21287,47.68995],[9.22114,47.66815],[9.21206,47.66487],[9.18757,47.66925],[9.18576,47.65774],[9.16733,47.66219],[9.16409,47.65358],[9.14898,47.66577],[9.12956,47.66899],[9.12997,47.67522],[9.12113,47.68479],[9.10438,47.6899],[9.11174,47.69502],[9.10384,47.70489],[8.99164,47.74799],[8.98626,47.74252],[9.0101,47.73016],[8.9613,47.742],[8.9458,47.73916],[8.94137,47.73182],[8.99673,47.71027],[9.00835,47.70122],[9.00637,47.69509],[8.97597,47.67553],[8.94187,47.66196],[8.89183,47.65522],[8.87892,47.65868],[8.87745,47.67139],[8.87039,47.67913],[8.85385,47.68377],[8.85904,47.69447],[8.85586,47.69988],[8.8757,47.69741],[8.87831,47.70021],[8.87411,47.70764],[8.84865,47.70587],[8.84465,47.71629],[8.82344,47.71564],[8.82443,47.72147],[8.80819,47.72923],[8.81263,47.73433],[8.80822,47.74168],[8.79996,47.73878],[8.80025,47.73138],[8.78918,47.73209],[8.77116,47.71977],[8.77281,47.71146],[8.79734,47.708],[8.8081,47.69923],[8.79736,47.69042],[8.79815,47.67991],[8.78662,47.6807],[8.75688,47.69431],[8.72789,47.69684],[8.73751,47.72124],[8.71937,47.72709],[8.71335,47.73562],[8.72466,47.74978],[8.7423,47.7528],[8.73045,47.76611],[8.71408,47.77079],[8.69716,47.76186],[8.69027,47.76291],[8.68305,47.79148],[8.66254,47.79686],[8.65627,47.80579],[8.64994,47.80427],[8.64613,47.79654],[8.64871,47.77105],[8.62976,47.76597],[8.622,47.77304],[8.62337,47.78241],[8.61685,47.78945],[8.61984,47.80404],[8.60991,47.80903],[8.5778,47.80684],[8.56799,47.81438],[8.56252,47.81038],[8.56233,47.79997],[8.57384,47.79524],[8.57623,47.78908],[8.56746,47.78595],[8.55112,47.79103],[8.52481,47.78411],[8.52108,47.77831],[8.51064,47.78294],[8.48771,47.77968],[8.47271,47.7701],[8.45263,47.74618],[8.4572,47.73526],[8.45429,47.72972],[8.41728,47.71656],[8.40571,47.7063],[8.41964,47.6894],[8.4044,47.68005],[8.41301,47.67204],[8.42438,47.67122],[8.44554,47.65939],[8.46669,47.66155],[8.46623,47.64875],[8.47368,47.64336],[8.47875,47.6448],[8.47282,47.64716],[8.47731,47.64958],[8.4763,47.65474],[8.49193,47.64747],[8.49873,47.65219],[8.53375,47.65104],[8.5359,47.65445],[8.52883,47.66471],[8.54044,47.66381],[8.54187,47.66918],[8.55159,47.67336],[8.56408,47.67496],[8.57901,47.66759],[8.60715,47.67599],[8.62945,47.65234],[8.61722,47.64184],[8.60433,47.64315],[8.61516,47.64927],[8.60892,47.65664],[8.59685,47.64719],[8.60587,47.61689],[8.58469,47.60031],[8.56146,47.60367],[8.57278,47.61633],[8.55907,47.62761],[8.52091,47.6381],[8.50572,47.62146],[8.48259,47.61864],[8.47052,47.60868],[8.45855,47.60596],[8.46143,47.59412],[8.46883,47.58817],[8.49164,47.59134],[8.49562,47.58516],[8.4885,47.58139],[8.42343,47.57075],[8.39744,47.58015],[8.37954,47.57025],[8.32461,47.57633],[8.29653,47.59353],[8.29568,47.61062],[8.29018,47.61414],[8.26135,47.61509],[8.25601,47.62028],[8.22503,47.61147],[8.21658,47.62376],[8.20287,47.62616],[8.16558,47.60027],[8.14723,47.60086],[8.13467,47.58926],[8.10732,47.58746],[8.09852,47.56595],[8.08783,47.56289],[8.06853,47.57053],[8.04541,47.56029],[8.0206,47.55643],[7.99954,47.56242],[7.95824,47.56417],[7.94407,47.5497],[7.91199,47.55637],[7.90667,47.566],[7.90932,47.57832],[7.89072,47.59364],[7.86289,47.59497],[7.84006,47.58889],[7.82077,47.5947],[7.80869,47.57557],[7.79305,47.56383],[7.75306,47.55191],[7.71909,47.54888],[7.69596,47.53736],[7.66949,47.53712],[7.63238,47.56242],[7.67985,47.57091],[7.68146,47.57469],[7.67209,47.58501],[7.66411,47.58788],[7.67056,47.59326],[7.6392,47.59704],[7.61894,47.58091],[7.60777,47.58096],[7.60721,47.58829],[7.59142,47.59619],[7.59304,47.60082],[7.57432,47.6158],[7.56736,47.63174],[7.52467,47.66019],[7.52004,47.66625],[7.5198,47.68342],[7.51213,47.69609],[7.51375,47.70282],[7.54389,47.72258],[7.54859,47.73541],[7.53337,47.76603],[7.53023,47.78344],[7.5624,47.84102],[7.56337,47.85117],[7.55564,47.87053],[7.55773,47.88095],[7.58252,47.89826],[7.58263,47.92989],[7.62216,47.97366],[7.60858,48.00032],[7.56859,48.03634],[7.57339,48.05964],[7.56932,48.08068],[7.57977,48.10684],[7.57786,48.12139],[7.5989,48.13543],[7.5995,48.15563],[7.62934,48.18324],[7.64185,48.20399],[7.66615,48.2211],[7.69394,48.30212],[7.73412,48.31823],[7.74523,48.32983],[7.73097,48.38221],[7.73355,48.39869],[7.76616,48.46397],[7.76687,48.4868],[7.79397,48.50167],[7.80516,48.5135],[7.80547,48.55884],[7.80018,48.58317],[7.83046,48.62006],[7.83592,48.63367],[7.84504,48.64553],[7.89625,48.66721],[7.96174,48.72026],[7.9677,48.72979],[7.97025,48.75623],[7.98299,48.76109],[8.00346,48.75877],[8.01748,48.76275],[8.03186,48.78815],[8.06241,48.78919],[8.08702,48.80201],[8.10107,48.81581],[8.12144,48.86494],[8.14157,48.89607],[8.1974,48.9571],[8.22644,48.96493],[8.22888,48.97063],[8.22143,48.97524],[8.20287,48.96936],[8.19352,48.97647],[8.09138,48.98926],[8.06814,48.99931],[8.05114,49.01276],[7.99734,49.02802],[7.97632,49.0283],[7.96542,49.04049],[7.93704,49.05623],[7.91527,49.04191],[7.88499,49.04681],[7.86741,49.03349],[7.85549,49.03542],[7.84733,49.0437],[7.79993,49.06416],[7.77839,49.05764],[7.76645,49.04668],[7.73223,49.04436],[7.7306,49.05446],[7.69585,49.0563],[7.69708,49.04975],[7.67108,49.04597],[7.63529,49.05417],[7.6274,49.0734],[7.59977,49.08301],[7.56849,49.07991],[7.53118,49.09713],[7.51783,49.11877],[7.48958,49.13653],[7.50357,49.15053],[7.49134,49.16851],[7.4568,49.16413],[7.44928,49.16905],[7.43733,49.16459],[7.44559,49.18402],[7.36618,49.17201],[7.36277,49.14518],[7.32596,49.14344],[7.2934,49.11516],[7.27933,49.12327],[7.24545,49.12971],[7.21111,49.1249],[7.19833,49.11518],[7.19607,49.12208],[7.18488,49.12963],[7.16408,49.12692],[7.1588,49.12077],[7.13168,49.13218],[7.12493,49.1412],[7.10424,49.13868],[7.10362,49.14535],[7.11086,49.15031],[7.09815,49.15433],[7.08321,49.15128],[7.08258,49.14132],[7.09002,49.13226],[7.07266,49.12512],[7.06741,49.11559],[7.05802,49.11259],[7.04594,49.11824],[7.0458,49.13881],[7.02827,49.17131],[7.03371,49.18826],[7.02026,49.19273],[7.01308,49.18863],[6.97657,49.20864],[6.95756,49.2038],[6.93481,49.22213],[6.9243,49.22308],[6.89429,49.2102],[6.85845,49.22163],[6.84044,49.21423],[6.83765,49.21126],[6.85117,49.20046],[6.85014,49.19352],[6.86094,49.17863],[6.84471,49.17292],[6.8477,49.15741],[6.83446,49.15138],[6.78413,49.16815],[6.73799,49.16457],[6.71975,49.17659],[6.71284,49.18956],[6.73062,49.20671],[6.72211,49.21942],[6.69292,49.21755],[6.68431,49.25208],[6.66153,49.25733],[6.66785,49.28044],[6.65323,49.28112],[6.65105,49.28741],[6.61599,49.30268],[6.58889,49.3221],[6.59211,49.33364],[6.5787,49.33508],[6.56538,49.34929],[6.565,49.3561],[6.56963,49.3577],[6.58723,49.35175],[6.59933,49.36662],[6.58596,49.37134],[6.58401,49.38472],[6.5649,49.38854],[6.54053,49.40115],[6.53835,49.41101],[6.55464,49.41905],[6.53542,49.43416],[6.4849,49.45247],[6.46819,49.46473],[6.44043,49.46667],[6.43184,49.47446],[6.42241,49.47601],[6.4032,49.46596],[6.3676,49.46654],[6.36886,49.45982],[6.35482,49.46498],[6.36629,49.46839],[6.36492,49.50689],[6.37254,49.50921],[6.36735,49.527],[6.36038,49.5256],[6.35945,49.53074],[6.37142,49.54801],[6.37816,49.548],[6.37947,49.55864],[6.36365,49.57405],[6.36934,49.57734],[6.3697,49.57369],[6.38131,49.57427],[6.37927,49.59655],[6.39062,49.59719],[6.40634,49.61307],[6.41742,49.61749],[6.42167,49.63266],[6.437,49.65225],[6.43626,49.65965],[6.42483,49.65893],[6.4241,49.66633],[6.44951,49.67965],[6.46155,49.69477],[6.48958,49.70354],[6.50318,49.71571],[6.49712,49.72558],[6.50068,49.72897],[6.51649,49.72418],[6.49791,49.73478],[6.51058,49.73499],[6.50197,49.74848],[6.51882,49.76368],[6.5139,49.77988],[6.51773,49.78511],[6.50694,49.79007],[6.52825,49.80857],[6.52434,49.81309],[6.50833,49.80204],[6.50193,49.80908],[6.48452,49.81169],[6.47209,49.82205],[6.46071,49.82133],[6.44796,49.81307],[6.40522,49.81997],[6.37578,49.84923],[6.363,49.85403],[6.34243,49.85111],[6.33018,49.83639],[6.31228,49.8355],[6.31673,49.85063],[6.30364,49.86117],[6.30962,49.86146],[6.30924,49.86517],[6.2969,49.8683],[6.28629,49.86403],[6.28535,49.87145],[6.27979,49.87488],[6.25664,49.87793],[6.24308,49.89246],[6.23691,49.89237],[6.23876,49.899],[6.23076,49.90956],[6.2343,49.91732],[6.22445,49.92308],[6.22573,49.94054],[6.21917,49.95164],[6.19838,49.95604],[6.19054,49.97124],[6.179,49.96033],[6.16858,49.96509],[6.16888,49.96142],[6.17513,49.9615],[6.17572,49.95414],[6.16321,49.95398],[6.16262,49.96134],[6.15637,49.96126],[6.1546,49.98332],[6.16085,49.98341],[6.14149,49.99052],[6.1412,49.9942],[6.12868,49.99404],[6.14003,50.00891],[6.12066,50.01602],[6.13289,50.01986],[6.13259,50.02354],[6.12634,50.02346],[6.11949,50.03073],[6.11891,50.03809],[6.12516,50.03817],[6.11177,50.04904],[6.11089,50.06007],[6.10463,50.05999],[6.10492,50.05632],[6.09837,50.05991],[6.098,50.06456],[6.1106,50.06375],[6.11627,50.07119],[6.11568,50.07854],[6.11001,50.07111],[6.10346,50.0747],[6.10317,50.07839],[6.10943,50.07846],[6.10826,50.09317],[6.12075,50.09333],[6.11391,50.10061],[6.12639,50.10077],[6.1261,50.10445],[6.11986,50.10437],[6.1255,50.11181],[6.11927,50.11173],[6.11838,50.12276],[6.13052,50.1266],[6.12991,50.13396],[6.1498,50.1374],[6.15346,50.14963],[6.13529,50.1547],[6.14643,50.17389],[6.15739,50.17122],[6.15682,50.1773],[6.18964,50.18946],[6.17038,50.23626],[6.19198,50.24347],[6.20279,50.2548],[6.27564,50.26544],[6.27926,50.29161],[6.29106,50.29582],[6.29004,50.30692],[6.3022,50.30743],[6.30118,50.31853],[6.34137,50.32283],[6.3565,50.31293],[6.40334,50.32193],[6.40834,50.33307],[6.39609,50.3365],[6.39544,50.34385],[6.37738,50.35083],[6.36369,50.36527],[6.33976,50.37989],[6.34048,50.39069],[6.36207,50.40473],[6.36226,50.42075],[6.37467,50.44595],[6.37287,50.45066],[6.34246,50.46431],[6.33003,50.49364],[6.3151,50.50264],[6.2989,50.49778],[6.26484,50.50269],[6.25951,50.49507],[6.25344,50.49483],[6.24673,50.50091],[6.22385,50.50228],[6.21035,50.51704],[6.18083,50.53306],[6.17219,50.55051],[6.1795,50.56251],[6.19746,50.56698],[6.19675,50.5744],[6.22007,50.58709],[6.23265,50.58331],[6.24172,50.59351],[6.25157,50.5921],[6.27838,50.6164],[6.25934,50.6254],[6.22892,50.62421],[6.20995,50.63092],[6.19757,50.63116],[6.17309,50.62143],[6.16809,50.63696],[6.15966,50.64373],[6.16583,50.64401],[6.16612,50.64027],[6.17805,50.64453],[6.16949,50.65266],[6.17379,50.65841],[6.11873,50.70874],[6.10073,50.71863],[6.06033,50.71767],[6.02862,50.72522],[6.01162,50.75689],[6.00713,50.75663],[6.00622,50.76741],[6.01247,50.76775],[6.01188,50.77525],[5.99937,50.77456],[5.99908,50.77831],[5.9632,50.79505],[5.96104,50.80245],[5.97528,50.81409],[5.99974,50.80281],[6.0271,50.81477],[6.03108,50.82139],[6.01968,50.84523],[6.0631,50.85157],[6.07384,50.84686],[6.07875,50.86348],[6.08993,50.8745],[6.07565,50.89508],[6.08294,50.9218],[6.05851,50.92054],[6.04568,50.93113],[6.0398,50.92705],[6.03959,50.9308],[6.01517,50.93316],[6.00853,50.94775],[6.01435,50.95186],[6.00231,50.95485],[6.00217,50.95859],[6.02791,50.97506],[6.03236,50.97997],[6.03,50.98336],[5.98259,50.98807],[5.9669,50.98313],[5.95008,50.99216],[5.90369,50.97827],[5.89971,50.98144],[5.90825,50.99346],[5.90796,51.00095],[5.89636,51.00389],[5.89615,51.01136],[5.88046,51.02578],[5.88227,51.03234],[5.87206,51.04341],[5.87162,51.05083],[5.89512,51.04869],[5.90305,51.05451],[5.92476,51.05594],[5.94555,51.03465],[5.95931,51.03802],[5.96954,51.03447],[5.96649,51.04224],[5.97342,51.04314],[5.98233,51.05341],[5.97835,51.06316],[5.98898,51.0651],[5.9895,51.07221],[6.01527,51.09405],[6.03874,51.09565],[6.07453,51.12045],[6.08448,51.12115],[6.10696,51.14133],[6.12471,51.14256],[6.13021,51.1504],[6.1718,51.15293],[6.17852,51.1619],[6.14478,51.17372],[6.19314,51.19166],[6.1683,51.19766],[6.14557,51.19044],[6.12209,51.17582],[6.09183,51.17529],[6.07831,51.18747],[6.07363,51.22407],[6.09169,51.22537],[6.07819,51.24471],[6.11784,51.2699],[6.12814,51.28624],[6.15454,51.30357],[6.16525,51.31522],[6.17457,51.33778],[6.19886,51.3389],[6.1984,51.34256],[6.23197,51.36598],[6.22273,51.39145],[6.2335,51.40292],[6.2209,51.40613],[6.21528,51.40222],[6.21435,51.40956],[6.22286,51.43942],[6.22149,51.45044],[6.22759,51.45068],[6.2259,51.46425],[6.23141,51.4693],[6.21983,51.49256],[6.22036,51.50917],[6.19519,51.53478],[6.17926,51.5409],[6.15687,51.56924],[6.13008,51.58236],[6.12241,51.59293],[6.09096,51.60522],[6.09503,51.62029],[6.10562,51.62265],[6.11399,51.64937],[6.12114,51.65363],[6.11877,51.66046],[6.10181,51.66058],[6.03901,51.67773],[6.03434,51.6892],[6.03442,51.71091],[6.05058,51.71677],[6.03776,51.72223],[6.03654,51.72748],[6.01286,51.7358],[5.96953,51.73787],[5.96932,51.74164],[5.96401,51.74161],[5.9687,51.75293],[5.98417,51.76054],[5.98964,51.7568],[5.98944,51.76057],[6.00478,51.76817],[5.99412,51.77189],[5.99374,51.77942],[6.00071,51.782],[5.99014,51.7963],[5.99275,51.79824],[5.9653,51.81312],[5.96508,51.81688],[5.97579,51.81696],[5.96465,51.82441],[5.97212,51.83186],[6.00121,51.82851],[6.02765,51.83606],[6.03298,51.8429],[6.04804,51.84363],[6.06099,51.85159],[6.06033,51.8573],[6.06496,51.85705],[6.06825,51.8649],[6.11006,51.84696],[6.16898,51.84503],[6.167,51.85861],[6.14459,51.87052],[6.13829,51.88493],[6.10715,51.88899],[6.11811,51.89886],[6.15889,51.90538],[6.18054,51.89806],[6.2018,51.88423],[6.20131,51.87918],[6.21311,51.86876],[6.28898,51.87658],[6.30499,51.87069],[6.31053,51.85099],[6.35292,51.8545],[6.3751,51.83643],[6.38706,51.84055],[6.41747,51.82563],[6.41054,51.83594],[6.41783,51.83767],[6.41749,51.84143],[6.41112,51.84501],[6.41047,51.85367],[6.39909,51.86],[6.39732,51.87136],[6.4023,51.8748],[6.43275,51.87195],[6.43311,51.86821],[6.4391,51.86837],[6.43983,51.86088],[6.46309,51.86901],[6.47008,51.85911],[6.48807,51.85566],[6.55333,51.88271],[6.5683,51.88317],[6.58673,51.89477],[6.58711,51.89104],[6.69244,51.92016],[6.70482,51.91675],[6.70699,51.90931],[6.73071,51.89871],[6.7311,51.89497],[6.75082,51.90678],[6.75997,51.90704],[6.76522,51.9147],[6.77722,51.91504],[6.79935,51.93444],[6.80536,51.93461],[6.80872,51.96098],[6.83838,51.9656],[6.83536,51.99553],[6.81733,51.99499],[6.75945,52.03074],[6.72223,52.04084],[6.69818,52.04012],[6.69624,52.05873],[6.70711,52.07027],[6.70109,52.07008],[6.70069,52.07379],[6.74282,52.07512],[6.75972,52.08686],[6.75255,52.09785],[6.76459,52.09823],[6.76845,52.12077],[6.85296,52.11975],[6.87629,52.128],[6.88529,52.14065],[6.88659,52.1568],[6.91434,52.17047],[6.91636,52.17802],[6.93769,52.17875],[6.96889,52.19045],[6.98843,52.22537],[6.99941,52.22964],[7.02961,52.22697],[7.06931,52.23925],[7.07106,52.24348],[7.04487,52.25752],[7.03728,52.27592],[7.03123,52.2757],[7.0306,52.28314],[7.03668,52.28337],[7.02972,52.29432],[7.04714,52.30999],[7.05232,52.32513],[7.08045,52.35722],[7.07912,52.38272],[7.06433,52.40075],[7.04323,52.40687],[7.03332,52.42528],[7.02086,52.43253],[7.00628,52.4695],[7.00038,52.46948],[7.00011,52.47318],[6.98761,52.47277],[6.97546,52.45328],[6.95029,52.44071],[6.95054,52.43697],[6.8625,52.45401],[6.85424,52.46263],[6.76486,52.46493],[6.71363,52.48441],[6.70791,52.50138],[6.71043,52.52808],[6.68379,52.55606],[6.71813,52.55222],[6.73016,52.5668],[6.76826,52.56517],[6.7243,52.59061],[6.73265,52.60929],[6.72781,52.62271],[6.71926,52.62958],[6.7384,52.63944],[6.74381,52.64709],[6.7679,52.64814],[6.78657,52.65615],[6.85957,52.65267],[6.88314,52.6571],[6.90522,52.65544],[6.94878,52.64259],[6.98788,52.64983],[7.02089,52.63866],[7.05186,52.63585],[7.06306,52.64718],[7.07144,52.69153],[7.06954,52.71354],[7.07534,52.71739],[7.08038,52.81387],[7.10028,52.83577],[7.09428,52.84645],[7.21219,52.93294],[7.22622,52.95089],[7.22647,52.95808],[7.24041,52.97242],[7.24775,52.99036],[7.26149,52.99754],[7.25486,53.00112],[7.25549,53.02267],[7.24903,53.04432],[7.25658,53.09841],[7.24937,53.10578],[7.23476,53.1097],[7.22719,53.11716],[7.22697,53.12446],[7.26324,53.16001],[7.29271,53.16294],[7.27032,53.17441],[7.28495,53.18859],[7.27235,53.23378],[7.2692,53.22873],[7.2188,53.2336],[7.20528,53.23881],[7.22806,53.25819],[7.23639,53.27653],[7.23528,53.28986],[7.22972,53.2943],[7.23833,53.3],[5.8,53.3],[5.8,55.1],[8.8,55.1],[8.8,54.91557],[8.81204,54.91674],[8.8133,54.91231]],[[8.69661,47.69922],[8.67433,47.6902],[8.66407,47.69079],[8.66131,47.69521],[8.67654,47.70361],[8.66725,47.71703],[8.67944,47.71808],[8.68717,47.71364],[8.7027,47.72026],[8.71407,47.70119],[8.72245,47.69653],[8.71293,47.69413],[8.69661,47.69922]],[[8.96639,54.06347],[8.9775,54.06792],[8.9825,54.06458],[8.97639,54.06181],[8.96639,54.06347]],[[14.25583,53.7013],[14.24806,53.70681],[14.2625,53.71069],[14.26917,53.70708],[14.25583,53.7013]]]}}]}