{"type":"FeatureCollection","features":[{"type":"Feature","properties":{"role":"world-minus-de","quelle":"isellsoap/deutschlandGeoJSON 1_deutschland/3_mittel (echte Kuestenlinie inkl. Inseln) (Aussenringe als Loecher)"},"geometry":{"type":"Polygon","coordinates":[[[-179.9,-85.0],[179.9,-85.0],[179.9,85.0],[-179.9,85.0],[-179.9,-85.0]],[[6.7225,53.55819],[6.66306,53.57764],[6.65306,53.59208],[6.65639,53.59958],[6.63083,53.59792],[6.63583,53.61319],[6.66972,53.60375],[6.76194,53.61875],[6.81139,53.60264],[6.75083,53.59542],[6.72139,53.58375],[6.75583,53.56903],[6.75972,53.56181],[6.74972,53.5568],[6.74083,53.55653],[6.73417,53.56958],[6.72083,53.56486],[6.7225,53.55819]],[[6.86472,53.63903],[6.86472,53.64458],[6.90139,53.65375],[6.90917,53.64931],[6.90139,53.64791],[6.8975,53.62625],[6.87694,53.62792],[6.86472,53.63903]],[[6.82361,53.64791],[6.84805,53.64208],[6.82972,53.63653],[6.82028,53.64153],[6.82361,53.64791]],[[6.82472,53.65625],[6.84139,53.65708],[6.82361,53.64791],[6.81361,53.64042],[6.82472,53.65625]],[[7.05861,53.68458],[7.09583,53.68069],[6.85472,53.66125],[6.87417,53.67264],[7.05861,53.68458]],[[7.3425,53.7207],[7.27139,53.70375],[7.20861,53.70625],[7.19361,53.69875],[7.16972,53.70764],[7.16528,53.69764],[7.15083,53.69736],[7.13805,53.70514],[7.18417,53.72097],[7.28361,53.71625],[7.31639,53.72347],[7.3425,53.7207]],[[8.16195,53.72958],[8.17361,53.72375],[8.15417,53.71208],[8.13417,53.71458],[8.13361,53.72319],[8.16195,53.72958]],[[7.39417,53.73458],[7.42972,53.72514],[7.38806,53.72014],[7.36028,53.72681],[7.39417,53.73458]],[[7.46972,53.74569],[7.48472,53.75486],[7.57361,53.75736],[7.6275,53.74847],[7.51361,53.74347],[7.49472,53.72264],[7.4675,53.72709],[7.46972,53.74569]],[[8.00917,53.78569],[8.03083,53.75903],[8.02194,53.75458],[8.0225,53.74486],[7.9875,53.77014],[8.00917,53.78569]],[[7.66694,53.75875],[7.68528,53.77653],[7.70639,53.77958],[7.80583,53.77458],[7.74083,53.76125],[7.69695,53.76514],[7.68083,53.75347],[7.66694,53.75875]],[[7.87583,53.78819],[7.86583,53.77375],[7.84639,53.7868],[7.89583,53.79403],[7.96805,53.77486],[7.87583,53.78819]],[[8.3725,53.82847],[8.35083,53.83014],[8.37694,53.83597],[8.3725,53.82847]],[[7.8625,54.19403],[7.88528,54.18875],[7.8975,54.17597],[7.89139,54.17014],[7.89972,54.17014],[7.88917,54.16986],[7.8625,54.19403]],[[7.91861,54.18986],[7.91806,54.18069],[7.90028,54.18458],[7.91861,54.18986]],[[8.40028,54.61847],[8.39528,54.61208],[8.3625,54.60847],[8.2925,54.66708],[8.30528,54.68264],[8.35694,54.71153],[8.34028,54.69875],[8.33917,54.6893],[8.35417,54.67347],[8.36139,54.64958],[8.38195,54.64097],[8.38583,54.62764],[8.40361,54.62625],[8.38583,54.62375],[8.39083,54.61625],[8.40028,54.61847]],[[8.42972,54.87764],[8.50964,54.88184],[8.41639,54.84708],[8.3775,54.85875],[8.36583,54.87542],[8.34028,54.8807],[8.32917,54.86736],[8.32972,54.87958],[8.31028,54.87431],[8.30306,54.85903],[8.3325,54.86319],[8.30472,54.8582],[8.30028,54.85069],[8.29417,54.82764],[8.30028,54.80347],[8.2925,54.78847],[8.30028,54.77597],[8.29417,54.7557],[8.29861,54.74208],[8.27972,54.7518],[8.28917,54.88208],[8.29805,54.90931],[8.38694,55.04014],[8.39861,55.05292],[8.4175,55.05653],[8.46306,55.0457],[8.39917,55.05042],[8.39694,55.03597],[8.4225,55.03431],[8.4425,55.01597],[8.37917,54.99681],[8.35361,54.96736],[8.36194,54.95681],[8.35917,54.93069],[8.36694,54.90236],[8.38139,54.89069],[8.42972,54.87764]],[[8.67654,47.70361],[8.66725,47.71703],[8.70837,47.71556],[8.72245,47.69653],[8.69213,47.69934],[8.67433,47.6902],[8.66131,47.69521],[8.67654,47.70361]],[[8.49861,53.93125],[8.5175,53.92319],[8.51528,53.91708],[8.4875,53.91403],[8.48806,53.92542],[8.49861,53.93125]],[[8.68972,54.06681],[8.70139,54.05792],[8.6825,54.04819],[8.67639,54.05903],[8.68972,54.06681]],[[8.9775,54.06792],[8.9825,54.06375],[8.96639,54.06347],[8.9775,54.06792]],[[8.61195,54.08875],[8.61528,54.08375],[8.60028,54.0757],[8.58639,54.07958],[8.61195,54.08875]],[[8.48195,54.45153],[8.52583,54.43347],[8.48972,54.41264],[8.47028,54.42181],[8.44972,54.45264],[8.45917,54.46847],[8.47639,54.47653],[8.47472,54.46597],[8.48806,54.45375],[8.48195,54.45153]],[[8.55028,54.46819],[8.56306,54.46403],[8.55028,54.45958],[8.54472,54.46486],[8.55028,54.46819]],[[8.46472,54.52681],[8.46917,54.54486],[8.4775,54.54625],[8.50472,54.53097],[8.49194,54.52514],[8.49861,54.5057],[8.47194,54.49597],[8.46472,54.52681]],[[8.70639,54.53819],[8.67194,54.49458],[8.62306,54.48903],[8.58917,54.51181],[8.5925,54.53347],[8.62528,54.53514],[8.69195,54.55708],[8.70694,54.55375],[8.70639,54.53819]],[[8.80861,54.55597],[8.83694,54.55153],[8.82361,54.54264],[8.79028,54.55153],[8.80861,54.55597]],[[8.57306,54.55875],[8.54917,54.55653],[8.50917,54.57403],[8.55139,54.57958],[8.57528,54.56569],[8.57306,54.55875]],[[8.45528,54.55875],[8.46139,54.57431],[8.48306,54.58458],[8.47917,54.57736],[8.49139,54.57597],[8.50139,54.55819],[8.45528,54.55875]],[[8.72972,54.62875],[8.70972,54.63181],[8.71361,54.63958],[8.73306,54.64431],[8.73972,54.63542],[8.72972,54.62875]],[[8.54861,54.61708],[8.52917,54.62653],[8.53861,54.63625],[8.6075,54.64264],[8.66361,54.6618],[8.66306,54.64931],[8.64861,54.63958],[8.58417,54.63375],[8.54861,54.61708]],[[8.70972,54.67208],[8.68139,54.67264],[8.7125,54.69208],[8.72194,54.68514],[8.70972,54.67208]],[[8.58083,54.72986],[8.59528,54.71958],[8.58028,54.70986],[8.56694,54.67986],[8.48028,54.68097],[8.39694,54.7057],[8.40028,54.72403],[8.42139,54.74319],[8.53972,54.7557],[8.58361,54.7443],[8.58083,54.72986]],[[9.5725,54.88514],[9.55194,54.87708],[9.57639,54.88882],[9.5725,54.88514]],[[8.90238,54.9052],[8.97505,54.90058],[9.04717,54.8691],[9.14315,54.87075],[9.19638,54.85594],[9.22478,54.85595],[9.273,54.82407],[9.28259,54.80223],[9.31633,54.80991],[9.34564,54.80354],[9.38758,54.83834],[9.40868,54.84117],[9.43972,54.80847],[9.42917,54.80097],[9.43528,54.78847],[9.43806,54.8032],[9.45306,54.80764],[9.46472,54.82264],[9.49639,54.82208],[9.51583,54.83847],[9.58472,54.86486],[9.58917,54.87597],[9.61361,54.87597],[9.58972,54.85236],[9.60306,54.83153],[9.77139,54.79542],[9.79194,54.79736],[9.84306,54.75625],[9.87583,54.75236],[9.89306,54.77042],[9.90583,54.76375],[9.9075,54.79736],[9.95528,54.78014],[9.97694,54.75681],[9.98917,54.71653],[10.03639,54.69014],[10.03472,54.67236],[10.0225,54.69208],[9.99083,54.68153],[9.99306,54.69903],[9.98305,54.70125],[9.97417,54.69347],[9.9775,54.68264],[9.93806,54.67292],[9.93306,54.62764],[9.90806,54.63458],[9.90917,54.62819],[9.85917,54.60236],[9.83639,54.59847],[9.81861,54.58486],[9.8125,54.5882],[9.82472,54.59375],[9.80472,54.58847],[9.80194,54.57958],[9.80972,54.58736],[9.81028,54.57903],[9.78528,54.57319],[9.77028,54.5807],[9.76361,54.56931],[9.76861,54.56514],[9.75361,54.55847],[9.73472,54.53236],[9.71472,54.5332],[9.71972,54.52986],[9.7125,54.51958],[9.69528,54.52736],[9.64639,54.52403],[9.63306,54.51431],[9.62694,54.53097],[9.60417,54.52681],[9.59972,54.52291],[9.60583,54.52014],[9.58694,54.51014],[9.54528,54.5093],[9.5775,54.50042],[9.56694,54.49514],[9.57639,54.48625],[9.57417,54.47514],[9.5825,54.47792],[9.58083,54.50097],[9.62417,54.51153],[9.66528,54.50625],[9.69195,54.49014],[9.71472,54.49125],[9.70028,54.51486],[9.71583,54.51736],[9.72083,54.52903],[9.72639,54.52819],[9.72361,54.52042],[9.73694,54.52486],[9.74861,54.54653],[9.77083,54.55791],[9.77694,54.55292],[9.82195,54.58153],[9.84083,54.58403],[9.84194,54.59097],[9.93806,54.62347],[9.94528,54.63708],[9.93639,54.6507],[9.94806,54.67375],[9.9975,54.66597],[10.0025,54.67403],[10.00972,54.6618],[10.03417,54.66986],[10.0325,54.66208],[10.01472,54.66069],[10.03361,54.65792],[10.0275,54.55042],[9.99806,54.52097],[9.96583,54.50292],[9.86472,54.46986],[9.83972,54.47625],[9.84028,54.46736],[9.84806,54.4557],[9.86861,54.44736],[9.93417,54.46069],[9.92528,54.46181],[10.1275,54.48514],[10.19917,54.45597],[10.16861,54.43403],[10.19028,54.40986],[10.19194,54.38986],[10.16083,54.38569],[10.16583,54.37764],[10.14806,54.3693],[10.15139,54.36292],[10.14083,54.35292],[10.1575,54.33681],[10.13195,54.31125],[10.15139,54.32403],[10.18417,54.32792],[10.17028,54.33319],[10.17694,54.3343],[10.17805,54.36097],[10.19583,54.36625],[10.19361,54.37903],[10.20861,54.38681],[10.22806,54.41347],[10.27917,54.41764],[10.29361,54.42236],[10.27694,54.42014],[10.29028,54.42875],[10.31861,54.4357],[10.39083,54.42569],[10.47694,54.3918],[10.60361,54.36264],[10.63861,54.34764],[10.65028,54.33181],[10.68194,54.31847],[10.68306,54.31042],[10.70472,54.30486],[10.78861,54.31153],[10.92861,54.38181],[11.0225,54.3807],[10.99861,54.37486],[10.9825,54.37931],[10.99306,54.37069],[11.02583,54.36764],[11.07972,54.37736],[11.09639,54.39375],[11.12806,54.39069],[11.12639,54.37375],[11.08639,54.35653],[11.07861,54.34514],[11.07306,54.3568],[11.05861,54.35431],[11.06306,54.34403],[11.07528,54.34625],[11.07472,54.31125],[11.08472,54.28181],[11.08139,54.24736],[11.09361,54.19792],[10.95361,54.14042],[10.87917,54.08847],[10.82917,54.08792],[10.80472,54.09597],[10.79195,54.07486],[10.75417,54.05486],[10.7525,54.03347],[10.78528,53.99736],[10.87361,53.98931],[10.88528,53.97847],[10.88139,53.96514],[10.89083,53.9557],[10.93472,53.96458],[11.04028,54.00653],[11.17917,54.01569],[11.21472,53.98486],[11.25861,53.98486],[11.25472,53.97347],[11.24528,53.97153],[11.24083,53.95236],[11.25861,53.93403],[11.28694,53.93042],[11.33528,53.95847],[11.36472,53.93514],[11.40528,53.93542],[11.40306,53.92153],[11.43806,53.91069],[11.43417,53.90153],[11.45472,53.90042],[11.44361,53.91042],[11.48139,53.92736],[11.48361,53.96847],[11.47139,53.96347],[11.47583,53.96958],[11.46694,53.9707],[11.45472,53.95736],[11.44361,53.96041],[11.44472,53.99708],[11.42806,53.98653],[11.42806,53.96097],[11.39472,53.97458],[11.38639,53.96847],[11.41083,53.96625],[11.38805,53.96542],[11.37528,53.98153],[11.37806,53.99736],[11.44472,54.02125],[11.4925,54.02291],[11.49306,54.00375],[11.47861,53.99875],[11.48028,53.98153],[11.4675,53.97403],[11.48694,53.97486],[11.49028,53.96819],[11.49972,53.98542],[11.49139,53.99347],[11.51083,54.01292],[11.53472,54.02097],[11.5175,54.02514],[11.51917,54.03208],[11.54694,54.02514],[11.5725,54.03264],[11.58639,54.04653],[11.58139,54.06347],[11.6225,54.07597],[11.62583,54.08958],[11.61306,54.10292],[11.60361,54.10264],[11.5325,54.04903],[11.53472,54.07375],[11.52528,54.0718],[11.55639,54.09542],[11.61694,54.11069],[11.6825,54.15319],[11.76139,54.15458],[11.85361,54.14514],[12.01028,54.1782],[12.0875,54.18319],[12.09695,54.16986],[12.09194,54.15208],[12.10306,54.14791],[12.10694,54.15597],[12.11306,54.14625],[12.10861,54.15542],[12.11639,54.15625],[12.12472,54.15014],[12.12139,54.15847],[12.14194,54.16014],[12.13639,54.16875],[12.1425,54.17236],[12.10917,54.17569],[12.10083,54.16903],[12.09528,54.18097],[12.10917,54.17792],[12.12806,54.1857],[12.19583,54.24292],[12.33917,54.29792],[12.4075,54.37764],[12.45194,54.40403],[12.49639,54.46986],[12.51972,54.48431],[12.53028,54.48236],[12.52639,54.47097],[12.54805,54.45597],[12.65528,54.44264],[12.92028,54.44486],[12.92139,54.43236],[12.92917,54.44292],[12.9625,54.43764],[12.93805,54.43819],[12.9225,54.42319],[12.87583,54.41319],[12.82139,54.42097],[12.8025,54.4082],[12.78861,54.41708],[12.76194,54.41292],[12.73083,54.42236],[12.72861,54.41514],[12.67417,54.41819],[12.69139,54.42458],[12.6875,54.42875],[12.67083,54.42264],[12.66387,54.4087],[12.70639,54.41208],[12.71528,54.4043],[12.68861,54.39986],[12.69361,54.38569],[12.68565,54.37773],[12.69583,54.38486],[12.69972,54.39875],[12.71528,54.39875],[12.72028,54.37292],[12.73472,54.37069],[12.74361,54.38375],[12.75417,54.37153],[12.7675,54.37097],[12.77472,54.38931],[12.78695,54.39625],[12.78528,54.37958],[12.80361,54.37236],[12.81028,54.34514],[12.87861,54.36542],[12.8975,54.40181],[13.01972,54.43903],[13.03528,54.43125],[13.0225,54.41736],[13.02528,54.39653],[13.04972,54.37958],[13.08028,54.3807],[13.09361,54.36681],[13.07583,54.34542],[13.08805,54.32014],[13.11195,54.30458],[13.10583,54.28181],[13.1325,54.26903],[13.15305,54.26847],[13.16528,54.27764],[13.17917,54.27014],[13.15805,54.26653],[13.14305,54.25375],[13.18472,54.26653],[13.21639,54.24958],[13.21139,54.24514],[13.21639,54.24097],[13.28639,54.23514],[13.3275,54.18375],[13.34639,54.18042],[13.31805,54.15986],[13.37694,54.17681],[13.40139,54.17014],[13.39528,54.18097],[13.41583,54.17514],[13.4225,54.16625],[13.38139,54.15153],[13.3825,54.14236],[13.41139,54.15653],[13.40639,54.1468],[13.43639,54.12931],[13.43806,54.11125],[13.4575,54.09792],[13.45695,54.09069],[13.50083,54.08514],[13.47639,54.11597],[13.48917,54.12375],[13.62806,54.14014],[13.69639,54.17181],[13.71861,54.16403],[13.69528,54.15792],[13.69639,54.14903],[13.73417,54.13631],[13.74972,54.13931],[13.7475,54.13403],[13.7625,54.12792],[13.7575,54.11903],[13.80694,54.1032],[13.79361,54.08569],[13.79028,54.0643],[13.77472,54.06042],[13.78361,54.05931],[13.78528,54.0493],[13.74417,54.0293],[13.75861,54.02792],[13.75972,54.01514],[13.79639,53.99514],[13.83472,53.98431],[13.85472,53.96431],[13.85194,53.95292],[13.87972,53.95125],[13.91417,53.92236],[13.90139,53.90986],[13.86472,53.9007],[13.84583,53.87736],[13.82361,53.87736],[13.82472,53.86625],[13.89305,53.87653],[13.92195,53.88792],[13.9375,53.90847],[13.92305,53.95042],[13.89528,53.96653],[13.90583,53.98986],[13.96528,53.99014],[13.96361,53.97319],[13.97361,53.97042],[13.95028,53.95903],[13.95861,53.95319],[13.95306,53.93458],[13.95972,53.93403],[13.97083,53.94986],[13.96306,53.95736],[13.98361,53.96264],[14.02528,53.96208],[14.0125,53.94931],[14.0425,53.94208],[14.03472,53.95014],[14.04639,53.97375],[14.04694,53.99653],[14.02972,54.01764],[14.00361,54.01069],[13.99695,54.04125],[13.96861,54.05931],[13.97417,54.06375],[13.94917,54.05875],[13.91083,54.0643],[13.9175,54.05958],[13.90861,54.04292],[13.91528,54.04736],[13.92417,54.03542],[13.89972,54.01208],[13.86695,54.00736],[13.8625,53.99931],[13.85306,54.00403],[13.85306,54.01375],[13.87917,54.04014],[13.85806,54.04847],[13.82028,54.0368],[13.80139,54.01847],[13.76917,54.01903],[13.76361,54.03097],[13.79028,54.04875],[13.7875,54.05653],[13.7975,54.06208],[13.8125,54.09903],[13.80583,54.10958],[13.77818,54.11822],[13.7875,54.11014],[13.77194,54.11458],[13.76861,54.12653],[13.77454,54.12138],[13.77361,54.13208],[13.7575,54.13458],[13.74917,54.15903],[13.76528,54.17014],[13.80972,54.1743],[13.80361,54.17847],[13.8125,54.17736],[13.83583,54.12819],[13.87083,54.10153],[13.93194,54.07542],[14.01417,54.05431],[14.18306,53.94625],[14.22139,53.93014],[14.18633,53.91558],[14.2095,53.90316],[14.21734,53.86542],[14.18917,53.87264],[14.03861,53.87347],[13.99083,53.84792],[13.89861,53.83958],[13.82639,53.84958],[13.82194,53.85708],[13.82917,53.8568],[13.83083,53.86514],[13.80639,53.8582],[13.81861,53.8418],[13.84861,53.84375],[13.86806,53.83597],[13.87361,53.82097],[13.90083,53.80264],[13.91695,53.80625],[13.9725,53.77208],[14.03861,53.75514],[14.06139,53.75514],[14.10139,53.74014],[14.16361,53.74292],[14.17583,53.73542],[14.23361,53.76181],[14.28306,53.73875],[14.26805,53.73653],[14.25306,53.72014],[14.21528,53.70264],[14.24472,53.69375],[14.27316,53.69931],[14.28474,53.67256],[14.27089,53.66283],[14.29158,53.65946],[14.28935,53.63378],[14.32491,53.61865],[14.3185,53.59304],[14.31097,53.59266],[14.31529,53.56129],[14.30776,53.56091],[14.30271,53.54261],[14.31837,53.53889],[14.32517,53.53004],[14.3182,53.52279],[14.33539,53.5004],[14.34806,53.50022],[14.35971,53.48903],[14.36367,53.45948],[14.37562,53.45945],[14.37357,53.42619],[14.40093,53.37799],[14.39968,53.35953],[14.39306,53.35592],[14.41084,53.34824],[14.42025,53.32563],[14.41414,53.31126],[14.42328,53.27791],[14.44413,53.27657],[14.44893,53.26164],[14.4065,53.2229],[14.4077,53.21396],[14.37892,53.20416],[14.3747,53.18073],[14.36714,53.18033],[14.37016,53.15792],[14.38629,53.14972],[14.38812,53.13629],[14.38068,53.13589],[14.38251,53.11482],[14.36934,53.10823],[14.37451,53.0965],[14.36429,53.08993],[14.36609,53.07648],[14.3587,53.07611],[14.35993,53.06708],[14.3457,53.05292],[14.31155,53.0376],[14.29839,53.02349],[14.28354,53.02262],[14.27051,53.00841],[14.20358,52.98922],[14.14245,52.96111],[14.15589,52.87956],[14.12262,52.85494],[14.12127,52.84027],[14.1389,52.82549],[14.21407,52.8204],[14.27272,52.77831],[14.34138,52.75927],[14.38155,52.72517],[14.39841,52.72155],[14.42114,52.68696],[14.45592,52.67931],[14.4662,52.65726],[14.48094,52.65799],[14.55185,52.62541],[14.56658,52.62613],[14.60624,52.60551],[14.60836,52.58875],[14.61643,52.58344],[14.63906,52.58003],[14.6334,52.56622],[14.61247,52.55617],[14.60795,52.53339],[14.6006,52.53302],[14.60852,52.5289],[14.61078,52.51096],[14.63125,52.49913],[14.62038,52.49337],[14.62151,52.4844],[14.60552,52.48175],[14.60463,52.46666],[14.59249,52.46302],[14.59204,52.45548],[14.54321,52.43749],[14.54171,52.41118],[14.52891,52.39641],[14.55175,52.37701],[14.55,52.34998],[14.56011,52.32829],[14.58435,52.31106],[14.58548,52.30209],[14.57132,52.29712],[14.5709,52.28956],[14.64186,52.26331],[14.68473,52.2597],[14.69957,52.24109],[14.692,52.21122],[14.67528,52.20369],[14.69468,52.17392],[14.6715,52.15142],[14.675,52.12531],[14.66935,52.12155],[14.68926,52.09927],[14.71594,52.09566],[14.74128,52.07339],[14.72967,52.06214],[14.73397,52.04725],[14.72155,52.02481],[14.70968,52.00983],[14.6989,52.00977],[14.70266,51.98741],[14.69162,51.98362],[14.69053,51.96869],[14.70587,51.95758],[14.70478,51.94266],[14.68809,51.9351],[14.69265,51.92393],[14.68054,51.9052],[14.65185,51.88552],[14.65295,51.87655],[14.60451,51.85609],[14.60562,51.84712],[14.58503,51.83707],[14.59282,51.83294],[14.5867,51.8236],[14.59393,51.82396],[14.59615,51.80602],[14.64838,51.79506],[14.65496,51.7412],[14.66217,51.74156],[14.65605,51.73222],[14.67879,51.72432],[14.68042,51.71085],[14.7239,51.68915],[14.71796,51.68166],[14.72878,51.68172],[14.73873,51.66687],[14.73238,51.65564],[14.74603,51.611],[14.71083,51.58468],[14.71597,51.58098],[14.69814,51.55851],[14.72867,51.55067],[14.73135,51.52822],[14.73907,51.52408],[14.78656,51.52189],[14.85032,51.49265],[14.91036,51.49319],[14.90997,51.48574],[14.93386,51.48227],[14.95658,51.45324],[14.96375,51.45354],[14.96529,51.44007],[14.97246,51.44041],[14.95914,51.43076],[14.96221,51.40381],[14.96948,51.40318],[14.96272,51.39932],[14.96476,51.38136],[14.97959,51.37754],[14.96782,51.35442],[14.99927,51.33148],[15.00465,51.31679],[15.02848,51.3098],[15.02228,51.30599],[15.03387,51.29509],[15.03811,51.2403],[15.01771,51.23032],[15.01258,51.21203],[15.00545,51.2117],[15.00285,51.17094],[14.98975,51.16],[14.99672,51.13544],[14.98602,51.12951],[14.98753,51.11604],[14.9738,51.11088],[14.97531,51.0974],[14.98279,51.09453],[14.97582,51.09291],[14.97733,51.07944],[14.95073,51.057],[14.95008,51.04221],[14.9377,51.03829],[14.94349,51.03101],[14.93315,51.02768],[14.93011,50.99141],[14.91643,50.98617],[14.91795,50.97276],[14.90376,50.97209],[14.90478,50.9631],[14.89769,50.96276],[14.90331,50.95269],[14.87838,50.94483],[14.87139,50.92623],[14.8527,50.92216],[14.85236,50.91477],[14.82037,50.89197],[14.82574,50.87348],[14.80575,50.84369],[14.80508,50.82892],[14.71087,50.82676],[14.71754,50.8343],[14.71237,50.84081],[14.61193,50.85478],[14.60647,50.86211],[14.62543,50.88412],[14.6263,50.89878],[14.65381,50.91468],[14.65167,50.93264],[14.62988,50.93606],[14.62387,50.92672],[14.60315,50.92116],[14.56011,50.92348],[14.59121,50.96121],[14.59012,50.97019],[14.59722,50.97055],[14.59506,50.98851],[14.5614,51.00617],[14.52977,51.00169],[14.53991,51.01425],[14.50243,51.01682],[14.49678,51.03318],[14.50388,51.03355],[14.50168,51.05151],[14.49217,51.0465],[14.49756,51.04125],[14.49066,51.02036],[14.47095,51.01942],[14.46194,51.03132],[14.4488,51.0307],[14.39741,51.00828],[14.36746,51.01514],[14.36993,51.02692],[14.35286,51.03429],[14.31931,51.02534],[14.30299,51.04013],[14.30544,51.05227],[14.29402,51.05416],[14.28096,51.04443],[14.2773,51.01712],[14.25659,51.01149],[14.2654,50.99841],[14.24773,50.99467],[14.25305,50.98374],[14.24687,50.9732],[14.28128,50.96502],[14.31108,50.97186],[14.32131,50.95169],[14.40095,50.94235],[14.40262,50.92888],[14.38958,50.91916],[14.39126,50.90569],[14.37227,50.88858],[14.33689,50.88887],[14.29494,50.8748],[14.25452,50.88638],[14.24237,50.87579],[14.22496,50.87622],[14.22423,50.86169],[14.21187,50.84744],[14.14159,50.83473],[14.07675,50.81463],[14.05855,50.80047],[14.04143,50.80466],[14.02344,50.79416],[13.98392,50.81015],[13.95461,50.80371],[13.94768,50.78546],[13.89547,50.78347],[13.88249,50.76163],[13.89872,50.74296],[13.86482,50.741],[13.85081,50.7182],[13.82164,50.7154],[13.7934,50.72741],[13.75867,50.72853],[13.69049,50.71721],[13.66684,50.73389],[13.62005,50.71299],[13.54898,50.71321],[13.54813,50.70572],[13.53632,50.70238],[13.54583,50.67218],[13.51444,50.65683],[13.51506,50.64708],[13.52669,50.6467],[13.52597,50.63554],[13.49035,50.6255],[13.46519,50.59649],[13.41369,50.61306],[13.40387,50.63642],[13.37491,50.64366],[13.37947,50.62538],[13.32376,50.60241],[13.32679,50.58181],[13.29235,50.57511],[13.28364,50.59113],[13.24862,50.59227],[13.23517,50.56694],[13.22295,50.55946],[13.22684,50.53925],[13.1968,50.51548],[13.19599,50.50059],[13.13728,50.50244],[13.13393,50.51514],[13.09137,50.49879],[13.03327,50.50855],[13.03107,50.47672],[13.02407,50.47625],[13.02819,50.44936],[12.99527,50.4336],[12.99665,50.42463],[12.97705,50.41427],[12.93579,50.40699],[12.82877,50.45862],[12.8099,50.44375],[12.81239,50.43256],[12.79164,50.44703],[12.76141,50.44043],[12.71852,50.41991],[12.70607,50.40898],[12.70513,50.39776],[12.67802,50.41728],[12.65453,50.41053],[12.61506,50.41923],[12.60282,50.40848],[12.51611,50.40009],[12.49188,50.38232],[12.48512,50.36751],[12.49309,50.34916],[12.45821,50.34666],[12.44499,50.34118],[12.4411,50.32288],[12.40612,50.32026],[12.40761,50.3113],[12.40072,50.3108],[12.40983,50.29791],[12.36409,50.27642],[12.36554,50.26747],[12.35858,50.26696],[12.36379,50.23571],[12.33522,50.23807],[12.3397,50.2113],[12.32655,50.20571],[12.33447,50.20172],[12.32849,50.19452],[12.31687,50.19455],[12.32759,50.17973],[12.28272,50.18268],[12.2829,50.19409],[12.2663,50.20508],[12.27789,50.20892],[12.28441,50.22743],[12.27307,50.22749],[12.27921,50.23494],[12.23416,50.25328],[12.24048,50.26453],[12.25751,50.25708],[12.25293,50.2757],[12.19489,50.27911],[12.19018,50.29828],[12.1972,50.31628],[12.18768,50.31787],[12.19409,50.32288],[12.13122,50.31815],[12.12502,50.31316],[12.12965,50.2863],[12.13717,50.28211],[12.10876,50.27428],[12.08586,50.25535],[12.10037,50.2516],[12.10178,50.24341],[12.1157,50.24446],[12.11724,50.2355],[12.16052,50.22968],[12.16252,50.21798],[12.19892,50.19562],[12.21028,50.16523],[12.19337,50.14603],[12.19906,50.11182],[12.26124,50.09212],[12.27273,50.07799],[12.25603,50.06228],[12.31578,50.05988],[12.3257,50.04248],[12.34724,50.03953],[12.34725,50.03189],[12.36444,50.02038],[12.43702,50.00528],[12.4323,49.99134],[12.46831,49.99588],[12.4753,49.98539],[12.48915,49.98638],[12.49723,49.97248],[12.4866,49.95901],[12.47276,49.95801],[12.47568,49.94009],[12.54774,49.92714],[12.55134,49.90474],[12.51968,49.88435],[12.51928,49.86399],[12.50259,49.86046],[12.50151,49.83884],[12.48423,49.84295],[12.4726,49.83582],[12.47831,49.83203],[12.4781,49.81731],[12.46826,49.81376],[12.47207,49.79027],[12.40875,49.76619],[12.40289,49.75516],[12.41977,49.73292],[12.43123,49.73282],[12.44377,49.70695],[12.47968,49.70017],[12.49925,49.68806],[12.52786,49.68776],[12.5336,49.6678],[12.52048,49.64873],[12.53165,49.6434],[12.52537,49.63235],[12.53666,49.62855],[12.5339,49.6225],[12.56482,49.62449],[12.55885,49.61719],[12.58037,49.59104],[12.57391,49.57266],[12.58805,49.544],[12.5962,49.53632],[12.64583,49.53106],[12.64581,49.48547],[12.63281,49.48001],[12.65404,49.46339],[12.66107,49.43217],[12.71037,49.42659],[12.71177,49.41763],[12.75973,49.4003],[12.75906,49.38182],[12.7823,49.36367],[12.78411,49.35191],[12.84831,49.34744],[12.8763,49.33591],[12.88266,49.33953],[12.87675,49.35451],[12.95289,49.34827],[12.99322,49.32847],[12.99865,49.3172],[13.01039,49.31681],[13.01011,49.30941],[13.03359,49.30864],[13.03793,49.26773],[13.0614,49.26696],[13.06099,49.25585],[13.09577,49.24359],[13.09251,49.22634],[13.11427,49.21873],[13.11754,49.1963],[13.13863,49.19318],[13.16231,49.1721],[13.18046,49.17431],[13.18618,49.15545],[13.18021,49.14444],[13.21426,49.12118],[13.24413,49.11409],[13.29591,49.12018],[13.33936,49.09724],[13.3605,49.07471],[13.37693,49.07073],[13.38195,49.05957],[13.40373,49.05178],[13.40725,49.01114],[13.41276,49.01105],[13.40678,48.98877],[13.42243,48.98136],[13.40162,48.98391],[13.4226,48.98073],[13.42384,48.97175],[13.43741,48.97262],[13.44543,48.96408],[13.45899,48.96494],[13.46762,48.95191],[13.48119,48.95277],[13.49659,48.94016],[13.50954,48.94551],[13.5102,48.9682],[13.58851,48.9686],[13.59815,48.94777],[13.63126,48.95058],[13.62503,48.93969],[13.65296,48.89563],[13.6665,48.89647],[13.67133,48.88309],[13.72307,48.88184],[13.73295,48.88882],[13.73244,48.88143],[13.75134,48.87452],[13.7628,48.83899],[13.78999,48.83158],[13.79472,48.82054],[13.78888,48.81699],[13.80999,48.80161],[13.8042,48.78264],[13.83596,48.77505],[13.81793,48.76001],[13.81044,48.73543],[13.79875,48.72847],[13.8043,48.72829],[13.78706,48.72151],[13.81447,48.70278],[13.81626,48.66033],[13.81013,48.65382],[13.82572,48.64122],[13.81583,48.61102],[13.80129,48.59674],[13.80994,48.5909],[13.80215,48.57689],[13.78044,48.57175],[13.76332,48.55681],[13.75788,48.56707],[13.75085,48.5621],[13.75179,48.55154],[13.74241,48.5489],[13.74605,48.53555],[13.72109,48.51679],[13.66158,48.53805],[13.64761,48.55401],[13.59443,48.57615],[13.56715,48.56566],[13.51949,48.59617],[13.50316,48.59651],[13.49702,48.58557],[13.502,48.57808],[13.48497,48.56736],[13.47432,48.57127],[13.47385,48.5639],[13.4573,48.56055],[13.44709,48.57183],[13.43575,48.56468],[13.43507,48.55362],[13.45071,48.54222],[13.44435,48.52758],[13.45454,48.5163],[13.42387,48.46081],[13.43667,48.42935],[13.41062,48.37774],[13.28572,48.30517],[13.24713,48.29614],[13.18485,48.29859],[13.14127,48.28553],[13.09059,48.28144],[13.02089,48.26045],[12.96319,48.21687],[12.86821,48.20367],[12.85599,48.17681],[12.83888,48.16937],[12.8386,48.16194],[12.80353,48.1516],[12.78715,48.12847],[12.76486,48.13588],[12.76447,48.12474],[12.75303,48.11729],[12.75755,48.08758],[12.85971,48.02047],[12.8813,47.96101],[12.91145,47.95901],[12.92205,47.93995],[12.93894,47.94275],[13.00115,47.85223],[12.96569,47.80265],[12.93769,47.78545],[12.94932,47.77499],[12.93636,47.75652],[12.92383,47.75335],[12.91127,47.73124],[12.93072,47.71896],[12.95147,47.72162],[12.95653,47.71375],[12.98884,47.71287],[13.00962,47.72991],[13.04354,47.72099],[13.06299,47.69936],[13.08156,47.69137],[13.07812,47.67168],[13.10559,47.6392],[13.0661,47.60748],[13.07645,47.58745],[13.04788,47.58479],[13.05336,47.56568],[13.06478,47.56523],[13.03635,47.53656],[13.0533,47.51696],[13.05375,47.49486],[13.02409,47.48013],[13.01346,47.46577],[12.97915,47.48872],[12.97924,47.477],[12.96986,47.47709],[12.91306,47.49674],[12.88481,47.52439],[12.8516,47.53233],[12.84593,47.5523],[12.82291,47.55041],[12.79982,47.56146],[12.78131,47.58155],[12.79886,47.60682],[12.82668,47.61626],[12.77109,47.64505],[12.76455,47.65763],[12.77915,47.66219],[12.78277,47.67592],[12.76103,47.66544],[12.7367,47.6822],[12.67399,47.68481],[12.65295,47.67418],[12.62767,47.68296],[12.60533,47.67925],[12.57735,47.63448],[12.53238,47.63899],[12.50606,47.62885],[12.46674,47.65414],[12.44026,47.68138],[12.43596,47.70073],[12.36549,47.68632],[12.32972,47.69544],[12.25878,47.67622],[12.24805,47.69124],[12.27054,47.72873],[12.25428,47.73999],[12.23191,47.7138],[12.20981,47.70262],[12.17435,47.69888],[12.21656,47.62456],[12.22089,47.60991],[12.20928,47.6012],[12.18746,47.60131],[12.18755,47.60871],[12.14895,47.60172],[12.08838,47.60612],[12.07187,47.61375],[12.03883,47.6141],[12.0388,47.60666],[12.02779,47.60678],[12.01681,47.62178],[11.98374,47.61097],[11.92315,47.61162],[11.86248,47.59747],[11.85687,47.57905],[11.79628,47.58341],[11.77921,47.58722],[11.77685,47.5949],[11.66769,47.58627],[11.63634,47.59827],[11.62536,47.57786],[11.61433,47.57797],[11.60876,47.56325],[11.59296,47.55285],[11.5976,47.52273],[11.58102,47.51182],[11.52587,47.50871],[11.51482,47.50144],[11.48723,47.50911],[11.45403,47.50573],[11.44847,47.51685],[11.43738,47.51326],[11.38803,47.47192],[11.41387,47.46548],[11.42408,47.44562],[11.34161,47.45182],[11.32445,47.43606],[11.2939,47.4302],[11.29059,47.39881],[11.2739,47.39101],[11.22414,47.39127],[11.25743,47.42612],[11.24606,47.43478],[11.15119,47.42356],[11.11049,47.39724],[10.97752,47.39611],[10.96487,47.40604],[10.97867,47.41408],[10.97851,47.42215],[10.92188,47.4621],[10.92651,47.47808],[10.863,47.47803],[10.8704,47.50206],[10.91859,47.51609],[10.89765,47.52011],[10.88313,47.53811],[10.84531,47.53583],[10.77203,47.51614],[10.74637,47.5394],[10.69141,47.5458],[10.68622,47.56013],[10.62685,47.56173],[10.60006,47.57365],[10.58142,47.55866],[10.5753,47.54152],[10.56138,47.53593],[10.49111,47.54497],[10.45343,47.56102],[10.47773,47.58854],[10.43225,47.58556],[10.43341,47.572],[10.4518,47.55756],[10.43639,47.52686],[10.43323,47.49765],[10.43845,47.48816],[10.46283,47.48722],[10.47157,47.43306],[10.43579,47.41546],[10.42293,47.39054],[10.43358,47.37872],[10.41734,47.38284],[10.39,47.37544],[10.38418,47.3561],[10.35107,47.33326],[10.34525,47.31392],[10.32324,47.30259],[10.28501,47.2954],[10.27475,47.28454],[10.26325,47.28808],[10.23156,47.26986],[10.19755,47.27729],[10.17017,47.2699],[10.16469,47.27359],[10.17071,47.29244],[10.19252,47.29654],[10.20913,47.31174],[10.19306,47.32667],[10.23173,47.37249],[10.22687,47.39292],[10.20981,47.37954],[10.17851,47.39349],[10.16066,47.36725],[10.11735,47.37386],[10.09596,47.35487],[10.08066,47.39157],[10.08433,47.39966],[10.06883,47.41166],[10.09482,47.41848],[10.10082,47.43166],[10.09076,47.45659],[10.06661,47.45569],[10.04991,47.46686],[10.0439,47.48926],[9.99734,47.48623],[9.99221,47.50684],[9.96119,47.52304],[9.97119,47.55048],[9.95506,47.53693],[9.92061,47.53198],[9.90606,47.54557],[9.881,47.54855],[9.87367,47.53072],[9.81313,47.55075],[9.82387,47.56306],[9.81814,47.5889],[9.80154,47.59716],[9.77422,47.5968],[9.74724,47.57417],[9.74744,47.55902],[9.73563,47.54136],[9.71459,47.55172],[9.68873,47.54398],[9.68919,47.55716],[9.61987,47.57188],[9.60567,47.58844],[9.5573,47.58923],[9.53728,47.60558],[9.52054,47.63966],[9.4987,47.65277],[9.46969,47.65178],[9.41797,47.66987],[9.35618,47.66404],[9.31517,47.67697],[9.25241,47.70838],[9.23387,47.72507],[9.22443,47.74821],[9.14112,47.7765],[9.06716,47.81993],[9.04401,47.82369],[9.03196,47.8127],[9.07135,47.78354],[9.177,47.73775],[9.18399,47.70956],[9.21287,47.68995],[9.22114,47.66815],[9.18757,47.66925],[9.18576,47.65774],[9.16733,47.66219],[9.16409,47.65358],[9.10438,47.6899],[9.11174,47.69502],[9.10384,47.70489],[8.99164,47.74799],[8.98626,47.74252],[9.0101,47.73016],[8.9613,47.742],[8.94137,47.73182],[8.99673,47.71027],[9.00637,47.69509],[8.94187,47.66196],[8.89183,47.65522],[8.87892,47.65868],[8.87039,47.67913],[8.85385,47.68377],[8.85586,47.69988],[8.8757,47.69741],[8.87411,47.70764],[8.84865,47.70587],[8.84465,47.71629],[8.82344,47.71564],[8.82443,47.72147],[8.80819,47.72923],[8.80822,47.74168],[8.77116,47.71977],[8.77281,47.71146],[8.8081,47.69923],[8.79736,47.69042],[8.79815,47.67991],[8.72789,47.69684],[8.73751,47.72124],[8.71335,47.73562],[8.72466,47.74978],[8.7423,47.7528],[8.73045,47.76611],[8.71408,47.77079],[8.69027,47.76291],[8.68305,47.79148],[8.65627,47.80579],[8.64613,47.79654],[8.64871,47.77105],[8.62976,47.76597],[8.61685,47.78945],[8.61984,47.80404],[8.5778,47.80684],[8.56799,47.81438],[8.56233,47.79997],[8.57623,47.78908],[8.48771,47.77968],[8.47271,47.7701],[8.45263,47.74618],[8.45429,47.72972],[8.40571,47.7063],[8.41964,47.6894],[8.4044,47.68005],[8.44554,47.65939],[8.46669,47.66155],[8.46623,47.64875],[8.47368,47.64336],[8.4763,47.65474],[8.49193,47.64747],[8.53375,47.65104],[8.52883,47.66471],[8.55159,47.67336],[8.57901,47.66759],[8.60715,47.67599],[8.62945,47.65234],[8.61722,47.64184],[8.60433,47.64315],[8.61516,47.64927],[8.60892,47.65664],[8.59685,47.64719],[8.60587,47.61689],[8.58469,47.60031],[8.56146,47.60367],[8.57278,47.61633],[8.55907,47.62761],[8.52091,47.6381],[8.50572,47.62146],[8.45855,47.60596],[8.46883,47.58817],[8.49164,47.59134],[8.49562,47.58516],[8.4885,47.58139],[8.42343,47.57075],[8.39744,47.58015],[8.37954,47.57025],[8.32461,47.57633],[8.29653,47.59353],[8.29018,47.61414],[8.25601,47.62028],[8.22503,47.61147],[8.21658,47.62376],[8.20287,47.62616],[8.16558,47.60027],[8.10732,47.58746],[8.09852,47.56595],[8.08783,47.56289],[8.06853,47.57053],[8.0206,47.55643],[7.95824,47.56417],[7.94407,47.5497],[7.91199,47.55637],[7.90932,47.57832],[7.89072,47.59364],[7.84006,47.58889],[7.82077,47.5947],[7.79305,47.56383],[7.71909,47.54888],[7.69596,47.53736],[7.66949,47.53712],[7.63238,47.56242],[7.67985,47.57091],[7.66411,47.58788],[7.67056,47.59326],[7.6392,47.59704],[7.61894,47.58091],[7.60777,47.58096],[7.56736,47.63174],[7.52467,47.66019],[7.51213,47.69609],[7.54389,47.72258],[7.54859,47.73541],[7.53023,47.78344],[7.5624,47.84102],[7.55773,47.88095],[7.58252,47.89826],[7.58263,47.92989],[7.62216,47.97366],[7.60858,48.00032],[7.56859,48.03634],[7.57786,48.12139],[7.5989,48.13543],[7.5995,48.15563],[7.64185,48.20399],[7.66615,48.2211],[7.69394,48.30212],[7.74523,48.32983],[7.73097,48.38221],[7.73355,48.39869],[7.76616,48.46397],[7.76687,48.4868],[7.80516,48.5135],[7.80018,48.58317],[7.83592,48.63367],[7.84504,48.64553],[7.89625,48.66721],[7.96174,48.72026],[7.97025,48.75623],[8.01748,48.76275],[8.03186,48.78815],[8.06241,48.78919],[8.08702,48.80201],[8.10107,48.81581],[8.14157,48.89607],[8.1974,48.9571],[8.22888,48.97063],[8.09138,48.98926],[8.05114,49.01276],[7.97632,49.0283],[7.93704,49.05623],[7.91527,49.04191],[7.88499,49.04681],[7.86741,49.03349],[7.79993,49.06416],[7.76645,49.04668],[7.73223,49.04436],[7.7306,49.05446],[7.69585,49.0563],[7.69708,49.04975],[7.67108,49.04597],[7.63529,49.05417],[7.6274,49.0734],[7.59977,49.08301],[7.56849,49.07991],[7.53118,49.09713],[7.51783,49.11877],[7.48958,49.13653],[7.50357,49.15053],[7.49134,49.16851],[7.43733,49.16459],[7.44559,49.18402],[7.36618,49.17201],[7.36277,49.14518],[7.32596,49.14344],[7.2934,49.11516],[7.24545,49.12971],[7.21111,49.1249],[7.19833,49.11518],[7.18488,49.12963],[7.1588,49.12077],[7.12493,49.1412],[7.10424,49.13868],[7.11086,49.15031],[7.09815,49.15433],[7.08321,49.15128],[7.09002,49.13226],[7.05802,49.11259],[7.04594,49.11824],[7.0458,49.13881],[7.02827,49.17131],[7.03371,49.18826],[7.01308,49.18863],[6.97657,49.20864],[6.95756,49.2038],[6.9243,49.22308],[6.89429,49.2102],[6.85845,49.22163],[6.84044,49.21423],[6.86094,49.17863],[6.84471,49.17292],[6.8477,49.15741],[6.83446,49.15138],[6.78413,49.16815],[6.73799,49.16457],[6.71284,49.18956],[6.73062,49.20671],[6.72211,49.21942],[6.69292,49.21755],[6.68431,49.25208],[6.66153,49.25733],[6.66785,49.28044],[6.65323,49.28112],[6.61599,49.30268],[6.58889,49.3221],[6.59211,49.33364],[6.5787,49.33508],[6.56538,49.34929],[6.56963,49.3577],[6.58723,49.35175],[6.59933,49.36662],[6.58596,49.37134],[6.58401,49.38472],[6.54053,49.40115],[6.53835,49.41101],[6.55464,49.41905],[6.53542,49.43416],[6.43184,49.47446],[6.3676,49.46654],[6.36886,49.45982],[6.35482,49.46498],[6.36629,49.46839],[6.36492,49.50689],[6.37254,49.50921],[6.35945,49.53074],[6.37816,49.548],[6.37947,49.55864],[6.36365,49.57405],[6.38131,49.57427],[6.37927,49.59655],[6.41742,49.61749],[6.437,49.65225],[6.4241,49.66633],[6.46155,49.69477],[6.48958,49.70354],[6.50318,49.71571],[6.50068,49.72897],[6.51649,49.72418],[6.49791,49.73478],[6.51058,49.73499],[6.50197,49.74848],[6.51882,49.76368],[6.51773,49.78511],[6.50694,49.79007],[6.52825,49.80857],[6.52434,49.81309],[6.50833,49.80204],[6.47209,49.82205],[6.44796,49.81307],[6.40522,49.81997],[6.363,49.85403],[6.34243,49.85111],[6.33018,49.83639],[6.31228,49.8355],[6.31673,49.85063],[6.30364,49.86117],[6.30924,49.86517],[6.28629,49.86403],[6.27979,49.87488],[6.25664,49.87793],[6.23691,49.89237],[6.21917,49.95164],[6.19838,49.95604],[6.19054,49.97124],[6.179,49.96033],[6.16858,49.96509],[6.17572,49.95414],[6.16321,49.95398],[6.1546,49.98332],[6.16085,49.98341],[6.12868,49.99404],[6.14003,50.00891],[6.12066,50.01602],[6.13259,50.02354],[6.11949,50.03073],[6.12516,50.03817],[6.11177,50.04904],[6.11089,50.06007],[6.09837,50.05991],[6.11627,50.07119],[6.11568,50.07854],[6.11001,50.07111],[6.10346,50.0747],[6.10826,50.09317],[6.12639,50.10077],[6.11838,50.12276],[6.13052,50.1266],[6.12991,50.13396],[6.1498,50.1374],[6.15346,50.14963],[6.13529,50.1547],[6.14643,50.17389],[6.15739,50.17122],[6.15682,50.1773],[6.18964,50.18946],[6.17038,50.23626],[6.20279,50.2548],[6.27564,50.26544],[6.27926,50.29161],[6.29106,50.29582],[6.29004,50.30692],[6.3022,50.30743],[6.30118,50.31853],[6.34137,50.32283],[6.3565,50.31293],[6.40334,50.32193],[6.40834,50.33307],[6.33976,50.37989],[6.34048,50.39069],[6.36207,50.40473],[6.37467,50.44595],[6.34246,50.46431],[6.33003,50.49364],[6.3151,50.50264],[6.26484,50.50269],[6.25344,50.49483],[6.22385,50.50228],[6.18083,50.53306],[6.17219,50.55051],[6.1795,50.56251],[6.19746,50.56698],[6.19675,50.5744],[6.25157,50.5921],[6.27838,50.6164],[6.20995,50.63092],[6.17309,50.62143],[6.15966,50.64373],[6.17805,50.64453],[6.16949,50.65266],[6.17379,50.65841],[6.11873,50.70874],[6.10073,50.71863],[6.02862,50.72522],[6.00713,50.75663],[6.01188,50.77525],[5.99937,50.77456],[5.9632,50.79505],[5.96104,50.80245],[5.97528,50.81409],[5.99974,50.80281],[6.0271,50.81477],[6.03108,50.82139],[6.01968,50.84523],[6.0631,50.85157],[6.07384,50.84686],[6.08993,50.8745],[6.07565,50.89508],[6.08294,50.9218],[6.05851,50.92054],[6.04568,50.93113],[6.01517,50.93316],[6.00853,50.94775],[6.01435,50.95186],[6.00217,50.95859],[6.03,50.98336],[5.9669,50.98313],[5.95008,50.99216],[5.90369,50.97827],[5.90796,51.00095],[5.89636,51.00389],[5.87206,51.04341],[5.87162,51.05083],[5.92476,51.05594],[5.94555,51.03465],[5.96954,51.03447],[5.96649,51.04224],[5.98233,51.05341],[5.97835,51.06316],[5.98898,51.0651],[6.01527,51.09405],[6.03874,51.09565],[6.13021,51.1504],[6.1718,51.15293],[6.17852,51.1619],[6.14478,51.17372],[6.19314,51.19166],[6.1683,51.19766],[6.12209,51.17582],[6.09183,51.17529],[6.07831,51.18747],[6.07363,51.22407],[6.09169,51.22537],[6.07819,51.24471],[6.15454,51.30357],[6.17457,51.33778],[6.19886,51.3389],[6.23197,51.36598],[6.22273,51.39145],[6.2335,51.40292],[6.21528,51.40222],[6.21435,51.40956],[6.23141,51.4693],[6.22036,51.50917],[6.17926,51.5409],[6.15687,51.56924],[6.09096,51.60522],[6.09503,51.62029],[6.10562,51.62265],[6.11877,51.66046],[6.03901,51.67773],[6.03442,51.71091],[6.05058,51.71677],[6.01286,51.7358],[5.96401,51.74161],[5.9687,51.75293],[6.00478,51.76817],[5.99412,51.77189],[6.00071,51.782],[5.99275,51.79824],[5.9653,51.81312],[5.97579,51.81696],[5.96465,51.82441],[5.97212,51.83186],[6.00121,51.82851],[6.04804,51.84363],[6.06825,51.8649],[6.11006,51.84696],[6.16898,51.84503],[6.167,51.85861],[6.14459,51.87052],[6.13829,51.88493],[6.10715,51.88899],[6.11811,51.89886],[6.15889,51.90538],[6.2018,51.88423],[6.21311,51.86876],[6.28898,51.87658],[6.30499,51.87069],[6.31053,51.85099],[6.35292,51.8545],[6.3751,51.83643],[6.38706,51.84055],[6.41747,51.82563],[6.41054,51.83594],[6.41749,51.84143],[6.39909,51.86],[6.4023,51.8748],[6.43275,51.87195],[6.43983,51.86088],[6.46309,51.86901],[6.48034,51.85462],[6.58673,51.89477],[6.69244,51.92016],[6.7311,51.89497],[6.74271,51.89905],[6.80536,51.93461],[6.80872,51.96098],[6.83838,51.9656],[6.83536,51.99553],[6.81733,51.99499],[6.75945,52.03074],[6.69818,52.04012],[6.69624,52.05873],[6.70711,52.07027],[6.70069,52.07379],[6.74282,52.07512],[6.75972,52.08686],[6.75255,52.09785],[6.76459,52.09823],[6.76845,52.12077],[6.85296,52.11975],[6.87629,52.128],[6.88659,52.1568],[6.91636,52.17802],[6.96889,52.19045],[6.98843,52.22537],[7.02961,52.22697],[7.06931,52.23925],[7.03123,52.2757],[7.03668,52.28337],[7.02972,52.29432],[7.08045,52.35722],[7.07912,52.38272],[7.02086,52.43253],[7.00628,52.4695],[6.98761,52.47277],[6.97546,52.45328],[6.95054,52.43697],[6.8625,52.45401],[6.85424,52.46263],[6.76486,52.46493],[6.71363,52.48441],[6.71043,52.52808],[6.68379,52.55606],[6.71813,52.55222],[6.73016,52.5668],[6.76826,52.56517],[6.7243,52.59061],[6.73265,52.60929],[6.71926,52.62958],[6.74381,52.64709],[6.78657,52.65615],[6.88314,52.6571],[6.94878,52.64259],[6.98788,52.64983],[7.05186,52.63585],[7.06306,52.64718],[7.08038,52.81387],[7.10028,52.83577],[7.09428,52.84645],[7.21219,52.93294],[7.24775,52.99036],[7.26149,52.99754],[7.25486,53.00112],[7.24903,53.04432],[7.25658,53.09841],[7.23476,53.1097],[7.22697,53.12446],[7.26324,53.16001],[7.29271,53.16294],[7.27032,53.17441],[7.28495,53.18859],[7.28456,53.19957],[7.27235,53.23378],[7.2692,53.22873],[7.20528,53.23881],[7.23417,53.26986],[7.23639,53.2868],[7.22972,53.2943],[7.23917,53.30097],[7.24917,53.32986],[7.18417,53.33958],[7.1775,53.33403],[7.02695,53.33625],[6.99861,53.36125],[6.99805,53.37181],[7.01139,53.3843],[7.01139,53.43069],[7.02528,53.48347],[7.04972,53.50764],[7.03417,53.5332],[7.03972,53.53819],[7.06139,53.52486],[7.0775,53.53264],[7.09528,53.51931],[7.13361,53.53236],[7.1325,53.53986],[7.1425,53.54181],[7.12806,53.5407],[7.10361,53.55597],[7.09028,53.57653],[7.14417,53.60903],[7.15805,53.62792],[7.24472,53.66875],[7.31694,53.68347],[7.47528,53.68347],[7.53028,53.67153],[7.69306,53.70097],[7.74472,53.70014],[7.79361,53.71014],[7.91083,53.71764],[8.01583,53.71069],[8.03139,53.70542],[8.02028,53.68847],[8.04472,53.6418],[8.08694,53.64431],[8.08305,53.63986],[8.09639,53.63347],[8.11194,53.63708],[8.11028,53.64236],[8.11472,53.63653],[8.09639,53.62958],[8.11139,53.61653],[8.12584,53.62208],[8.11306,53.61486],[8.12083,53.59736],[8.13194,53.58236],[8.15695,53.58514],[8.14028,53.57681],[8.15139,53.56042],[8.16694,53.56208],[8.1725,53.55458],[8.15972,53.55597],[8.16972,53.54125],[8.15917,53.53125],[8.17194,53.5368],[8.15528,53.51375],[8.09361,53.50208],[8.06472,53.50597],[8.0625,53.48347],[8.07361,53.46486],[8.09917,53.44569],[8.13528,53.45292],[8.1525,53.44792],[8.2025,53.40403],[8.2525,53.39903],[8.29195,53.42292],[8.29639,53.44264],[8.30861,53.44875],[8.31639,53.46625],[8.31639,53.52208],[8.23083,53.52042],[8.24083,53.57875],[8.27417,53.60431],[8.27194,53.60986],[8.3325,53.61597],[8.39417,53.57014],[8.46472,53.55292],[8.51639,53.55625],[8.52028,53.54764],[8.54972,53.53847],[8.55694,53.5257],[8.51305,53.50653],[8.51972,53.50097],[8.57083,53.5182],[8.57694,53.53931],[8.52472,53.58764],[8.52139,53.6068],[8.48361,53.65569],[8.48361,53.69431],[8.54417,53.79014],[8.54028,53.80181],[8.55583,53.83153],[8.60806,53.87875],[8.6825,53.8918],[8.68917,53.87819],[8.70361,53.87875],[8.70028,53.87264],[8.71083,53.87347],[8.71861,53.86764],[8.71306,53.86486],[8.75695,53.84264],[8.79639,53.83236],[8.88361,53.82792],[8.97806,53.84069],[9.01639,53.83597],[9.05305,53.8532],[9.09972,53.86292],[9.09583,53.8882],[9.05139,53.89903],[8.96361,53.89458],[8.90639,53.93347],[8.87472,53.96736],[8.87694,53.97903],[8.84361,54.00264],[8.83139,54.01875],[8.83528,54.02347],[8.81972,54.02153],[8.85639,54.04319],[8.92417,54.04292],[8.96028,54.03431],[8.9825,54.04653],[8.98305,54.06597],[8.94861,54.09153],[8.9275,54.13181],[8.89583,54.13403],[8.85917,54.12264],[8.83083,54.13986],[8.81806,54.16708],[8.8075,54.17319],[8.81528,54.20264],[8.83472,54.21792],[8.83805,54.23208],[8.83028,54.2368],[8.83583,54.2518],[8.84417,54.25792],[8.90305,54.26014],[8.93861,54.28375],[8.95194,54.31289],[8.86195,54.26875],[8.85972,54.28097],[8.84361,54.28847],[8.85972,54.27847],[8.85861,54.26708],[8.84639,54.26292],[8.83972,54.26625],[8.84083,54.28042],[8.82306,54.29153],[8.78306,54.28069],[8.74361,54.29014],[8.70972,54.28764],[8.6809,54.26792],[8.65694,54.27764],[8.64472,54.27291],[8.60306,54.31014],[8.61195,54.29236],[8.5925,54.30042],[8.62083,54.28208],[8.59305,54.28986],[8.58028,54.30403],[8.5875,54.33792],[8.60417,54.35792],[8.61972,54.35597],[8.62028,54.34458],[8.63806,54.34014],[8.63306,54.34431],[8.68583,54.35708],[8.67305,54.36014],[8.68083,54.36847],[8.65361,54.37208],[8.65472,54.3657],[8.64583,54.36653],[8.62639,54.37708],[8.62361,54.36958],[8.60639,54.37042],[8.60861,54.38625],[8.72917,54.40653],[8.81528,54.41292],[8.85639,54.40319],[8.89361,54.41208],[8.96139,54.45792],[8.99583,54.46153],[8.99806,54.4707],[9.01083,54.47514],[9.02361,54.47264],[9.00472,54.47903],[9.0125,54.49042],[8.98917,54.51931],[8.96694,54.51569],[8.95917,54.49736],[8.90361,54.46069],[8.82806,54.46208],[8.80639,54.47042],[8.81861,54.48708],[8.80528,54.49792],[8.87194,54.52819],[8.87861,54.54264],[8.86972,54.56319],[8.89028,54.59264],[8.88139,54.59014],[8.87917,54.60625],[8.81306,54.59736],[8.80917,54.60347],[8.84194,54.61486],[8.8225,54.64597],[8.75139,54.68125],[8.74472,54.70819],[8.6875,54.72986],[8.70639,54.73986],[8.69306,54.76986],[8.60528,54.84125],[8.60583,54.87069],[8.59028,54.88514],[8.52452,54.88263],[8.58805,54.88597],[8.62416,54.89569],[8.6375,54.91292],[8.69384,54.91431],[8.73105,54.8952],[8.76188,54.8982],[8.76577,54.91224],[8.81204,54.91674],[8.82872,54.9138],[8.83143,54.9043],[8.85045,54.89315],[8.90238,54.9052]],[[14.26472,53.71069],[14.26917,53.7057],[14.24806,53.70458],[14.26472,53.71069]],[[13.92472,54.02319],[13.9275,54.01625],[13.9175,54.01903],[13.92917,54.03125],[13.93472,54.02653],[13.92472,54.02319]],[[11.49583,54.03181],[11.49583,54.02431],[11.48639,54.02431],[11.49583,54.03181]],[[11.51194,54.03847],[11.5125,54.05792],[11.52361,54.06958],[11.51194,54.03847]],[[13.36694,54.18542],[13.3725,54.18042],[13.35028,54.1818],[13.36694,54.18542]],[[13.92305,54.25125],[13.9275,54.24847],[13.90583,54.24125],[13.92305,54.25125]],[[13.12194,54.30236],[13.11083,54.3107],[13.12361,54.31347],[13.13028,54.3068],[13.12194,54.30236]],[[13.5425,54.33153],[13.54472,54.32375],[13.52028,54.31153],[13.52917,54.32653],[13.5425,54.33153]],[[12.52806,54.36153],[12.53583,54.35625],[12.53028,54.34542],[12.52806,54.36153]],[[12.52583,54.36208],[12.52194,54.36847],[12.52861,54.36903],[12.52583,54.36208]],[[12.73528,54.41319],[12.73139,54.40458],[12.71694,54.40486],[12.73528,54.41319]],[[11.08639,54.43875],[11.09139,54.43736],[11.08139,54.43819],[11.08639,54.43875]],[[13.01083,54.44264],[12.9775,54.43208],[12.96694,54.43764],[12.98528,54.43764],[13.00083,54.44736],[13.03417,54.44653],[13.04972,54.46014],[13.05972,54.45042],[13.03806,54.44125],[13.01083,54.44264]],[[13.2375,54.46236],[13.23083,54.46819],[13.26806,54.47931],[13.2275,54.48597],[13.23028,54.51097],[13.15861,54.50403],[13.15972,54.53542],[13.13972,54.54042],[13.14361,54.54681],[13.25528,54.55208],[13.29472,54.53764],[13.2875,54.5218],[13.30528,54.51403],[13.31194,54.52347],[13.3025,54.52764],[13.30695,54.53931],[13.2975,54.55236],[13.35361,54.58097],[13.36861,54.5793],[13.35472,54.55153],[13.33806,54.54875],[13.35583,54.54542],[13.36306,54.55597],[13.3775,54.55903],[13.37972,54.54681],[13.41417,54.51958],[13.40695,54.50708],[13.41306,54.49375],[13.44194,54.48708],[13.45083,54.47319],[13.47917,54.4832],[13.50639,54.48097],[13.50028,54.49264],[13.51472,54.51569],[13.50194,54.54847],[13.44694,54.55125],[13.42583,54.56847],[13.39583,54.57292],[13.38361,54.58125],[13.38361,54.5957],[13.37028,54.61458],[13.32806,54.59375],[13.33472,54.58264],[13.24306,54.55875],[13.25639,54.58931],[13.28861,54.62736],[13.28306,54.64625],[13.22695,54.62486],[13.23805,54.59958],[13.22861,54.58708],[13.16083,54.55903],[13.16639,54.57264],[13.1975,54.58264],[13.22194,54.60236],[13.2275,54.61347],[13.21917,54.63958],[13.24972,54.65986],[13.28639,54.67292],[13.42917,54.68458],[13.43806,54.67681],[13.43139,54.66292],[13.3875,54.64986],[13.37583,54.63514],[13.38917,54.60069],[13.42083,54.57792],[13.4625,54.56958],[13.46695,54.57542],[13.63361,54.58514],[13.67972,54.56264],[13.68195,54.54236],[13.66861,54.52069],[13.6075,54.49792],[13.57417,54.47653],[13.56972,54.46181],[13.58139,54.43347],[13.60972,54.40486],[13.62361,54.39847],[13.67361,54.4007],[13.70413,54.38014],[13.72306,54.35625],[13.76694,54.34153],[13.73694,54.33403],[13.73083,54.31764],[13.71694,54.31014],[13.71417,54.29319],[13.72528,54.27347],[13.70861,54.26903],[13.68583,54.28153],[13.7075,54.28069],[13.70195,54.29542],[13.65694,54.28792],[13.64639,54.29653],[13.70028,54.31597],[13.70417,54.32625],[13.66806,54.32958],[13.61083,54.31625],[13.6775,54.33736],[13.68306,54.3493],[13.64806,54.34819],[13.61361,54.3307],[13.60306,54.34514],[13.58083,54.35292],[13.55194,54.33931],[13.50639,54.34403],[13.46361,54.3293],[13.45472,54.33569],[13.45083,54.33153],[13.46639,54.32153],[13.42083,54.30347],[13.39472,54.27125],[13.38528,54.26653],[13.38695,54.27958],[13.3525,54.26958],[13.35972,54.24764],[13.36972,54.25431],[13.35972,54.25681],[13.36583,54.26431],[13.37861,54.25375],[13.39528,54.26514],[13.41806,54.25486],[13.42361,54.23819],[13.39361,54.22097],[13.29028,54.25125],[13.29528,54.25542],[13.32139,54.24514],[13.32361,54.26625],[13.33417,54.26986],[13.33528,54.27819],[13.31028,54.26569],[13.32083,54.25764],[13.26972,54.25375],[13.22472,54.26903],[13.21805,54.2793],[13.21583,54.27153],[13.19972,54.27014],[13.19583,54.28375],[13.20417,54.28986],[13.19417,54.29681],[13.18083,54.28764],[13.13917,54.28236],[13.13972,54.29653],[13.15472,54.30458],[13.17972,54.29625],[13.18472,54.30097],[13.11472,54.33181],[13.1275,54.37125],[13.1975,54.37569],[13.22028,54.36764],[13.26194,54.38292],[13.23694,54.3882],[13.22972,54.40153],[13.23805,54.40986],[13.21972,54.41403],[13.21139,54.42986],[13.15861,54.42097],[13.14972,54.42903],[13.16195,54.4357],[13.16823,54.45116],[13.16306,54.44931],[13.12083,54.44236],[13.14861,54.4818],[13.18417,54.4943],[13.20028,54.48569],[13.22583,54.48625],[13.22028,54.48236],[13.22694,54.47236],[13.21528,54.46708],[13.22694,54.46875],[13.20863,54.46037],[13.2375,54.46236]],[[11.16583,54.41319],[11.17805,54.40153],[11.11861,54.40264],[11.09472,54.40958],[11.10194,54.42931],[11.09472,54.44569],[11.07417,54.44486],[11.06361,54.45264],[11.02139,54.4432],[11.04639,54.42847],[11.00917,54.44125],[11.00417,54.45014],[11.0175,54.49458],[11.0375,54.51875],[11.06972,54.5347],[11.17139,54.52153],[11.21528,54.50486],[11.23417,54.50681],[11.2525,54.47125],[11.27639,54.45625],[11.31361,54.40208],[11.24528,54.41208],[11.1975,54.40597],[11.19361,54.41236],[11.21194,54.41708],[11.18639,54.42014],[11.16583,54.41319]],[[13.11694,54.53764],[13.0925,54.52736],[13.09306,54.51625],[13.08472,54.5182],[13.08917,54.51514],[13.07361,54.50014],[13.07472,54.46875],[13.06361,54.45764],[13.06306,54.49097],[13.0975,54.55653],[13.0975,54.59042],[13.13639,54.60514],[13.14694,54.60236],[13.15805,54.5793],[13.14972,54.57514],[13.14583,54.5882],[13.14374,54.58086],[13.13417,54.58792],[13.13917,54.59681],[13.12583,54.58375],[13.11083,54.58375],[13.11806,54.57542],[13.10917,54.5682],[13.11694,54.53764]]]}}]}