{"type":"FeatureCollection","features":[{"type":"Feature","properties":{"role":"world-minus-de","quelle":"isellsoap/deutschlandGeoJSON 1_deutschland + grosszuegige Nord-/Ostsee-Flaechen (vereinfacht 0.1 Grad) (Aussenringe als Loecher)"},"geometry":{"type":"Polygon","coordinates":[[[-179.9,-85.0],[179.9,-85.0],[179.9,85.0],[-179.9,85.0],[-179.9,-85.0]],[[8.8133,54.91231],[9.34564,54.80354],[9.4,55.1],[14.5,55.1],[14.5,53.85],[13.89861,53.83958],[13.84813,53.85],[13.81694,53.85],[13.81417,53.84597],[14.28306,53.73875],[14.44893,53.26164],[14.12127,52.84027],[14.63906,52.58003],[14.52891,52.39641],[14.74128,52.07339],[14.5867,51.8236],[14.69814,51.55851],[14.97246,51.44041],[14.97733,51.07944],[14.80508,50.82892],[14.29402,51.05416],[14.37227,50.88858],[12.97705,50.41427],[12.51611,50.40009],[12.32759,50.17973],[12.19409,50.32288],[12.08586,50.25535],[12.54774,49.92714],[12.40289,49.75516],[12.66107,49.43217],[13.83596,48.77505],[13.72109,48.51679],[13.50316,48.59651],[13.41062,48.37774],[12.75303,48.11729],[13.00115,47.85223],[12.91127,47.73124],[13.10559,47.6392],[13.01346,47.46577],[12.78277,47.67592],[12.25428,47.73999],[12.20928,47.6012],[11.63634,47.59827],[11.2739,47.39101],[10.43225,47.58556],[10.43358,47.37872],[10.17017,47.2699],[10.22687,47.39292],[10.09596,47.35487],[9.97119,47.55048],[9.04401,47.82369],[9.22114,47.66815],[8.56799,47.81438],[8.4044,47.68005],[8.60715,47.67599],[8.58469,47.60031],[7.66949,47.53712],[7.51213,47.69609],[7.57786,48.12139],[7.83592,48.63367],[8.22888,48.97063],[7.44559,49.18402],[6.73799,49.16457],[6.35482,49.46498],[6.52825,49.80857],[6.09837,50.05991],[6.40834,50.33307],[5.87206,51.04341],[6.1718,51.15293],[6.07819,51.24471],[6.23197,51.36598],[5.96465,51.82441],[6.83838,51.9656],[6.70069,52.07379],[7.06931,52.23925],[7.07912,52.38272],[6.68379,52.55606],[7.05186,52.63585],[7.29271,53.16294],[7.23833,53.3],[5.8,53.3],[5.8,55.1],[8.8,55.1],[8.8133,54.91231]],[[8.69661,47.69922],[8.67433,47.6902],[8.66131,47.69521],[8.7027,47.72026],[8.72245,47.69653],[8.69661,47.69922]],[[8.96639,54.06347],[8.9775,54.06792],[8.9825,54.06458],[8.97639,54.06181],[8.96639,54.06347]],[[14.25583,53.7013],[14.24806,53.70681],[14.26917,53.70708],[14.26917,53.7057],[14.25583,53.7013]]]}}]}