{"type":"FeatureCollection","features":[{"type":"Feature","properties":{"role":"world-minus-de","quelle":"isellsoap/deutschlandGeoJSON 1_deutschland + grosszuegige Nord-/Ostsee-Flaechen (vereinfacht 0.05 Grad) (Aussenringe als Loecher)"},"geometry":{"type":"Polygon","coordinates":[[[-179.9,-85.0],[179.9,-85.0],[179.9,85.0],[-179.9,85.0],[-179.9,-85.0]],[[8.8133,54.91231],[9.34564,54.80354],[9.4,55.1],[14.5,55.1],[14.5,53.85],[13.89861,53.83958],[13.84813,53.85],[13.81694,53.85],[13.81417,53.84597],[14.28306,53.73875],[14.21528,53.70264],[14.32491,53.61865],[14.44893,53.26164],[14.3457,53.05292],[14.14245,52.96111],[14.12127,52.84027],[14.63906,52.58003],[14.52891,52.39641],[14.5709,52.28956],[14.69957,52.24109],[14.66935,52.12155],[14.74128,52.07339],[14.5867,51.8236],[14.73873,51.66687],[14.69814,51.55851],[14.97246,51.44041],[15.03811,51.2403],[14.97733,51.07944],[14.80508,50.82892],[14.61193,50.85478],[14.65167,50.93264],[14.56011,50.92348],[14.59506,50.98851],[14.50168,51.05151],[14.29402,51.05416],[14.24687,50.9732],[14.40095,50.94235],[14.37227,50.88858],[13.85081,50.7182],[13.54898,50.71321],[13.46519,50.59649],[13.37491,50.64366],[13.19599,50.50059],[13.03327,50.50855],[12.97705,50.41427],[12.51611,50.40009],[12.32759,50.17973],[12.19409,50.32288],[12.08586,50.25535],[12.25603,50.06228],[12.54774,49.92714],[12.40289,49.75516],[12.52786,49.68776],[12.66107,49.43217],[13.03359,49.30864],[13.18021,49.14444],[13.40373,49.05178],[13.40162,48.98391],[13.63126,48.95058],[13.83596,48.77505],[13.80994,48.5909],[13.72109,48.51679],[13.50316,48.59651],[13.41062,48.37774],[12.75303,48.11729],[13.00115,47.85223],[12.91127,47.73124],[13.10559,47.6392],[13.01346,47.46577],[12.79982,47.56146],[12.78277,47.67592],[12.50606,47.62885],[12.43596,47.70073],[12.25878,47.67622],[12.25428,47.73999],[12.17435,47.69888],[12.20928,47.6012],[11.63634,47.59827],[11.2739,47.39101],[10.97752,47.39611],[10.863,47.47803],[10.88313,47.53811],[10.43225,47.58556],[10.43358,47.37872],[10.17017,47.2699],[10.22687,47.39292],[10.09596,47.35487],[10.09076,47.45659],[9.97119,47.55048],[9.77422,47.5968],[9.68873,47.54398],[9.04401,47.82369],[9.22114,47.66815],[8.99164,47.74799],[8.89183,47.65522],[8.56799,47.81438],[8.4044,47.68005],[8.60715,47.67599],[8.58469,47.60031],[8.20287,47.62616],[7.66949,47.53712],[7.51213,47.69609],[7.62216,47.97366],[7.57786,48.12139],[7.74523,48.32983],[7.83592,48.63367],[8.22888,48.97063],[7.63529,49.05417],[7.44559,49.18402],[7.2934,49.11516],[7.05802,49.11259],[6.9243,49.22308],[6.73799,49.16457],[6.53542,49.43416],[6.35482,49.46498],[6.52825,49.80857],[6.31228,49.8355],[6.09837,50.05991],[6.17038,50.23626],[6.40834,50.33307],[6.33003,50.49364],[6.17219,50.55051],[6.27838,50.6164],[5.9632,50.79505],[6.08294,50.9218],[5.87206,51.04341],[6.1718,51.15293],[6.07819,51.24471],[6.23197,51.36598],[6.22036,51.50917],[5.96401,51.74161],[5.96465,51.82441],[6.16898,51.84503],[6.10715,51.88899],[6.15889,51.90538],[6.41747,51.82563],[6.4023,51.8748],[6.83838,51.9656],[6.70069,52.07379],[7.06931,52.23925],[7.07912,52.38272],[7.00011,52.47318],[6.71363,52.48441],[6.68379,52.55606],[6.76826,52.56517],[6.74381,52.64709],[7.05186,52.63585],[7.29271,53.16294],[7.20528,53.23881],[7.23833,53.3],[5.8,53.3],[5.8,55.1],[8.8,55.1],[8.8133,54.91231]],[[8.69661,47.69922],[8.67433,47.6902],[8.66131,47.69521],[8.7027,47.72026],[8.72245,47.69653],[8.69661,47.69922]],[[8.96639,54.06347],[8.9775,54.06792],[8.9825,54.06458],[8.97639,54.06181],[8.96639,54.06347]],[[14.25583,53.7013],[14.24806,53.70681],[14.26917,53.70708],[14.26917,53.7057],[14.25583,53.7013]]]}}]}