{"type":"FeatureCollection","features":[{"type":"Feature","properties":{"role":"world-minus-de","quelle":"isellsoap/deutschlandGeoJSON 1_deutschland + grosszuegige Nord-/Ostsee-Flaechen (vereinfacht 0.012 Grad) (Aussenringe als Loecher)"},"geometry":{"type":"Polygon","coordinates":[[[-179.9,-85.0],[179.9,-85.0],[179.9,85.0],[-179.9,85.0],[-179.9,-85.0]],[[8.8133,54.91231],[8.85045,54.89315],[8.97505,54.90058],[9.04717,54.8691],[9.22478,54.85595],[9.28259,54.80223],[9.34564,54.80354],[9.39984,54.83876],[9.4,55.1],[14.5,55.1],[14.5,53.85],[13.89861,53.83958],[13.84813,53.85],[13.81694,53.85],[13.81417,53.84597],[13.86806,53.83597],[13.9725,53.77208],[14.10139,53.74014],[14.18417,53.73597],[14.23361,53.76181],[14.28306,53.73875],[14.21528,53.70264],[14.27316,53.69931],[14.28935,53.63378],[14.32491,53.61865],[14.30271,53.54261],[14.37562,53.45945],[14.39306,53.35592],[14.42025,53.32563],[14.42328,53.27791],[14.44893,53.26164],[14.37892,53.20416],[14.37016,53.15792],[14.38812,53.13629],[14.3457,53.05292],[14.14245,52.96111],[14.15589,52.87956],[14.12127,52.84027],[14.21407,52.8204],[14.27272,52.77831],[14.34138,52.75927],[14.4662,52.65726],[14.56658,52.62613],[14.63906,52.58003],[14.6006,52.53302],[14.63125,52.49913],[14.59204,52.45548],[14.54321,52.43749],[14.52891,52.39641],[14.58435,52.31106],[14.5709,52.28956],[14.68473,52.2597],[14.69957,52.24109],[14.67528,52.20369],[14.69468,52.17392],[14.66935,52.12155],[14.74128,52.07339],[14.6989,52.00977],[14.70478,51.94266],[14.5867,51.8236],[14.64838,51.79506],[14.65605,51.73222],[14.73873,51.66687],[14.74603,51.611],[14.69814,51.55851],[14.72867,51.55067],[14.73907,51.52408],[14.92802,51.48591],[14.97246,51.44041],[14.95914,51.43076],[14.96476,51.38136],[14.97959,51.37754],[14.96782,51.35442],[15.02848,51.3098],[15.03811,51.2403],[15.00545,51.2117],[14.97733,51.07944],[14.9377,51.03829],[14.90331,50.95269],[14.82037,50.89197],[14.80508,50.82892],[14.71087,50.82676],[14.71237,50.84081],[14.61193,50.85478],[14.65167,50.93264],[14.56011,50.92348],[14.59506,50.98851],[14.50243,51.01682],[14.50168,51.05151],[14.49066,51.02036],[14.4488,51.0307],[14.39741,51.00828],[14.35286,51.03429],[14.31931,51.02534],[14.29402,51.05416],[14.24687,50.9732],[14.40095,50.94235],[14.37227,50.88858],[14.29494,50.8748],[14.25452,50.88638],[14.22496,50.87622],[14.21187,50.84744],[14.05855,50.80047],[13.95461,50.80371],[13.94768,50.78546],[13.89547,50.78347],[13.88249,50.76163],[13.89872,50.74296],[13.86482,50.741],[13.85081,50.7182],[13.69049,50.71721],[13.66684,50.73389],[13.62005,50.71299],[13.54898,50.71321],[13.54583,50.67218],[13.51444,50.65683],[13.52597,50.63554],[13.46519,50.59649],[13.37491,50.64366],[13.37947,50.62538],[13.32376,50.60241],[13.32679,50.58181],[13.24862,50.59227],[13.19599,50.50059],[13.03327,50.50855],[13.02819,50.44936],[12.97705,50.41427],[12.93579,50.40699],[12.82877,50.45862],[12.81239,50.43256],[12.76141,50.44043],[12.70513,50.39776],[12.67802,50.41728],[12.61506,50.41923],[12.51611,50.40009],[12.48512,50.36751],[12.49309,50.34916],[12.40612,50.32026],[12.40983,50.29791],[12.36409,50.27642],[12.36379,50.23571],[12.33522,50.23807],[12.3397,50.2113],[12.31687,50.19455],[12.32759,50.17973],[12.28272,50.18268],[12.2663,50.20508],[12.28441,50.22743],[12.23416,50.25328],[12.25751,50.25708],[12.25293,50.2757],[12.19489,50.27911],[12.19409,50.32288],[12.13122,50.31815],[12.13717,50.28211],[12.08586,50.25535],[12.16052,50.22968],[12.19892,50.19562],[12.19906,50.11182],[12.26124,50.09212],[12.27273,50.07799],[12.25603,50.06228],[12.31578,50.05988],[12.36444,50.02038],[12.43702,50.00528],[12.4323,49.99134],[12.48915,49.98638],[12.47568,49.94009],[12.54774,49.92714],[12.55134,49.90474],[12.51968,49.88435],[12.50151,49.83884],[12.4726,49.83582],[12.47207,49.79027],[12.40289,49.75516],[12.44377,49.70695],[12.52786,49.68776],[12.52537,49.63235],[12.56482,49.62449],[12.58805,49.544],[12.64583,49.53106],[12.63281,49.48001],[12.66107,49.43217],[12.75973,49.4003],[12.78411,49.35191],[12.8763,49.33591],[12.87675,49.35451],[12.95289,49.34827],[13.03359,49.30864],[13.03793,49.26773],[13.09577,49.24359],[13.11754,49.1963],[13.18046,49.17431],[13.18021,49.14444],[13.24413,49.11409],[13.29591,49.12018],[13.40373,49.05178],[13.40678,48.98877],[13.42243,48.98136],[13.40608,48.98534],[13.40162,48.98391],[13.49659,48.94016],[13.5102,48.9682],[13.63126,48.95058],[13.65296,48.89563],[13.73295,48.88882],[13.7628,48.83899],[13.78999,48.83158],[13.8042,48.78264],[13.83596,48.77505],[13.78706,48.72151],[13.81447,48.70278],[13.81013,48.65382],[13.82572,48.64122],[13.80994,48.5909],[13.75085,48.5621],[13.72109,48.51679],[13.59443,48.57615],[13.56715,48.56566],[13.50316,48.59651],[13.48497,48.56736],[13.43575,48.56468],[13.45454,48.5163],[13.42387,48.46081],[13.43667,48.42935],[13.41062,48.37774],[13.28572,48.30517],[13.09059,48.28144],[13.02089,48.26045],[12.96319,48.21687],[12.86821,48.20367],[12.8386,48.16194],[12.75303,48.11729],[12.75755,48.08758],[12.85971,48.02047],[12.8813,47.96101],[12.93894,47.94275],[13.00115,47.85223],[12.91127,47.73124],[12.95653,47.71375],[13.04354,47.72099],[13.08156,47.69137],[13.10559,47.6392],[13.0661,47.60748],[13.07645,47.58745],[13.04788,47.58479],[13.06478,47.56523],[13.03635,47.53656],[13.05375,47.49486],[13.01346,47.46577],[12.91306,47.49674],[12.84593,47.5523],[12.79982,47.56146],[12.78131,47.58155],[12.82668,47.61626],[12.77109,47.64505],[12.78277,47.67592],[12.60533,47.67925],[12.57735,47.63448],[12.50606,47.62885],[12.43596,47.70073],[12.25878,47.67622],[12.24805,47.69124],[12.27054,47.72873],[12.25428,47.73999],[12.23191,47.7138],[12.17435,47.69888],[12.21656,47.62456],[12.20928,47.6012],[12.02779,47.60678],[12.01681,47.62178],[11.86248,47.59747],[11.85687,47.57905],[11.63634,47.59827],[11.59296,47.55285],[11.5976,47.52273],[11.58102,47.51182],[11.43738,47.51326],[11.38803,47.47192],[11.42408,47.44562],[11.34161,47.45182],[11.2939,47.4302],[11.2739,47.39101],[11.22414,47.39127],[11.25743,47.42612],[11.24606,47.43478],[11.15119,47.42356],[11.11049,47.39724],[10.97752,47.39611],[10.96487,47.40604],[10.97851,47.42215],[10.92188,47.4621],[10.92651,47.47808],[10.863,47.47803],[10.8704,47.50206],[10.91859,47.51609],[10.88313,47.53811],[10.77203,47.51614],[10.68622,47.56013],[10.60006,47.57365],[10.56138,47.53593],[10.45343,47.56102],[10.47773,47.58854],[10.43225,47.58556],[10.4518,47.55756],[10.43323,47.49765],[10.46283,47.48722],[10.47157,47.43306],[10.43579,47.41546],[10.43358,47.37872],[10.39,47.37544],[10.32324,47.30259],[10.23156,47.26986],[10.17017,47.2699],[10.17071,47.29244],[10.20913,47.31174],[10.19306,47.32667],[10.23173,47.37249],[10.22687,47.39292],[10.20981,47.37954],[10.17851,47.39349],[10.16066,47.36725],[10.11735,47.37386],[10.09596,47.35487],[10.06883,47.41166],[10.09482,47.41848],[10.09076,47.45659],[10.04991,47.46686],[10.0439,47.48926],[9.99734,47.48623],[9.96119,47.52304],[9.97119,47.55048],[9.92061,47.53198],[9.881,47.54855],[9.87367,47.53072],[9.81313,47.55075],[9.81814,47.5889],[9.77422,47.5968],[9.73563,47.54136],[9.68873,47.54398],[9.60567,47.58844],[9.5573,47.58923],[9.4987,47.65277],[9.31517,47.67697],[9.25241,47.70838],[9.22443,47.74821],[9.04401,47.82369],[9.03196,47.8127],[9.07135,47.78354],[9.177,47.73775],[9.22114,47.66815],[9.16409,47.65358],[9.10384,47.70489],[8.99164,47.74799],[9.0101,47.73016],[8.94137,47.73182],[9.00637,47.69509],[8.89183,47.65522],[8.85385,47.68377],[8.87411,47.70764],[8.82344,47.71564],[8.80822,47.74168],[8.77116,47.71977],[8.8081,47.69923],[8.79815,47.67991],[8.72789,47.69684],[8.73751,47.72124],[8.71335,47.73562],[8.7423,47.7528],[8.73045,47.76611],[8.69027,47.76291],[8.68305,47.79148],[8.65627,47.80579],[8.64871,47.77105],[8.62976,47.76597],[8.61984,47.80404],[8.56799,47.81438],[8.57623,47.78908],[8.47271,47.7701],[8.45429,47.72972],[8.40571,47.7063],[8.41964,47.6894],[8.4044,47.68005],[8.46669,47.66155],[8.47368,47.64336],[8.60715,47.67599],[8.62945,47.65234],[8.59685,47.64719],[8.60587,47.61689],[8.58469,47.60031],[8.52091,47.6381],[8.45855,47.60596],[8.4885,47.58139],[8.37954,47.57025],[8.32461,47.57633],[8.29018,47.61414],[8.20287,47.62616],[8.10732,47.58746],[8.08783,47.56289],[7.95824,47.56417],[7.94407,47.5497],[7.91199,47.55637],[7.89072,47.59364],[7.82077,47.5947],[7.79305,47.56383],[7.66949,47.53712],[7.63238,47.56242],[7.67985,47.57091],[7.67056,47.59326],[7.60777,47.58096],[7.52467,47.66019],[7.51213,47.69609],[7.54859,47.73541],[7.53023,47.78344],[7.5624,47.84102],[7.55773,47.88095],[7.62216,47.97366],[7.56859,48.03634],[7.57786,48.12139],[7.66615,48.2211],[7.69394,48.30212],[7.74523,48.32983],[7.73355,48.39869],[7.76687,48.4868],[7.80516,48.5135],[7.80018,48.58317],[7.83592,48.63367],[7.96174,48.72026],[7.97025,48.75623],[8.08702,48.80201],[8.14157,48.89607],[8.22888,48.97063],[8.09138,48.98926],[7.93704,49.05623],[7.86741,49.03349],[7.79993,49.06416],[7.73223,49.04436],[7.63529,49.05417],[7.6274,49.0734],[7.53118,49.09713],[7.48958,49.13653],[7.50357,49.15053],[7.49134,49.16851],[7.43733,49.16459],[7.44559,49.18402],[7.36618,49.17201],[7.36277,49.14518],[7.32596,49.14344],[7.2934,49.11516],[7.24545,49.12971],[7.1588,49.12077],[7.09815,49.15433],[7.05802,49.11259],[7.03371,49.18826],[6.9243,49.22308],[6.84044,49.21423],[6.86094,49.17863],[6.83446,49.15138],[6.73799,49.16457],[6.71284,49.18956],[6.72211,49.21942],[6.69292,49.21755],[6.68431,49.25208],[6.66153,49.25733],[6.66785,49.28044],[6.56538,49.34929],[6.59933,49.36662],[6.54053,49.40115],[6.55464,49.41905],[6.53542,49.43416],[6.43184,49.47446],[6.36886,49.45982],[6.35482,49.46498],[6.37254,49.50921],[6.35945,49.53074],[6.37947,49.55864],[6.36365,49.57405],[6.41742,49.61749],[6.437,49.65225],[6.4241,49.66633],[6.48958,49.70354],[6.50068,49.72897],[6.51649,49.72418],[6.49791,49.73478],[6.51882,49.76368],[6.50694,49.79007],[6.52825,49.80857],[6.40522,49.81997],[6.363,49.85403],[6.31228,49.8355],[6.30924,49.86517],[6.23691,49.89237],[6.21917,49.95164],[6.19054,49.97124],[6.16321,49.95398],[6.16085,49.98341],[6.12868,49.99404],[6.14003,50.00891],[6.09837,50.05991],[6.12639,50.10077],[6.11838,50.12276],[6.1498,50.1374],[6.13529,50.1547],[6.14643,50.17389],[6.18964,50.18946],[6.17038,50.23626],[6.27564,50.26544],[6.30118,50.31853],[6.3565,50.31293],[6.40834,50.33307],[6.33976,50.37989],[6.37467,50.44595],[6.33003,50.49364],[6.22385,50.50228],[6.17219,50.55051],[6.27838,50.6164],[6.17309,50.62143],[6.15966,50.64373],[6.17805,50.64453],[6.17379,50.65841],[6.11873,50.70874],[6.02862,50.72522],[6.01188,50.77525],[5.9632,50.79505],[5.97528,50.81409],[6.0271,50.81477],[6.01968,50.84523],[6.07384,50.84686],[6.08993,50.8745],[6.08294,50.9218],[6.01517,50.93316],[6.00217,50.95859],[6.03,50.98336],[5.95008,50.99216],[5.90369,50.97827],[5.90796,51.00095],[5.87206,51.04341],[5.92476,51.05594],[5.96954,51.03447],[6.01527,51.09405],[6.13021,51.1504],[6.1718,51.15293],[6.14478,51.17372],[6.19314,51.19166],[6.09183,51.17529],[6.07819,51.24471],[6.17457,51.33778],[6.23197,51.36598],[6.2335,51.40292],[6.21435,51.40956],[6.23141,51.4693],[6.22036,51.50917],[6.09096,51.60522],[6.11877,51.66046],[6.03901,51.67773],[6.03442,51.71091],[6.05058,51.71677],[5.96401,51.74161],[6.00478,51.76817],[5.96465,51.82441],[6.04804,51.84363],[6.06825,51.8649],[6.16898,51.84503],[6.13829,51.88493],[6.10715,51.88899],[6.15889,51.90538],[6.21311,51.86876],[6.28898,51.87658],[6.31053,51.85099],[6.35292,51.8545],[6.41747,51.82563],[6.4023,51.8748],[6.48807,51.85566],[6.69244,51.92016],[6.7311,51.89497],[6.80536,51.93461],[6.80872,51.96098],[6.83838,51.9656],[6.83536,51.99553],[6.69818,52.04012],[6.70069,52.07379],[6.74282,52.07512],[6.76845,52.12077],[6.87629,52.128],[6.88659,52.1568],[6.96889,52.19045],[6.98843,52.22537],[7.06931,52.23925],[7.02972,52.29432],[7.08045,52.35722],[7.07912,52.38272],[7.00011,52.47318],[6.95054,52.43697],[6.71363,52.48441],[6.71043,52.52808],[6.68379,52.55606],[6.76826,52.56517],[6.7243,52.59061],[6.71926,52.62958],[6.74381,52.64709],[6.88314,52.6571],[7.05186,52.63585],[7.09428,52.84645],[7.21219,52.93294],[7.26149,52.99754],[7.25658,53.09841],[7.22697,53.12446],[7.26324,53.16001],[7.29271,53.16294],[7.27032,53.17441],[7.28495,53.18859],[7.27235,53.23378],[7.20528,53.23881],[7.23833,53.3],[5.8,53.3],[5.8,55.1],[8.8,55.1],[8.8,54.91557],[8.8133,54.91231]],[[8.69661,47.69922],[8.67433,47.6902],[8.66131,47.69521],[8.67654,47.70361],[8.66725,47.71703],[8.7027,47.72026],[8.72245,47.69653],[8.69661,47.69922]],[[8.96639,54.06347],[8.9775,54.06792],[8.9825,54.06458],[8.97639,54.06181],[8.96639,54.06347]],[[14.25583,53.7013],[14.24806,53.70681],[14.26917,53.70708],[14.26917,53.7057],[14.25583,53.7013]]]}}]}