{"type":"FeatureCollection","features":[{"type":"Feature","properties":{"role":"world-minus-de","quelle":"isellsoap/deutschlandGeoJSON 1_deutschland + grosszuegige Nord-/Ostsee-Flaechen (vereinfacht 0.025 Grad) (Aussenringe als Loecher)"},"geometry":{"type":"Polygon","coordinates":[[[-179.9,-85.0],[179.9,-85.0],[179.9,85.0],[-179.9,85.0],[-179.9,-85.0]],[[8.8133,54.91231],[9.22478,54.85595],[9.28259,54.80223],[9.34564,54.80354],[9.39984,54.83876],[9.4,55.1],[14.5,55.1],[14.5,53.85],[13.89861,53.83958],[13.84813,53.85],[13.81694,53.85],[13.81417,53.84597],[14.10139,53.74014],[14.23361,53.76181],[14.28306,53.73875],[14.21528,53.70264],[14.27316,53.69931],[14.32491,53.61865],[14.30271,53.54261],[14.37562,53.45945],[14.44893,53.26164],[14.37892,53.20416],[14.3457,53.05292],[14.14245,52.96111],[14.15589,52.87956],[14.12127,52.84027],[14.34138,52.75927],[14.63906,52.58003],[14.6006,52.53302],[14.63125,52.49913],[14.52891,52.39641],[14.5709,52.28956],[14.69957,52.24109],[14.66935,52.12155],[14.74128,52.07339],[14.70478,51.94266],[14.5867,51.8236],[14.73873,51.66687],[14.74603,51.611],[14.69814,51.55851],[14.97246,51.44041],[14.96782,51.35442],[15.02848,51.3098],[15.03811,51.2403],[14.97733,51.07944],[14.80508,50.82892],[14.61193,50.85478],[14.65167,50.93264],[14.56011,50.92348],[14.59506,50.98851],[14.50243,51.01682],[14.50168,51.05151],[14.39741,51.00828],[14.29402,51.05416],[14.24687,50.9732],[14.40095,50.94235],[14.37227,50.88858],[13.95461,50.80371],[13.85081,50.7182],[13.54898,50.71321],[13.52597,50.63554],[13.46519,50.59649],[13.37491,50.64366],[13.32679,50.58181],[13.24862,50.59227],[13.19599,50.50059],[13.03327,50.50855],[13.02819,50.44936],[12.97705,50.41427],[12.82877,50.45862],[12.70513,50.39776],[12.51611,50.40009],[12.36409,50.27642],[12.32759,50.17973],[12.28272,50.18268],[12.28441,50.22743],[12.23416,50.25328],[12.25293,50.2757],[12.19489,50.27911],[12.19409,50.32288],[12.13122,50.31815],[12.13717,50.28211],[12.08586,50.25535],[12.19892,50.19562],[12.19906,50.11182],[12.26124,50.09212],[12.25603,50.06228],[12.48915,49.98638],[12.47568,49.94009],[12.54774,49.92714],[12.47207,49.79027],[12.40289,49.75516],[12.52786,49.68776],[12.58805,49.544],[12.64583,49.53106],[12.66107,49.43217],[12.75973,49.4003],[12.78411,49.35191],[12.95289,49.34827],[13.03359,49.30864],[13.18021,49.14444],[13.40373,49.05178],[13.40162,48.98391],[13.49659,48.94016],[13.5102,48.9682],[13.63126,48.95058],[13.65296,48.89563],[13.73295,48.88882],[13.83596,48.77505],[13.78706,48.72151],[13.80994,48.5909],[13.72109,48.51679],[13.50316,48.59651],[13.43575,48.56468],[13.45454,48.5163],[13.41062,48.37774],[13.28572,48.30517],[12.86821,48.20367],[12.75303,48.11729],[13.00115,47.85223],[12.91127,47.73124],[13.04354,47.72099],[13.10559,47.6392],[13.04788,47.58479],[13.05375,47.49486],[13.01346,47.46577],[12.79982,47.56146],[12.78131,47.58155],[12.82668,47.61626],[12.77109,47.64505],[12.78277,47.67592],[12.60533,47.67925],[12.57735,47.63448],[12.50606,47.62885],[12.43596,47.70073],[12.25878,47.67622],[12.25428,47.73999],[12.17435,47.69888],[12.20928,47.6012],[11.63634,47.59827],[11.58102,47.51182],[11.43738,47.51326],[11.38803,47.47192],[11.42408,47.44562],[11.34161,47.45182],[11.2739,47.39101],[11.22414,47.39127],[11.24606,47.43478],[10.97752,47.39611],[10.92651,47.47808],[10.863,47.47803],[10.91859,47.51609],[10.88313,47.53811],[10.77203,47.51614],[10.60006,47.57365],[10.56138,47.53593],[10.43225,47.58556],[10.47157,47.43306],[10.43358,47.37872],[10.32324,47.30259],[10.17017,47.2699],[10.22687,47.39292],[10.09596,47.35487],[10.09076,47.45659],[9.99734,47.48623],[9.97119,47.55048],[9.87367,47.53072],[9.77422,47.5968],[9.73563,47.54136],[9.68873,47.54398],[9.5573,47.58923],[9.4987,47.65277],[9.31517,47.67697],[9.04401,47.82369],[9.22114,47.66815],[9.16409,47.65358],[8.99164,47.74799],[9.0101,47.73016],[8.94137,47.73182],[9.00637,47.69509],[8.89183,47.65522],[8.80822,47.74168],[8.77116,47.71977],[8.79815,47.67991],[8.72789,47.69684],[8.73045,47.76611],[8.65627,47.80579],[8.62976,47.76597],[8.56799,47.81438],[8.57623,47.78908],[8.47271,47.7701],[8.4044,47.68005],[8.47368,47.64336],[8.60715,47.67599],[8.62945,47.65234],[8.58469,47.60031],[8.52091,47.6381],[8.45855,47.60596],[8.4885,47.58139],[8.37954,47.57025],[8.20287,47.62616],[8.08783,47.56289],[7.94407,47.5497],[7.82077,47.5947],[7.66949,47.53712],[7.63238,47.56242],[7.67056,47.59326],[7.60777,47.58096],[7.51213,47.69609],[7.54859,47.73541],[7.55773,47.88095],[7.62216,47.97366],[7.56859,48.03634],[7.57786,48.12139],[7.74523,48.32983],[7.73355,48.39869],[7.83592,48.63367],[7.97025,48.75623],[8.08702,48.80201],[8.22888,48.97063],[7.93704,49.05623],[7.63529,49.05417],[7.44559,49.18402],[7.2934,49.11516],[7.09815,49.15433],[7.05802,49.11259],[7.03371,49.18826],[6.9243,49.22308],[6.84044,49.21423],[6.83446,49.15138],[6.73799,49.16457],[6.66785,49.28044],[6.56538,49.34929],[6.59933,49.36662],[6.53542,49.43416],[6.35482,49.46498],[6.36365,49.57405],[6.51649,49.72418],[6.52825,49.80857],[6.31228,49.8355],[6.21917,49.95164],[6.16321,49.95398],[6.09837,50.05991],[6.14643,50.17389],[6.18964,50.18946],[6.17038,50.23626],[6.27564,50.26544],[6.30118,50.31853],[6.40834,50.33307],[6.33976,50.37989],[6.37467,50.44595],[6.33003,50.49364],[6.22385,50.50228],[6.17219,50.55051],[6.27838,50.6164],[6.17309,50.62143],[6.11873,50.70874],[6.02862,50.72522],[5.9632,50.79505],[6.07384,50.84686],[6.08294,50.9218],[6.01517,50.93316],[6.03,50.98336],[5.90369,50.97827],[5.87206,51.04341],[5.96954,51.03447],[6.01527,51.09405],[6.1718,51.15293],[6.14478,51.17372],[6.19314,51.19166],[6.09183,51.17529],[6.07819,51.24471],[6.23197,51.36598],[6.22036,51.50917],[6.09096,51.60522],[6.11877,51.66046],[5.96401,51.74161],[6.00478,51.76817],[5.96465,51.82441],[6.06825,51.8649],[6.16898,51.84503],[6.10715,51.88899],[6.15889,51.90538],[6.41747,51.82563],[6.4023,51.8748],[6.48807,51.85566],[6.69244,51.92016],[6.7311,51.89497],[6.83838,51.9656],[6.83536,51.99553],[6.69818,52.04012],[6.70069,52.07379],[7.06931,52.23925],[7.02972,52.29432],[7.07912,52.38272],[7.00011,52.47318],[6.95054,52.43697],[6.71363,52.48441],[6.68379,52.55606],[6.76826,52.56517],[6.7243,52.59061],[6.74381,52.64709],[7.05186,52.63585],[7.09428,52.84645],[7.26149,52.99754],[7.22697,53.12446],[7.29271,53.16294],[7.27235,53.23378],[7.20528,53.23881],[7.23833,53.3],[5.8,53.3],[5.8,55.1],[8.8,55.1],[8.8133,54.91231]],[[8.69661,47.69922],[8.67433,47.6902],[8.66131,47.69521],[8.7027,47.72026],[8.72245,47.69653],[8.69661,47.69922]],[[8.96639,54.06347],[8.9775,54.06792],[8.9825,54.06458],[8.97639,54.06181],[8.96639,54.06347]],[[14.25583,53.7013],[14.24806,53.70681],[14.26917,53.70708],[14.26917,53.7057],[14.25583,53.7013]]]}}]}