{"type":"FeatureCollection","features":[{"type":"Feature","properties":{"role":"world-minus-de","quelle":"isellsoap/deutschlandGeoJSON 1_deutschland + grosszuegige Nord-/Ostsee-Flaechen (vereinfacht 0.0008 Grad) (Aussenringe als Loecher)"},"geometry":{"type":"Polygon","coordinates":[[[-179.9,-85.0],[179.9,-85.0],[179.9,85.0],[-179.9,85.0],[-179.9,-85.0]],[[8.8133,54.91231],[8.82872,54.9138],[8.83143,54.9043],[8.83747,54.90099],[8.84022,54.90126],[8.84082,54.89915],[8.845,54.89686],[8.84938,54.89691],[8.85045,54.89315],[8.86586,54.89464],[8.86461,54.89907],[8.8899,54.90118],[8.90238,54.9052],[8.9176,54.90417],[8.92629,54.90501],[8.9267,54.90356],[8.95067,54.90279],[8.95192,54.89836],[8.97505,54.90058],[8.9763,54.89614],[8.98401,54.89688],[8.98525,54.89245],[8.99296,54.89319],[8.9942,54.88876],[9.00192,54.88949],[9.00316,54.88506],[9.01086,54.8858],[9.01211,54.88136],[9.01739,54.88187],[9.02034,54.88024],[9.02676,54.88035],[9.02715,54.87649],[9.03395,54.87275],[9.04717,54.8691],[9.14315,54.87075],[9.19638,54.85594],[9.21061,54.85463],[9.22478,54.85595],[9.22591,54.85184],[9.24217,54.84887],[9.24505,54.83966],[9.25275,54.84037],[9.25518,54.83151],[9.26288,54.83223],[9.2653,54.82336],[9.273,54.82407],[9.27717,54.80877],[9.28233,54.80891],[9.28259,54.80223],[9.30214,54.80405],[9.30093,54.80848],[9.31633,54.80991],[9.31753,54.80548],[9.34063,54.80762],[9.34183,54.80318],[9.34564,54.80354],[9.35125,54.81467],[9.35752,54.81488],[9.36982,54.81899],[9.36952,54.82393],[9.37554,54.82448],[9.37434,54.82892],[9.38204,54.82963],[9.38084,54.83406],[9.38855,54.83477],[9.38758,54.83834],[9.39984,54.83876],[9.4,55.1],[14.5,55.1],[14.5,53.85],[13.99476,53.85],[13.99083,53.84792],[13.98083,53.84986],[13.9425,53.84319],[13.91917,53.84625],[13.91472,53.84347],[13.90194,53.84153],[13.89861,53.83958],[13.89583,53.84097],[13.88805,53.83958],[13.88639,53.84125],[13.8825,53.84125],[13.88194,53.83986],[13.88028,53.83986],[13.87806,53.84014],[13.87694,53.84208],[13.86361,53.84236],[13.86028,53.84319],[13.85806,53.84625],[13.85417,53.84819],[13.84813,53.85],[13.81694,53.85],[13.81417,53.84903],[13.81417,53.84597],[13.81917,53.84736],[13.82139,53.84625],[13.81528,53.84403],[13.81861,53.8418],[13.8325,53.84458],[13.84195,53.84292],[13.85028,53.84347],[13.85861,53.8382],[13.8625,53.83792],[13.86417,53.83597],[13.86806,53.83597],[13.86917,53.83292],[13.8725,53.83125],[13.87083,53.82653],[13.87361,53.82486],[13.87361,53.82097],[13.87528,53.81931],[13.8825,53.8182],[13.88306,53.81625],[13.8875,53.81514],[13.89139,53.81097],[13.89083,53.80931],[13.89417,53.80903],[13.90083,53.80264],[13.90805,53.80236],[13.91195,53.80403],[13.91361,53.80653],[13.91695,53.80625],[13.9175,53.80208],[13.92083,53.80014],[13.92139,53.79792],[13.93306,53.79764],[13.93583,53.7957],[13.9375,53.79153],[13.95972,53.7793],[13.96639,53.77708],[13.9675,53.77458],[13.9725,53.77208],[13.98306,53.7718],[13.99806,53.7668],[14.00528,53.76736],[14.0125,53.76403],[14.01861,53.76431],[14.02083,53.76125],[14.02861,53.75986],[14.03306,53.75736],[14.03806,53.75708],[14.03861,53.75514],[14.04805,53.75514],[14.04972,53.75319],[14.06139,53.75514],[14.06528,53.75264],[14.07195,53.75153],[14.07195,53.74903],[14.07417,53.74764],[14.09139,53.74347],[14.09694,53.74347],[14.09806,53.74125],[14.10139,53.74014],[14.11083,53.7407],[14.12417,53.73736],[14.12528,53.73931],[14.13028,53.73792],[14.14472,53.74153],[14.15583,53.74097],[14.16361,53.74292],[14.1675,53.74236],[14.16861,53.74042],[14.17028,53.74014],[14.17028,53.73847],[14.17417,53.73708],[14.17417,53.73542],[14.18417,53.73597],[14.19139,53.73875],[14.1925,53.74097],[14.19806,53.74264],[14.1975,53.74347],[14.20528,53.74542],[14.20695,53.74736],[14.21361,53.75014],[14.21972,53.75486],[14.22028,53.75708],[14.22361,53.75708],[14.22917,53.76181],[14.23361,53.76181],[14.24861,53.75903],[14.25417,53.75597],[14.25806,53.7557],[14.26417,53.75208],[14.26694,53.74875],[14.2675,53.74542],[14.26639,53.74375],[14.26972,53.74236],[14.27083,53.74014],[14.27417,53.73931],[14.27861,53.7407],[14.28306,53.73875],[14.2825,53.73764],[14.27917,53.73764],[14.27528,53.73903],[14.26805,53.73653],[14.26583,53.73486],[14.26528,53.73153],[14.26639,53.73042],[14.25917,53.72847],[14.25694,53.72625],[14.25694,53.72319],[14.25306,53.72014],[14.22972,53.71097],[14.22028,53.70958],[14.21583,53.7057],[14.21528,53.70264],[14.2175,53.70014],[14.22194,53.69814],[14.24472,53.69375],[14.24861,53.69458],[14.25306,53.69375],[14.25917,53.69708],[14.26639,53.69736],[14.27316,53.69931],[14.27594,53.68114],[14.28349,53.68152],[14.28474,53.67256],[14.27719,53.67218],[14.27781,53.6677],[14.27027,53.66731],[14.27089,53.66283],[14.27843,53.66322],[14.27891,53.65977],[14.29158,53.65946],[14.28935,53.63378],[14.30501,53.62395],[14.30665,53.62403],[14.30681,53.62282],[14.31355,53.61859],[14.32491,53.61865],[14.32478,53.61494],[14.319,53.61119],[14.3185,53.59304],[14.31097,53.59266],[14.31529,53.56129],[14.30776,53.56091],[14.309,53.55195],[14.30147,53.55157],[14.30271,53.54261],[14.31023,53.54299],[14.31085,53.53851],[14.31837,53.53889],[14.32517,53.53004],[14.32485,53.52636],[14.3182,53.52279],[14.32424,53.519],[14.3357,53.50408],[14.33539,53.5004],[14.34806,53.50022],[14.35408,53.49646],[14.35971,53.48903],[14.35887,53.47797],[14.36458,53.47053],[14.36367,53.45948],[14.37562,53.45945],[14.37357,53.42619],[14.37927,53.41875],[14.37867,53.41138],[14.38438,53.40394],[14.38407,53.40026],[14.39567,53.38907],[14.40093,53.37799],[14.39968,53.35953],[14.39306,53.35592],[14.41084,53.34824],[14.41554,53.33694],[14.41577,53.32971],[14.42025,53.32563],[14.41414,53.31126],[14.41949,53.30371],[14.41931,53.29993],[14.42432,53.2887],[14.42328,53.27791],[14.43667,53.27858],[14.43689,53.27695],[14.44413,53.27657],[14.44594,53.2655],[14.4491,53.26569],[14.44893,53.26164],[14.44666,53.26006],[14.44708,53.25653],[14.43971,53.25617],[14.44025,53.25168],[14.43278,53.25131],[14.43408,53.24249],[14.42651,53.24197],[14.42712,53.23748],[14.4184,53.22919],[14.41353,53.22655],[14.41397,53.2233],[14.4065,53.2229],[14.4077,53.21396],[14.40023,53.21358],[14.40084,53.2091],[14.38596,53.20836],[14.37892,53.20416],[14.3775,53.18927],[14.37372,53.18727],[14.3747,53.18073],[14.36714,53.18033],[14.37016,53.15792],[14.37769,53.15833],[14.37793,53.15668],[14.38629,53.14972],[14.38812,53.13629],[14.38068,53.13589],[14.38251,53.11482],[14.37653,53.11151],[14.37689,53.1087],[14.36934,53.10823],[14.37053,53.09927],[14.37451,53.0965],[14.37116,53.0946],[14.37174,53.0903],[14.36429,53.08993],[14.36609,53.07648],[14.3587,53.07611],[14.35993,53.06708],[14.3463,53.06],[14.3457,53.05292],[14.33949,53.05257],[14.34009,53.0481],[14.33702,53.04792],[14.33252,53.04547],[14.32648,53.04572],[14.32611,53.04187],[14.31842,53.04131],[14.31888,53.03798],[14.31155,53.0376],[14.31207,53.03308],[14.30481,53.03131],[14.30521,53.02832],[14.29779,53.02787],[14.29839,53.02349],[14.28354,53.02262],[14.28412,53.01814],[14.27672,53.01776],[14.27733,53.01328],[14.2699,53.01289],[14.27051,53.00841],[14.25581,53.00654],[14.25627,53.00317],[14.24884,53.00278],[14.24909,53.00098],[14.23483,52.99592],[14.23521,52.9931],[14.22218,52.99237],[14.2159,52.98895],[14.20358,52.98922],[14.17716,52.97829],[14.16481,52.97154],[14.16446,52.9679],[14.15833,52.96808],[14.15176,52.9644],[14.14946,52.96444],[14.14987,52.96151],[14.14245,52.96111],[14.14979,52.9083],[14.15188,52.90176],[14.15152,52.89809],[14.15696,52.89058],[14.15589,52.87956],[14.14254,52.86895],[14.13604,52.8655],[14.13569,52.86184],[14.12262,52.85494],[14.12127,52.84027],[14.12224,52.83815],[14.12963,52.83854],[14.13088,52.82957],[14.13827,52.82997],[14.1389,52.82549],[14.15386,52.82627],[14.15712,52.82804],[14.16108,52.82666],[14.1617,52.82217],[14.18388,52.82334],[14.18449,52.81886],[14.21407,52.8204],[14.21428,52.81889],[14.21784,52.81878],[14.21758,52.81607],[14.22208,52.81631],[14.22269,52.81182],[14.23008,52.81221],[14.23125,52.80361],[14.2387,52.80363],[14.23909,52.80069],[14.24101,52.79924],[14.2467,52.79953],[14.24731,52.79505],[14.25469,52.79543],[14.25591,52.78647],[14.2633,52.78685],[14.26367,52.78415],[14.26643,52.7825],[14.27129,52.78275],[14.27272,52.77831],[14.27929,52.77865],[14.27961,52.77628],[14.2817,52.77622],[14.28153,52.77425],[14.28728,52.77455],[14.28758,52.77234],[14.29362,52.77217],[14.29347,52.77036],[14.30266,52.77082],[14.30301,52.76819],[14.31803,52.7671],[14.31863,52.76262],[14.32602,52.763],[14.32662,52.75851],[14.34138,52.75927],[14.34187,52.7556],[14.35819,52.7447],[14.35854,52.74209],[14.36592,52.74247],[14.36652,52.73798],[14.37156,52.73824],[14.37576,52.72904],[14.38155,52.72517],[14.38767,52.72499],[14.39321,52.72128],[14.39841,52.72155],[14.39959,52.71258],[14.40472,52.70968],[14.41019,52.70209],[14.42177,52.69436],[14.42114,52.68696],[14.42692,52.68308],[14.44523,52.68257],[14.4505,52.67904],[14.45592,52.67931],[14.45767,52.66586],[14.46504,52.66623],[14.4662,52.65726],[14.48094,52.65799],[14.48132,52.65505],[14.48889,52.65388],[14.48908,52.65241],[14.4944,52.64964],[14.49684,52.64976],[14.49725,52.64772],[14.50338,52.64754],[14.5032,52.64556],[14.50478,52.64564],[14.50502,52.6438],[14.51529,52.64347],[14.52409,52.63757],[14.52804,52.63777],[14.52831,52.63567],[14.53301,52.63551],[14.5358,52.63364],[14.54334,52.63401],[14.54367,52.63145],[14.55159,52.62749],[14.55185,52.62541],[14.56658,52.62613],[14.56715,52.62165],[14.57452,52.62201],[14.57508,52.61752],[14.58245,52.61789],[14.58261,52.61656],[14.59038,52.61376],[14.59095,52.60928],[14.59831,52.60964],[14.59888,52.60515],[14.60624,52.60551],[14.60836,52.58875],[14.61,52.58764],[14.61586,52.58793],[14.61643,52.58344],[14.62379,52.58381],[14.6241,52.58131],[14.62638,52.58052],[14.63906,52.58003],[14.63962,52.57555],[14.63227,52.57519],[14.6334,52.56622],[14.62605,52.56586],[14.62661,52.56137],[14.61926,52.56102],[14.61982,52.55653],[14.61247,52.55617],[14.6136,52.5472],[14.60625,52.54684],[14.60795,52.53339],[14.6006,52.53302],[14.60117,52.52854],[14.60852,52.5289],[14.61078,52.51096],[14.61812,52.51131],[14.61869,52.50683],[14.62603,52.50719],[14.62663,52.50275],[14.63125,52.49913],[14.62722,52.49778],[14.62772,52.49373],[14.62038,52.49337],[14.62151,52.4844],[14.61539,52.4841],[14.61146,52.48171],[14.60552,52.48175],[14.60463,52.46666],[14.59867,52.46672],[14.59846,52.46295],[14.59249,52.46302],[14.59204,52.45548],[14.58609,52.45556],[14.5799,52.45188],[14.5735,52.44444],[14.56156,52.44465],[14.55537,52.441],[14.5494,52.44112],[14.54321,52.43749],[14.54232,52.42183],[14.54088,52.42175],[14.54171,52.41118],[14.53531,52.40379],[14.52913,52.40017],[14.52891,52.39641],[14.53761,52.3895],[14.53812,52.3855],[14.54136,52.38566],[14.54608,52.38086],[14.54658,52.3769],[14.55175,52.37701],[14.5515,52.37262],[14.54715,52.37241],[14.55,52.34998],[14.55606,52.3467],[14.55814,52.34381],[14.56011,52.32829],[14.56747,52.32828],[14.56762,52.32707],[14.57276,52.32356],[14.57255,52.31978],[14.57812,52.31206],[14.57991,52.31084],[14.58435,52.31106],[14.58548,52.30209],[14.57817,52.30172],[14.57132,52.29712],[14.5709,52.28956],[14.57668,52.2856],[14.58022,52.28549],[14.58043,52.28378],[14.58774,52.28414],[14.58833,52.27966],[14.59561,52.28001],[14.59617,52.27553],[14.60347,52.27589],[14.60378,52.27343],[14.61669,52.27387],[14.6192,52.27215],[14.62594,52.27248],[14.6265,52.26799],[14.63381,52.26835],[14.63397,52.26707],[14.63674,52.26705],[14.64186,52.26331],[14.66342,52.26336],[14.66855,52.25964],[14.68473,52.2597],[14.68446,52.25597],[14.68959,52.25226],[14.68932,52.24852],[14.69957,52.24109],[14.69821,52.22244],[14.69254,52.21869],[14.692,52.21122],[14.68633,52.20747],[14.67528,52.20369],[14.67474,52.19622],[14.67986,52.19251],[14.68471,52.18507],[14.68983,52.18136],[14.68956,52.17763],[14.69468,52.17392],[14.68903,52.17016],[14.68875,52.16643],[14.68308,52.16267],[14.68281,52.15894],[14.67743,52.15891],[14.67716,52.15518],[14.6715,52.15142],[14.67015,52.13275],[14.67527,52.12905],[14.675,52.12531],[14.66935,52.12155],[14.67419,52.11411],[14.67392,52.11038],[14.68926,52.09927],[14.70542,52.09935],[14.71594,52.09566],[14.7313,52.08454],[14.73103,52.08081],[14.73615,52.0771],[14.73588,52.07337],[14.74128,52.07339],[14.74101,52.06966],[14.72967,52.06214],[14.72885,52.05096],[14.73397,52.04725],[14.7283,52.04349],[14.72776,52.03603],[14.72236,52.036],[14.72155,52.02481],[14.71616,52.02478],[14.71588,52.02105],[14.71022,52.01729],[14.70968,52.00983],[14.6989,52.00977],[14.69864,52.00604],[14.70401,52.00607],[14.70266,51.98741],[14.697,51.98365],[14.69162,51.98362],[14.69053,51.96869],[14.69591,51.96872],[14.70075,51.96129],[14.70587,51.95758],[14.70478,51.94266],[14.69912,51.93889],[14.69374,51.93886],[14.68809,51.9351],[14.69292,51.92767],[14.69265,51.92393],[14.68728,51.9239],[14.68673,51.91643],[14.68109,51.91266],[14.68054,51.9052],[14.66928,51.89764],[14.66393,51.89758],[14.66343,51.89061],[14.65854,51.89037],[14.65909,51.88588],[14.65185,51.88552],[14.65295,51.87655],[14.64571,51.87619],[14.64626,51.8717],[14.63902,51.87135],[14.63921,51.86985],[14.63545,51.86713],[14.63041,51.86685],[14.62484,51.86162],[14.61842,51.8613],[14.61898,51.85681],[14.60451,51.85609],[14.60562,51.84712],[14.59838,51.84676],[14.59894,51.84227],[14.59171,51.84191],[14.59226,51.83743],[14.58503,51.83707],[14.58559,51.83258],[14.59282,51.83294],[14.59337,51.82845],[14.58615,51.82809],[14.5867,51.8236],[14.59393,51.82396],[14.59615,51.80602],[14.6106,51.80673],[14.61115,51.80225],[14.63283,51.80332],[14.63338,51.79883],[14.6406,51.79919],[14.64115,51.7947],[14.64838,51.79506],[14.65274,51.75939],[14.65397,51.75942],[14.65319,51.75568],[14.65496,51.7412],[14.66217,51.74156],[14.66272,51.73707],[14.65551,51.73671],[14.65605,51.73222],[14.66327,51.73258],[14.66381,51.72809],[14.67103,51.72845],[14.67157,51.72396],[14.67879,51.72432],[14.68042,51.71085],[14.68763,51.7112],[14.68817,51.70671],[14.70802,51.69279],[14.71885,51.69286],[14.71851,51.68912],[14.7239,51.68915],[14.72363,51.68542],[14.71824,51.68539],[14.71796,51.68166],[14.72878,51.68172],[14.72824,51.67426],[14.73373,51.67429],[14.73319,51.66683],[14.73873,51.66687],[14.73847,51.66314],[14.73265,51.65937],[14.73238,51.65564],[14.7374,51.64822],[14.73633,51.6333],[14.74142,51.62588],[14.74116,51.62215],[14.74682,51.62219],[14.74603,51.611],[14.7401,51.60723],[14.73983,51.6035],[14.7342,51.60346],[14.73394,51.59973],[14.72835,51.59969],[14.72808,51.59597],[14.72254,51.59593],[14.72227,51.5922],[14.71083,51.58468],[14.71597,51.58098],[14.71056,51.58095],[14.71029,51.57722],[14.70462,51.57346],[14.70434,51.56973],[14.69869,51.56597],[14.69814,51.55851],[14.70891,51.55857],[14.70863,51.55484],[14.72094,51.55481],[14.72148,51.55032],[14.72867,51.55067],[14.73135,51.52822],[14.73853,51.52857],[14.73907,51.52408],[14.75343,51.52478],[14.75381,51.52162],[14.78656,51.52189],[14.78633,51.51816],[14.79757,51.51789],[14.79797,51.51455],[14.80365,51.51086],[14.82017,51.50995],[14.82069,51.50546],[14.82787,51.5058],[14.8284,51.50131],[14.83558,51.50166],[14.83608,51.49733],[14.84475,51.50005],[14.85053,51.49638],[14.85032,51.49265],[14.85631,51.4927],[14.86252,51.49648],[14.87452,51.49659],[14.88032,51.49292],[14.91036,51.49319],[14.90997,51.48574],[14.92802,51.48591],[14.93386,51.48227],[14.93967,51.47499],[14.94019,51.4705],[14.94535,51.47074],[14.9452,51.46758],[14.95088,51.46026],[14.95674,51.45664],[14.95658,51.45324],[14.96375,51.45354],[14.96529,51.44007],[14.97246,51.44041],[14.97297,51.43592],[14.9658,51.43559],[14.96631,51.43109],[14.95914,51.43076],[14.96221,51.40381],[14.96937,51.40415],[14.96948,51.40318],[14.96988,51.39966],[14.96272,51.39932],[14.96476,51.38136],[14.97192,51.38169],[14.97243,51.3772],[14.97959,51.37754],[14.9806,51.36856],[14.97345,51.36822],[14.97396,51.36373],[14.9668,51.3634],[14.96782,51.35442],[14.97497,51.35475],[14.9764,51.34219],[14.98164,51.34228],[14.98147,51.33858],[14.98735,51.33497],[14.9934,51.33509],[14.99927,51.33148],[14.99911,51.32779],[15.00498,51.32419],[15.00465,51.31679],[15.01673,51.317],[15.02848,51.3098],[15.02228,51.30599],[15.02815,51.3024],[15.02783,51.29499],[15.03387,51.29509],[15.03334,51.28307],[15.03811,51.2403],[15.03098,51.23997],[15.03148,51.23548],[15.02434,51.23515],[15.02484,51.23066],[15.01771,51.23032],[15.01871,51.22134],[15.01158,51.22101],[15.01258,51.21203],[15.00545,51.2117],[15.00797,51.18924],[15.00084,51.1889],[15.00285,51.17094],[14.99573,51.1706],[14.99594,51.1687],[14.99816,51.16874],[14.99784,51.16134],[14.99177,51.16123],[14.98975,51.16],[14.99004,51.1575],[14.99161,51.15753],[14.99144,51.15383],[14.99736,51.15024],[14.99704,51.14284],[14.99169,51.14274],[14.99688,51.13913],[14.99672,51.13544],[14.99252,51.13536],[14.99314,51.12985],[14.98602,51.12951],[14.98753,51.11604],[14.98041,51.1157],[14.98092,51.11121],[14.9738,51.11088],[14.97531,51.0974],[14.98243,51.09774],[14.98279,51.09453],[14.9805,51.09313],[14.97582,51.09291],[14.97733,51.07944],[14.97022,51.0791],[14.97072,51.07461],[14.96362,51.07428],[14.96325,51.06462],[14.957,51.06081],[14.95683,51.05712],[14.95073,51.057],[14.95008,51.04221],[14.94381,51.0384],[14.9377,51.03829],[14.94365,51.03471],[14.93754,51.03458],[14.93738,51.0309],[14.94349,51.03101],[14.93842,51.02793],[14.93315,51.02768],[14.93569,51.00522],[14.92859,51.00488],[14.93011,50.99141],[14.92301,50.99107],[14.92352,50.98658],[14.91643,50.98617],[14.91795,50.97276],[14.90376,50.97209],[14.90478,50.9631],[14.89769,50.96276],[14.89851,50.95556],[14.90331,50.95269],[14.89885,50.9526],[14.89922,50.94929],[14.89213,50.94895],[14.89231,50.9474],[14.88454,50.94495],[14.87838,50.94483],[14.87792,50.93472],[14.87172,50.93362],[14.87139,50.92623],[14.86522,50.9261],[14.85887,50.92229],[14.8527,50.92216],[14.85236,50.91477],[14.83965,50.90713],[14.83948,50.90344],[14.83329,50.90331],[14.82675,50.89579],[14.82037,50.89197],[14.82003,50.88458],[14.82608,50.88102],[14.82574,50.87348],[14.82243,50.87332],[14.82346,50.86434],[14.81739,50.86404],[14.8165,50.86302],[14.81742,50.85501],[14.81247,50.85477],[14.81214,50.84752],[14.80575,50.84369],[14.80508,50.82892],[14.79885,50.82879],[14.79901,50.83248],[14.79277,50.83235],[14.78246,50.8262],[14.7781,50.82598],[14.77825,50.82465],[14.77116,50.82449],[14.77103,50.82564],[14.76575,50.82538],[14.7552,50.83151],[14.75503,50.82782],[14.75257,50.82925],[14.71087,50.82676],[14.71104,50.83044],[14.71754,50.8343],[14.71764,50.83655],[14.7129,50.83632],[14.71237,50.84081],[14.69115,50.83975],[14.69101,50.84099],[14.67974,50.8407],[14.67033,50.84414],[14.66713,50.84404],[14.66091,50.84756],[14.64242,50.8474],[14.61781,50.85479],[14.61193,50.85478],[14.60647,50.86211],[14.61279,50.86944],[14.61889,50.87312],[14.61933,50.88044],[14.62543,50.88412],[14.6263,50.89878],[14.64455,50.90614],[14.64396,50.90966],[14.64726,50.90983],[14.64673,50.91432],[14.65381,50.91468],[14.65167,50.93264],[14.64459,50.93228],[14.64405,50.93677],[14.62988,50.93606],[14.63042,50.93157],[14.62333,50.93121],[14.62387,50.92672],[14.60262,50.92565],[14.60315,50.92116],[14.56774,50.91936],[14.5672,50.92385],[14.56011,50.92348],[14.55957,50.92797],[14.56665,50.92834],[14.56568,50.93639],[14.57053,50.93929],[14.57094,50.94304],[14.57743,50.94689],[14.57893,50.95155],[14.5852,50.95187],[14.58459,50.95698],[14.58743,50.96102],[14.59121,50.96121],[14.59012,50.97019],[14.59722,50.97055],[14.59506,50.98851],[14.58796,50.98815],[14.58742,50.99264],[14.58032,50.99228],[14.57978,50.99677],[14.57679,50.99662],[14.57696,50.99809],[14.56643,51.00223],[14.5614,51.00617],[14.55001,51.00639],[14.53634,51.00199],[14.52977,51.00169],[14.53115,51.00585],[14.53894,51.01028],[14.53991,51.01425],[14.53384,51.01418],[14.51557,51.01744],[14.50243,51.01682],[14.49724,51.02068],[14.49841,51.02423],[14.49678,51.03318],[14.50388,51.03355],[14.50168,51.05151],[14.49458,51.05114],[14.49513,51.04665],[14.49217,51.0465],[14.491,51.04094],[14.49756,51.04125],[14.49066,51.02036],[14.47095,51.01942],[14.47233,51.0236],[14.46194,51.03132],[14.4488,51.0307],[14.40988,51.00861],[14.39741,51.00828],[14.36746,51.01514],[14.36993,51.02692],[14.36338,51.02662],[14.35158,51.03015],[14.35286,51.03429],[14.34505,51.02985],[14.3386,51.02959],[14.33163,51.02555],[14.31931,51.02534],[14.31345,51.02888],[14.30833,51.0363],[14.30299,51.04013],[14.30544,51.05227],[14.29809,51.05438],[14.29402,51.05416],[14.29459,51.04968],[14.28749,51.0493],[14.28806,51.04481],[14.28096,51.04443],[14.28325,51.02648],[14.27615,51.0261],[14.2773,51.01712],[14.26311,51.01636],[14.26368,51.01187],[14.25659,51.01149],[14.25716,51.007],[14.26426,51.00739],[14.2654,50.99841],[14.25831,50.99803],[14.25346,50.99445],[14.24773,50.99467],[14.24745,50.98753],[14.25319,50.98731],[14.25305,50.98374],[14.24702,50.97679],[14.24687,50.9732],[14.25838,50.97281],[14.26966,50.96531],[14.28128,50.96502],[14.28726,50.96847],[14.29922,50.97194],[14.31108,50.97186],[14.31094,50.96829],[14.31657,50.96109],[14.31298,50.96111],[14.31366,50.9558],[14.32074,50.95618],[14.32131,50.95169],[14.34257,50.95282],[14.34314,50.94833],[14.35731,50.94909],[14.35787,50.9446],[14.38622,50.94609],[14.38678,50.9416],[14.40095,50.94235],[14.40262,50.92888],[14.39554,50.92851],[14.39666,50.91953],[14.38958,50.91916],[14.39126,50.90569],[14.38418,50.90532],[14.38474,50.90083],[14.37879,50.90052],[14.37836,50.89216],[14.37227,50.88858],[14.33689,50.88887],[14.33671,50.88525],[14.33064,50.88168],[14.31885,50.88179],[14.30689,50.87829],[14.301,50.87836],[14.29494,50.8748],[14.27733,50.87505],[14.27183,50.88239],[14.26036,50.88625],[14.25452,50.88638],[14.24836,50.87927],[14.24237,50.87579],[14.22496,50.87622],[14.22423,50.86169],[14.21786,50.85093],[14.21187,50.84744],[14.21206,50.85108],[14.20626,50.85123],[14.20008,50.8441],[14.19429,50.84425],[14.19409,50.8406],[14.17671,50.84107],[14.15336,50.83806],[14.14737,50.83457],[14.14159,50.83473],[14.12363,50.82426],[14.11784,50.82443],[14.10607,50.8211],[14.10029,50.82128],[14.0943,50.81777],[14.08852,50.81795],[14.08252,50.81445],[14.07675,50.81463],[14.07075,50.81113],[14.07034,50.80379],[14.06455,50.80396],[14.05855,50.80047],[14.04699,50.80081],[14.04721,50.80448],[14.04143,50.80466],[14.02344,50.79416],[14.02367,50.79784],[14.01789,50.79802],[14.01234,50.80188],[13.99502,50.80242],[13.99524,50.8061],[13.98392,50.81015],[13.98369,50.80646],[13.97793,50.80665],[13.96615,50.80333],[13.95461,50.80371],[13.94861,50.8002],[13.94768,50.78546],[13.9359,50.78213],[13.89547,50.78347],[13.89582,50.77444],[13.88877,50.77404],[13.88852,50.76514],[13.88249,50.76163],[13.88782,50.75406],[13.89892,50.74632],[13.89872,50.74296],[13.86482,50.741],[13.86543,50.73652],[13.85838,50.73611],[13.85899,50.73162],[13.85744,50.73153],[13.85682,50.72172],[13.85081,50.7182],[13.83344,50.71874],[13.82164,50.7154],[13.81608,50.71928],[13.7934,50.72741],[13.75867,50.72853],[13.74661,50.72148],[13.73504,50.72185],[13.72949,50.72576],[13.7237,50.72594],[13.71162,50.71846],[13.69049,50.71721],[13.68986,50.72169],[13.68282,50.72128],[13.68219,50.72576],[13.67514,50.72534],[13.67452,50.72983],[13.66747,50.7294],[13.66684,50.73389],[13.65275,50.73305],[13.65338,50.72856],[13.64865,50.72828],[13.65397,50.72452],[13.64238,50.72491],[13.64214,50.72119],[13.63634,50.72138],[13.63332,50.71962],[13.6335,50.71833],[13.61941,50.71748],[13.62005,50.71299],[13.57779,50.71044],[13.57715,50.71493],[13.54898,50.71321],[13.54962,50.70873],[13.54833,50.70865],[13.54813,50.70572],[13.54206,50.70219],[13.53632,50.70238],[13.5381,50.68994],[13.54514,50.69036],[13.54706,50.67691],[13.54382,50.67671],[13.54583,50.67218],[13.54103,50.66938],[13.5413,50.66751],[13.52723,50.66665],[13.52787,50.66217],[13.52083,50.66174],[13.52148,50.65726],[13.51444,50.65683],[13.51506,50.64708],[13.52063,50.64317],[13.52669,50.6467],[13.52597,50.63554],[13.51991,50.63201],[13.5141,50.6322],[13.50423,50.62906],[13.49641,50.62904],[13.49617,50.62532],[13.49035,50.6255],[13.49011,50.62178],[13.47799,50.61471],[13.47777,50.61099],[13.47167,50.60896],[13.47232,50.60447],[13.46565,50.60393],[13.46519,50.59649],[13.45377,50.60058],[13.44818,50.60448],[13.43653,50.60485],[13.43094,50.60876],[13.42511,50.60895],[13.42535,50.61267],[13.41369,50.61306],[13.41418,50.62051],[13.4086,50.62443],[13.4091,50.63189],[13.40451,50.63204],[13.40387,50.63642],[13.39767,50.63603],[13.39619,50.64046],[13.38916,50.64003],[13.38861,50.64378],[13.38658,50.64385],[13.38632,50.64011],[13.38078,50.64403],[13.37491,50.64366],[13.37684,50.62724],[13.37947,50.62538],[13.37339,50.62185],[13.37052,50.62194],[13.37069,50.62077],[13.36367,50.62033],[13.36432,50.61585],[13.34325,50.61452],[13.3439,50.61004],[13.33752,50.60964],[13.33754,50.60511],[13.32376,50.60241],[13.32679,50.58181],[13.2987,50.58004],[13.29937,50.57555],[13.29235,50.57511],[13.29169,50.57959],[13.28467,50.57914],[13.28364,50.59113],[13.26152,50.59185],[13.26094,50.59574],[13.25392,50.59529],[13.2544,50.59208],[13.24862,50.59227],[13.2481,50.5848],[13.24225,50.585],[13.242,50.58127],[13.2359,50.57773],[13.23517,50.56694],[13.22985,50.5666],[13.23051,50.56211],[13.22715,50.5619],[13.22295,50.55946],[13.2227,50.55573],[13.22856,50.55553],[13.22786,50.54435],[13.22607,50.54441],[13.22684,50.53925],[13.22004,50.53881],[13.2205,50.53432],[13.21348,50.53387],[13.21482,50.5249],[13.20782,50.52445],[13.20848,50.51997],[13.20147,50.51952],[13.20186,50.5169],[13.1968,50.51548],[13.19599,50.50059],[13.17252,50.50133],[13.17781,50.50441],[13.16887,50.50383],[13.16684,50.50523],[13.14335,50.50598],[13.13728,50.50244],[13.13767,50.5099],[13.13393,50.51514],[13.12437,50.51452],[13.12505,50.51004],[13.11103,50.50912],[13.11171,50.50464],[13.09069,50.50327],[13.09137,50.49879],[13.07035,50.49741],[13.06967,50.50189],[13.0556,50.50134],[13.05429,50.50993],[13.03327,50.50855],[13.03533,50.4951],[13.02832,50.49464],[13.03107,50.47672],[13.02407,50.47625],[13.02819,50.44936],[13.02119,50.4489],[13.02188,50.44442],[13.01753,50.44413],[13.01749,50.44292],[12.99527,50.4336],[12.99665,50.42463],[12.98965,50.42417],[12.99034,50.41969],[12.97742,50.41883],[12.97643,50.41823],[12.97705,50.41427],[12.9491,50.41227],[12.94977,50.40792],[12.93579,50.40699],[12.9351,50.41147],[12.92886,50.4113],[12.92741,50.41548],[12.92042,50.41501],[12.91972,50.41949],[12.91643,50.41927],[12.90582,50.42288],[12.89996,50.42301],[12.89775,50.42449],[12.89735,50.42704],[12.89425,50.42683],[12.88985,50.42977],[12.88965,50.43105],[12.88231,50.43283],[12.88196,50.43506],[12.87484,50.43542],[12.87427,50.43906],[12.86727,50.43859],[12.86657,50.44307],[12.85957,50.4426],[12.85887,50.44708],[12.85188,50.44661],[12.85117,50.45108],[12.84417,50.45061],[12.84347,50.45509],[12.82948,50.45414],[12.82877,50.45862],[12.82177,50.45815],[12.82319,50.44918],[12.81619,50.44871],[12.8169,50.44423],[12.8099,50.44375],[12.81061,50.43927],[12.80938,50.43919],[12.81239,50.43256],[12.80655,50.4327],[12.80117,50.44033],[12.79164,50.44703],[12.78121,50.44632],[12.78192,50.44184],[12.76141,50.44043],[12.73439,50.42951],[12.73511,50.42503],[12.73158,50.42479],[12.73035,50.42337],[12.71852,50.41991],[12.71214,50.41258],[12.70607,50.40898],[12.70513,50.39776],[12.69657,50.40089],[12.69603,50.40421],[12.69115,50.40387],[12.67771,50.41355],[12.67802,50.41728],[12.66656,50.41763],[12.65453,50.41053],[12.6431,50.41089],[12.63766,50.41479],[12.6265,50.41887],[12.61506,50.41923],[12.60308,50.41217],[12.60282,50.40848],[12.58008,50.4093],[12.574,50.4057],[12.5683,50.40588],[12.55652,50.40252],[12.5336,50.40324],[12.52771,50.39972],[12.51611,50.40009],[12.49188,50.38232],[12.4917,50.37848],[12.48512,50.36751],[12.4901,50.36736],[12.49309,50.34916],[12.45821,50.34666],[12.45894,50.34218],[12.44499,50.34118],[12.44722,50.32775],[12.44031,50.32725],[12.4411,50.32288],[12.43408,50.32233],[12.43327,50.32672],[12.42315,50.32602],[12.41933,50.32568],[12.42006,50.32129],[12.40612,50.32026],[12.40761,50.3113],[12.40072,50.3108],[12.40148,50.30633],[12.40833,50.30688],[12.40983,50.29791],[12.40291,50.29737],[12.40369,50.29291],[12.39664,50.29238],[12.39739,50.2879],[12.37654,50.28639],[12.37723,50.28192],[12.37031,50.28141],[12.37109,50.27692],[12.36409,50.27642],[12.36554,50.26747],[12.35858,50.26696],[12.36379,50.23571],[12.35687,50.23511],[12.3561,50.23959],[12.33522,50.23807],[12.3397,50.2113],[12.33289,50.21069],[12.33351,50.20622],[12.32655,50.20571],[12.32729,50.20129],[12.33447,50.20172],[12.32867,50.19807],[12.32849,50.19452],[12.31687,50.19455],[12.31664,50.19089],[12.32189,50.18359],[12.32776,50.18343],[12.32759,50.17973],[12.2995,50.17932],[12.28825,50.18274],[12.28272,50.18268],[12.2829,50.19409],[12.27728,50.19391],[12.27173,50.19751],[12.2663,50.20508],[12.27228,50.20892],[12.27789,50.20892],[12.28387,50.21649],[12.28412,50.22028],[12.27832,50.21649],[12.27869,50.22388],[12.28441,50.22743],[12.27307,50.22749],[12.2735,50.23492],[12.27921,50.23494],[12.26792,50.23859],[12.25765,50.23851],[12.25708,50.24152],[12.25269,50.24109],[12.25091,50.24231],[12.2511,50.24591],[12.24548,50.24969],[12.23416,50.25328],[12.2345,50.25708],[12.24011,50.25708],[12.24048,50.26453],[12.24628,50.26453],[12.25189,50.26093],[12.25169,50.25707],[12.25751,50.25708],[12.25812,50.26849],[12.25293,50.2757],[12.20648,50.27551],[12.20068,50.27911],[12.19489,50.27911],[12.19568,50.29413],[12.19018,50.29828],[12.19067,50.30511],[12.19647,50.3053],[12.1972,50.31628],[12.1881,50.3163],[12.18768,50.31787],[12.19469,50.31848],[12.19409,50.32288],[12.13122,50.31815],[12.13198,50.31371],[12.12502,50.31316],[12.12965,50.2863],[12.13151,50.28644],[12.13717,50.28211],[12.12572,50.27441],[12.10876,50.27428],[12.09736,50.26669],[12.09732,50.25914],[12.08586,50.25535],[12.09159,50.25536],[12.09728,50.25159],[12.10037,50.2516],[12.10178,50.24341],[12.1157,50.24446],[12.11724,50.2355],[12.13115,50.23655],[12.13192,50.23207],[12.14584,50.23312],[12.1466,50.22864],[12.16052,50.22968],[12.16252,50.21798],[12.17074,50.21807],[12.17638,50.21054],[12.18201,50.21062],[12.18201,50.20863],[12.1852,50.20886],[12.18597,50.20439],[12.18765,50.20451],[12.18766,50.19927],[12.19329,50.19553],[12.19892,50.19562],[12.19896,50.18417],[12.2046,50.18043],[12.20462,50.1728],[12.21025,50.17287],[12.21028,50.16523],[12.19901,50.15749],[12.19902,50.14988],[12.19337,50.14603],[12.19338,50.12702],[12.19905,50.12322],[12.19906,50.11182],[12.21042,50.10423],[12.22177,50.10809],[12.22353,50.10746],[12.22429,50.10298],[12.23122,50.1035],[12.23238,50.09666],[12.2388,50.10052],[12.24445,50.10056],[12.24448,50.09541],[12.25355,50.09608],[12.2543,50.09161],[12.26124,50.09212],[12.26274,50.08317],[12.26968,50.08368],[12.26999,50.08182],[12.27266,50.08188],[12.27273,50.07799],[12.26161,50.07002],[12.25603,50.06228],[12.26625,50.06233],[12.26651,50.06078],[12.27453,50.06137],[12.27876,50.05854],[12.28805,50.05784],[12.31578,50.05988],[12.31653,50.0554],[12.32346,50.05592],[12.3257,50.04248],[12.33263,50.04299],[12.33338,50.03851],[12.34031,50.03902],[12.33981,50.042],[12.34724,50.03953],[12.34725,50.03189],[12.35869,50.02803],[12.36442,50.02419],[12.36444,50.02038],[12.37588,50.0203],[12.3759,50.01649],[12.40018,50.0162],[12.40092,50.01172],[12.40784,50.01223],[12.40846,50.00849],[12.42243,50.00875],[12.42317,50.00428],[12.43702,50.00528],[12.43849,49.99632],[12.43156,49.99582],[12.4323,49.99134],[12.44439,49.99222],[12.45087,49.99629],[12.46831,49.99588],[12.46827,49.98941],[12.47457,49.98986],[12.4753,49.98539],[12.48915,49.98638],[12.48954,49.984],[12.49151,49.98395],[12.49726,49.97625],[12.49723,49.97248],[12.49194,49.96922],[12.49279,49.96399],[12.48587,49.96349],[12.4866,49.95901],[12.47276,49.95801],[12.47568,49.94009],[12.4826,49.94059],[12.48326,49.9365],[12.49113,49.93881],[12.49112,49.93668],[12.49716,49.93711],[12.49759,49.93444],[12.50002,49.93279],[12.51171,49.93362],[12.51244,49.92915],[12.53318,49.93063],[12.53389,49.92627],[12.54774,49.92714],[12.55134,49.90474],[12.54443,49.90425],[12.54588,49.89529],[12.53206,49.8943],[12.53278,49.88982],[12.52587,49.88932],[12.52659,49.88484],[12.51968,49.88435],[12.52185,49.87091],[12.51939,49.87073],[12.51928,49.86399],[12.5164,49.86145],[12.50259,49.86046],[12.50331,49.85598],[12.50178,49.85587],[12.50151,49.83884],[12.48994,49.83914],[12.49,49.84281],[12.48423,49.84295],[12.4726,49.83582],[12.47831,49.83203],[12.4781,49.81731],[12.47232,49.8137],[12.46826,49.81376],[12.47207,49.79027],[12.46518,49.78977],[12.46591,49.78529],[12.45212,49.78429],[12.45285,49.77981],[12.44733,49.77941],[12.41959,49.76991],[12.41985,49.76834],[12.40875,49.76619],[12.40871,49.76249],[12.40703,49.76143],[12.40753,49.75838],[12.40292,49.75805],[12.40289,49.75516],[12.40857,49.75143],[12.40847,49.74485],[12.40973,49.74494],[12.41047,49.74036],[12.41414,49.74033],[12.41982,49.7366],[12.41977,49.73292],[12.43123,49.73282],[12.43117,49.72837],[12.4333,49.72853],[12.43549,49.71509],[12.44237,49.71559],[12.44377,49.70695],[12.45071,49.70713],[12.45135,49.7032],[12.4652,49.70365],[12.47498,49.69983],[12.47968,49.70017],[12.48001,49.69817],[12.48729,49.69619],[12.48799,49.69184],[12.49489,49.69221],[12.49512,49.6908],[12.49925,49.68806],[12.51656,49.68924],[12.5166,49.6916],[12.52234,49.69154],[12.52786,49.68776],[12.52751,49.67673],[12.53299,49.67295],[12.5336,49.6678],[12.53267,49.66557],[12.52751,49.66237],[12.52941,49.65637],[12.52888,49.65387],[12.522,49.65337],[12.52272,49.64889],[12.52048,49.64873],[12.52041,49.64721],[12.52444,49.64448],[12.526,49.64459],[12.52612,49.64715],[12.53165,49.6434],[12.53148,49.6397],[12.5256,49.63606],[12.52537,49.63235],[12.53097,49.62861],[12.53666,49.62855],[12.53648,49.62486],[12.53352,49.62489],[12.5339,49.6225],[12.54563,49.62334],[12.54786,49.62472],[12.56482,49.62449],[12.56467,49.6208],[12.55896,49.61977],[12.55885,49.61719],[12.56281,49.61551],[12.56985,49.60965],[12.56937,49.59858],[12.57253,49.59808],[12.57283,49.59621],[12.58037,49.59104],[12.58021,49.58735],[12.57477,49.58398],[12.57609,49.57567],[12.57403,49.57552],[12.57391,49.57266],[12.57943,49.56889],[12.57911,49.56151],[12.58462,49.55774],[12.58445,49.55361],[12.58651,49.55376],[12.58805,49.544],[12.5955,49.5408],[12.5962,49.53632],[12.60306,49.53681],[12.62321,49.53137],[12.62887,49.53129],[12.63467,49.53491],[12.64032,49.53483],[12.64583,49.53106],[12.64498,49.50892],[12.64238,49.5073],[12.64581,49.48547],[12.63895,49.48498],[12.63966,49.4805],[12.63281,49.48001],[12.63815,49.47944],[12.64367,49.47567],[12.64353,49.47198],[12.64791,49.47202],[12.64932,49.46306],[12.65404,49.46339],[12.65981,49.45329],[12.65941,49.4428],[12.66107,49.43217],[12.66792,49.43266],[12.66862,49.42817],[12.68231,49.42914],[12.683,49.42466],[12.71037,49.42659],[12.71177,49.41763],[12.71861,49.41811],[12.7193,49.41363],[12.72614,49.41411],[12.72684,49.40963],[12.74052,49.41059],[12.74121,49.40611],[12.74809,49.40665],[12.75973,49.4003],[12.75906,49.38182],[12.76997,49.37059],[12.77562,49.37052],[12.78065,49.36356],[12.7823,49.36367],[12.78411,49.35191],[12.80314,49.34797],[12.84831,49.34744],[12.85386,49.34365],[12.85762,49.34361],[12.8763,49.33591],[12.88266,49.33953],[12.88145,49.34753],[12.87659,49.35083],[12.87675,49.35451],[12.90608,49.35352],[12.91178,49.34965],[12.92941,49.34905],[12.93512,49.34518],[12.941,49.34498],[12.94115,49.34866],[12.95289,49.34827],[12.95845,49.34071],[12.97019,49.34031],[12.97591,49.33643],[12.97576,49.33275],[12.98042,49.33203],[12.98148,49.32886],[12.99322,49.32847],[12.99293,49.32109],[12.99881,49.32089],[12.99865,49.3172],[13.01039,49.31681],[13.01011,49.30941],[13.03359,49.30864],[13.03261,49.28273],[13.0366,49.27148],[13.03807,49.27143],[13.03793,49.26773],[13.0614,49.26696],[13.06099,49.25585],[13.06672,49.25196],[13.07258,49.25177],[13.07245,49.24806],[13.09005,49.24748],[13.09577,49.24359],[13.09537,49.23248],[13.09159,49.23261],[13.09251,49.22634],[13.09933,49.2268],[13.09998,49.22231],[13.1068,49.22276],[13.10746,49.21828],[13.11427,49.21873],[13.11754,49.1963],[13.13116,49.19721],[13.13181,49.19272],[13.13863,49.19318],[13.13928,49.18869],[13.14609,49.18914],[13.14739,49.18017],[13.1542,49.18063],[13.15485,49.17614],[13.16166,49.17659],[13.16231,49.1721],[13.17593,49.17301],[13.17648,49.1692],[13.18046,49.17431],[13.18048,49.17056],[13.18608,49.16671],[13.18618,49.15545],[13.18048,49.15185],[13.18021,49.14444],[13.19167,49.13666],[13.2088,49.12873],[13.21426,49.12118],[13.21973,49.1211],[13.24413,49.11409],[13.2598,49.11512],[13.2592,49.11935],[13.26306,49.12063],[13.28638,49.12139],[13.28653,49.12031],[13.29591,49.12018],[13.31753,49.10498],[13.32306,49.1049],[13.33383,49.09732],[13.33936,49.09724],[13.35547,49.08588],[13.3553,49.08219],[13.36067,49.0784],[13.3605,49.07471],[13.36603,49.07462],[13.37693,49.07073],[13.38212,49.06326],[13.38195,49.05957],[13.39837,49.05557],[13.40373,49.05178],[13.403,49.03705],[13.40836,49.03327],[13.40725,49.01114],[13.41276,49.01105],[13.41259,49.00736],[13.40671,48.9966],[13.40779,48.98884],[13.40678,48.98877],[13.42243,48.98136],[13.40608,48.98534],[13.40141,48.98544],[13.40162,48.98391],[13.40841,48.98435],[13.40903,48.97986],[13.4226,48.98073],[13.42384,48.97175],[13.43741,48.97262],[13.43803,48.96813],[13.44481,48.96857],[13.44543,48.96408],[13.45899,48.96494],[13.45961,48.96045],[13.46639,48.96089],[13.46762,48.95191],[13.48119,48.95277],[13.4818,48.94828],[13.48858,48.94871],[13.48919,48.94422],[13.49598,48.94465],[13.49659,48.94016],[13.50337,48.94059],[13.50336,48.94512],[13.50954,48.94551],[13.5102,48.9682],[13.54041,48.97011],[13.54101,48.96562],[13.58851,48.9686],[13.58911,48.96411],[13.59589,48.96453],[13.59815,48.94777],[13.60882,48.94723],[13.6145,48.94917],[13.61461,48.95101],[13.63126,48.95058],[13.62526,48.94337],[13.62503,48.93969],[13.62664,48.93928],[13.63012,48.93218],[13.63235,48.93058],[13.63461,48.93072],[13.63544,48.9245],[13.64052,48.92085],[13.64332,48.91671],[13.64439,48.90868],[13.64593,48.90878],[13.65251,48.89899],[13.65296,48.89563],[13.6665,48.89647],[13.66752,48.88879],[13.67133,48.88309],[13.69355,48.88248],[13.69734,48.88479],[13.70216,48.88508],[13.70466,48.88218],[13.72307,48.88184],[13.72248,48.88633],[13.72724,48.88663],[13.7274,48.88896],[13.73295,48.88882],[13.73244,48.88143],[13.7368,48.88131],[13.73721,48.87818],[13.74398,48.87859],[13.74548,48.87416],[13.75134,48.87452],[13.75428,48.85205],[13.76105,48.85247],[13.7628,48.83899],[13.76957,48.8394],[13.77016,48.83491],[13.77692,48.83532],[13.77751,48.83083],[13.78999,48.83158],[13.78944,48.82438],[13.79472,48.82054],[13.78888,48.81699],[13.80999,48.80161],[13.81038,48.78754],[13.80362,48.78713],[13.8042,48.78264],[13.81096,48.78305],[13.81191,48.77571],[13.83596,48.77505],[13.83586,48.77146],[13.83382,48.76734],[13.82356,48.76068],[13.81793,48.76001],[13.81743,48.75354],[13.81044,48.73543],[13.79875,48.72847],[13.8043,48.72829],[13.78706,48.72151],[13.78677,48.71785],[13.7976,48.71384],[13.80289,48.71001],[13.80261,48.70635],[13.80868,48.70625],[13.81447,48.70278],[13.81579,48.69485],[13.81233,48.68193],[13.81636,48.67075],[13.81626,48.66033],[13.81009,48.65581],[13.81013,48.65382],[13.8196,48.64844],[13.82572,48.64122],[13.82576,48.63392],[13.82009,48.63079],[13.81877,48.61764],[13.81583,48.61102],[13.81113,48.60328],[13.80129,48.59674],[13.80994,48.5909],[13.80215,48.57689],[13.78988,48.576],[13.78044,48.57175],[13.76332,48.55681],[13.7605,48.56212],[13.7604,48.56509],[13.75788,48.56707],[13.75085,48.5621],[13.749,48.55708],[13.75179,48.55154],[13.74241,48.5489],[13.74226,48.54316],[13.74605,48.53555],[13.74002,48.52897],[13.73193,48.52997],[13.72865,48.52279],[13.72109,48.51679],[13.70089,48.52262],[13.66158,48.53805],[13.65767,48.54107],[13.65707,48.54486],[13.65255,48.55109],[13.64761,48.55401],[13.6315,48.56063],[13.62156,48.56084],[13.61165,48.56698],[13.60195,48.57066],[13.59443,48.57615],[13.58357,48.57638],[13.58332,48.5727],[13.57765,48.56913],[13.57741,48.56544],[13.56715,48.56566],[13.56135,48.56947],[13.55601,48.57117],[13.55615,48.57327],[13.54552,48.57718],[13.51949,48.59617],[13.50316,48.59651],[13.50293,48.59282],[13.49702,48.58557],[13.50245,48.58545],[13.502,48.57808],[13.49655,48.5782],[13.49088,48.57462],[13.49065,48.57094],[13.48497,48.56736],[13.47432,48.57127],[13.47385,48.5639],[13.46818,48.56033],[13.4573,48.56055],[13.45207,48.56434],[13.45231,48.56803],[13.44709,48.57183],[13.44119,48.56457],[13.43575,48.56468],[13.43507,48.55362],[13.45071,48.54222],[13.44504,48.53865],[13.44435,48.52758],[13.44979,48.52747],[13.45477,48.51998],[13.45454,48.5163],[13.45205,48.51472],[13.43604,48.48886],[13.42387,48.46081],[13.42368,48.45778],[13.42801,48.45121],[13.43356,48.44738],[13.43655,48.4415],[13.43766,48.43634],[13.43667,48.42935],[13.42716,48.41716],[13.41868,48.39533],[13.42015,48.39154],[13.41676,48.38422],[13.41062,48.37774],[13.36864,48.35582],[13.35995,48.3497],[13.34806,48.33809],[13.32257,48.32257],[13.29799,48.30991],[13.28572,48.30517],[13.26021,48.29801],[13.24713,48.29614],[13.19773,48.29897],[13.18485,48.29859],[13.14127,48.28553],[13.12958,48.28376],[13.10264,48.28425],[13.09059,48.28144],[13.02089,48.26045],[12.98635,48.234],[12.97983,48.23061],[12.97447,48.22398],[12.96319,48.21687],[12.94633,48.21733],[12.93169,48.21529],[12.91899,48.21293],[12.90097,48.20726],[12.88246,48.20754],[12.86821,48.20367],[12.86791,48.19539],[12.86215,48.19167],[12.86202,48.18796],[12.85626,48.18424],[12.85599,48.17681],[12.85024,48.17309],[12.84462,48.17309],[12.83888,48.16937],[12.8386,48.16194],[12.83586,48.16194],[12.83627,48.16114],[12.83249,48.15909],[12.82426,48.15659],[12.81672,48.15592],[12.80353,48.1516],[12.797,48.1468],[12.79749,48.14153],[12.78715,48.12847],[12.77605,48.13589],[12.76486,48.13588],[12.76447,48.12474],[12.75303,48.11729],[12.75822,48.10615],[12.75755,48.08758],[12.76843,48.08015],[12.77373,48.07272],[12.83864,48.03542],[12.84899,48.02423],[12.85971,48.02047],[12.85952,48.01675],[12.86439,48.00557],[12.86401,47.99822],[12.87395,47.97949],[12.87359,47.97205],[12.87901,47.97202],[12.87865,47.96458],[12.88407,47.96456],[12.8813,47.96101],[12.91145,47.95901],[12.91891,47.95463],[12.91751,47.94867],[12.91832,47.94408],[12.92205,47.93995],[12.93573,47.9454],[12.93894,47.94275],[12.93924,47.93829],[12.94544,47.92508],[12.95068,47.91945],[12.95921,47.91499],[12.95976,47.91414],[12.95554,47.91061],[12.98415,47.87143],[13.00115,47.85223],[12.99737,47.84743],[12.99,47.8423],[12.97729,47.82666],[12.982,47.82183],[12.96569,47.80265],[12.95766,47.7981],[12.95354,47.79227],[12.94738,47.78691],[12.93769,47.78545],[12.94932,47.77499],[12.94639,47.76996],[12.93642,47.7599],[12.93636,47.75652],[12.93121,47.75303],[12.92383,47.75335],[12.92091,47.74622],[12.91127,47.73124],[12.92064,47.72717],[12.93072,47.71896],[12.94106,47.71839],[12.95147,47.72162],[12.95142,47.71783],[12.95653,47.71375],[12.98884,47.71287],[13.00396,47.71975],[13.00398,47.7226],[13.0096,47.72614],[13.00962,47.72991],[13.01526,47.72968],[13.03218,47.72143],[13.04354,47.72099],[13.04351,47.71719],[13.04921,47.71698],[13.04919,47.71362],[13.06299,47.69936],[13.08156,47.69137],[13.07812,47.67168],[13.09167,47.65603],[13.09313,47.64961],[13.09952,47.64545],[13.10184,47.64184],[13.10559,47.6392],[13.10243,47.63725],[13.1021,47.63307],[13.09662,47.6284],[13.08799,47.62947],[13.07125,47.61467],[13.0661,47.60748],[13.06683,47.60184],[13.07653,47.595],[13.07645,47.58745],[13.05932,47.58812],[13.04788,47.58479],[13.04779,47.57723],[13.05336,47.56568],[13.06478,47.56523],[13.05899,47.55791],[13.04748,47.55079],[13.04744,47.54702],[13.03635,47.53656],[13.04868,47.52658],[13.04861,47.51697],[13.0533,47.51696],[13.05375,47.49486],[13.036,47.48381],[13.02409,47.48013],[13.02424,47.47276],[13.01346,47.46577],[13.01022,47.46993],[13.00462,47.46874],[12.99577,47.48081],[12.98464,47.48479],[12.97915,47.48872],[12.97924,47.477],[12.96986,47.47709],[12.93509,47.49162],[12.93506,47.49275],[12.93134,47.49277],[12.91854,47.49671],[12.91306,47.49674],[12.8905,47.51647],[12.89039,47.52043],[12.88481,47.52439],[12.8682,47.52837],[12.85722,47.52836],[12.8516,47.53233],[12.85165,47.54861],[12.84593,47.5523],[12.83289,47.54947],[12.82291,47.55041],[12.8133,47.55307],[12.79982,47.56146],[12.7968,47.56719],[12.79209,47.57236],[12.78552,47.57684],[12.78131,47.58155],[12.79015,47.59011],[12.79405,47.59695],[12.79702,47.59891],[12.79447,47.60072],[12.79461,47.6019],[12.79886,47.60682],[12.81175,47.61229],[12.8231,47.61226],[12.82668,47.61626],[12.80353,47.62697],[12.79476,47.6326],[12.78955,47.63879],[12.78756,47.6386],[12.78749,47.63738],[12.78187,47.63742],[12.77109,47.64505],[12.76455,47.65763],[12.77915,47.66219],[12.78598,47.67282],[12.78277,47.67592],[12.77002,47.66724],[12.76103,47.66544],[12.75225,47.67427],[12.7367,47.6822],[12.72568,47.6829],[12.70229,47.68145],[12.69434,47.68467],[12.67399,47.68481],[12.65787,47.67806],[12.65295,47.67418],[12.64431,47.67418],[12.63679,47.67661],[12.62767,47.68296],[12.6177,47.67667],[12.60533,47.67925],[12.59803,47.66974],[12.57735,47.63448],[12.53238,47.63899],[12.52062,47.63184],[12.51419,47.62954],[12.50606,47.62885],[12.49776,47.63251],[12.48623,47.64648],[12.46674,47.65414],[12.45892,47.66811],[12.45365,47.67292],[12.44569,47.67669],[12.44026,47.68138],[12.44005,47.69673],[12.43596,47.70073],[12.41953,47.69877],[12.36549,47.68632],[12.36217,47.69202],[12.36215,47.68808],[12.35653,47.69204],[12.35115,47.69197],[12.34563,47.6882],[12.34039,47.69185],[12.34052,47.69556],[12.32972,47.69544],[12.29705,47.68766],[12.29162,47.68761],[12.28068,47.68379],[12.27518,47.68002],[12.27512,47.67629],[12.25878,47.67622],[12.25881,47.67998],[12.24799,47.6875],[12.24805,47.69124],[12.25378,47.71],[12.25932,47.71374],[12.27054,47.72873],[12.2649,47.73643],[12.25977,47.73998],[12.25428,47.73999],[12.24311,47.72877],[12.23191,47.7138],[12.20981,47.70262],[12.20437,47.70639],[12.19888,47.70643],[12.19329,47.69894],[12.17435,47.69888],[12.17562,47.68754],[12.17923,47.68114],[12.18384,47.67714],[12.19269,47.67271],[12.20518,47.65419],[12.2076,47.64858],[12.20866,47.64126],[12.21656,47.62456],[12.22089,47.60991],[12.21504,47.60694],[12.21492,47.60477],[12.2095,47.60478],[12.20928,47.6012],[12.18746,47.60131],[12.18755,47.60871],[12.17101,47.6089],[12.16551,47.60524],[12.15449,47.60536],[12.14895,47.60172],[12.13794,47.60184],[12.12694,47.60568],[12.08838,47.60612],[12.07187,47.61375],[12.06636,47.6138],[12.06085,47.61014],[12.05534,47.6102],[12.04433,47.61404],[12.03883,47.6141],[12.0388,47.60666],[12.02779,47.60678],[12.0223,47.61428],[12.01681,47.61805],[12.01681,47.62178],[12.0113,47.61811],[11.99478,47.61828],[11.98374,47.61097],[11.97274,47.6148],[11.96171,47.61121],[11.93966,47.60773],[11.92315,47.61162],[11.91209,47.60433],[11.90108,47.60445],[11.87349,47.59735],[11.86248,47.59747],[11.85687,47.57905],[11.83483,47.57929],[11.83485,47.58299],[11.82934,47.58305],[11.82381,47.57941],[11.8183,47.57947],[11.81832,47.58317],[11.79628,47.58341],[11.79078,47.58716],[11.77921,47.58722],[11.77685,47.5949],[11.74307,47.59122],[11.7197,47.59219],[11.69658,47.58845],[11.66769,47.58627],[11.647,47.59824],[11.63634,47.59827],[11.63254,47.594],[11.62537,47.58099],[11.62536,47.57786],[11.61433,47.57797],[11.60879,47.57064],[11.60876,47.56325],[11.60325,47.56331],[11.59771,47.55598],[11.59296,47.55285],[11.5926,47.54176],[11.59384,47.53296],[11.5976,47.52273],[11.58656,47.51915],[11.58104,47.51552],[11.58102,47.51182],[11.55897,47.51206],[11.55345,47.50842],[11.52587,47.50871],[11.51482,47.50144],[11.50932,47.5052],[11.48723,47.50911],[11.4651,47.50562],[11.45403,47.50573],[11.44848,47.51316],[11.44847,47.51685],[11.43738,47.51326],[11.42629,47.50596],[11.42074,47.49863],[11.41401,47.49499],[11.41256,47.49223],[11.40475,47.48654],[11.39603,47.48358],[11.38803,47.47192],[11.39852,47.46553],[11.41387,47.46548],[11.42101,47.45476],[11.42408,47.44562],[11.38361,47.45184],[11.37575,47.44923],[11.34161,47.45182],[11.33729,47.44926],[11.33506,47.44362],[11.32445,47.43606],[11.31458,47.43261],[11.2939,47.4302],[11.29621,47.41902],[11.29719,47.41902],[11.29672,47.4109],[11.29077,47.40282],[11.29059,47.39881],[11.28498,47.39488],[11.2739,47.39101],[11.25736,47.39504],[11.24072,47.39119],[11.22414,47.39127],[11.22423,47.39524],[11.23559,47.40318],[11.23574,47.40718],[11.24155,47.41513],[11.25743,47.42612],[11.25234,47.42859],[11.25624,47.43204],[11.24606,47.43478],[11.21764,47.43214],[11.20115,47.4329],[11.18728,47.42934],[11.15119,47.42356],[11.12369,47.4108],[11.11872,47.39968],[11.11049,47.39724],[11.09725,47.39572],[11.07491,47.39729],[11.04341,47.39493],[11.03523,47.3965],[11.02323,47.3962],[11.0147,47.40076],[11.00402,47.39642],[10.98743,47.39497],[10.97752,47.39611],[10.96858,47.3993],[10.96487,47.40604],[10.96617,47.4099],[10.97308,47.40998],[10.97867,47.41408],[10.97851,47.42215],[10.94972,47.44198],[10.94963,47.44602],[10.92721,47.46207],[10.92188,47.4621],[10.92152,47.47011],[10.92668,47.47408],[10.92651,47.47808],[10.91048,47.47819],[10.91031,47.48218],[10.8998,47.48213],[10.88946,47.47808],[10.87892,47.47804],[10.87901,47.47409],[10.86839,47.4741],[10.863,47.47803],[10.86289,47.48564],[10.8704,47.50206],[10.88872,47.5057],[10.90336,47.51167],[10.91859,47.51609],[10.90904,47.52135],[10.90062,47.51855],[10.89765,47.52011],[10.88313,47.53811],[10.87251,47.5388],[10.84531,47.53583],[10.83758,47.52968],[10.82635,47.53175],[10.81318,47.52859],[10.80596,47.52255],[10.79156,47.52182],[10.77203,47.51614],[10.75947,47.52272],[10.76122,47.5253],[10.76028,47.53292],[10.74637,47.5394],[10.71292,47.5402],[10.70759,47.54519],[10.69141,47.5458],[10.69152,47.55308],[10.68676,47.55657],[10.68622,47.56013],[10.62685,47.56173],[10.62693,47.56555],[10.62161,47.56947],[10.59997,47.56983],[10.60006,47.57365],[10.589,47.56236],[10.58351,47.55862],[10.58142,47.55866],[10.5753,47.54152],[10.56903,47.5358],[10.56138,47.53593],[10.56147,47.53979],[10.52354,47.54048],[10.49111,47.54497],[10.47511,47.55689],[10.46428,47.55712],[10.45343,47.56102],[10.46848,47.57276],[10.46706,47.5799],[10.47738,47.58396],[10.47773,47.58854],[10.45832,47.58545],[10.43225,47.58556],[10.43341,47.572],[10.4404,47.56867],[10.4518,47.55756],[10.43982,47.53667],[10.43639,47.52686],[10.43972,47.51693],[10.43105,47.50676],[10.43323,47.49765],[10.43845,47.48816],[10.45198,47.48736],[10.45554,47.48473],[10.45851,47.48423],[10.46283,47.48722],[10.46267,47.47973],[10.46794,47.4716],[10.46487,47.46735],[10.4643,47.46246],[10.46772,47.45993],[10.4648,47.45792],[10.46703,47.44646],[10.47157,47.43306],[10.45634,47.42901],[10.45303,47.42078],[10.44577,47.41608],[10.43579,47.41546],[10.42479,47.39294],[10.4254,47.39225],[10.42293,47.39054],[10.43358,47.37872],[10.42822,47.38268],[10.41734,47.38284],[10.40632,47.37522],[10.39,47.37544],[10.38441,47.36775],[10.38433,47.36364],[10.38627,47.35954],[10.38423,47.35841],[10.38418,47.3561],[10.37866,47.35229],[10.37425,47.35236],[10.36211,47.34087],[10.35107,47.33326],[10.351,47.32938],[10.34548,47.32558],[10.34415,47.32375],[10.34432,47.31827],[10.34153,47.31667],[10.34525,47.31392],[10.33981,47.314],[10.32324,47.30259],[10.30693,47.30284],[10.29597,47.2953],[10.28501,47.2954],[10.28519,47.29172],[10.27475,47.28454],[10.26325,47.28808],[10.25278,47.28088],[10.24723,47.28089],[10.24197,47.27721],[10.2364,47.27722],[10.23675,47.27352],[10.23156,47.26986],[10.22599,47.26987],[10.21447,47.27357],[10.20332,47.27359],[10.19755,47.27729],[10.18134,47.26994],[10.17017,47.2699],[10.16469,47.27359],[10.16911,47.27364],[10.17071,47.29244],[10.17623,47.29631],[10.17614,47.29255],[10.18158,47.29266],[10.19252,47.29654],[10.20355,47.30412],[10.20913,47.31174],[10.20383,47.31933],[10.20389,47.32311],[10.19845,47.32303],[10.19306,47.32667],[10.1985,47.32679],[10.19811,47.33074],[10.20197,47.33527],[10.20196,47.33812],[10.20409,47.33817],[10.20963,47.34578],[10.21513,47.34965],[10.21516,47.3534],[10.22622,47.36864],[10.23173,47.37249],[10.23178,47.38376],[10.22687,47.39292],[10.20981,47.37954],[10.19886,47.38304],[10.19338,47.38666],[10.19336,47.39042],[10.17851,47.39349],[10.17602,47.39004],[10.16746,47.38593],[10.16609,47.37111],[10.16066,47.36725],[10.13359,47.3667],[10.11735,47.37386],[10.09596,47.35487],[10.0962,47.35851],[10.08066,47.39157],[10.08069,47.39332],[10.08441,47.39591],[10.08433,47.39966],[10.08085,47.40199],[10.0809,47.40453],[10.06883,47.41166],[10.07303,47.41458],[10.08945,47.41468],[10.09482,47.41848],[10.09472,47.42331],[10.10082,47.43166],[10.09336,47.44129],[10.08861,47.45065],[10.09076,47.45659],[10.08847,47.4596],[10.08299,47.45954],[10.07759,47.45576],[10.06661,47.45569],[10.06652,47.45943],[10.05538,47.46687],[10.04991,47.46686],[10.04964,47.47806],[10.04399,47.48554],[10.0439,47.48926],[10.03365,47.49181],[10.0112,47.48684],[9.99734,47.48623],[9.99013,47.4994],[9.99221,47.50684],[9.9833,47.5118],[9.97229,47.51555],[9.96119,47.52304],[9.96656,47.52676],[9.96647,47.5305],[9.96092,47.53424],[9.96384,47.53836],[9.96368,47.54116],[9.97119,47.55048],[9.96303,47.54898],[9.95506,47.53693],[9.94481,47.5389],[9.93599,47.53775],[9.92061,47.53198],[9.91274,47.53484],[9.9117,47.53809],[9.90615,47.54184],[9.90606,47.54557],[9.881,47.54855],[9.87659,47.54195],[9.87541,47.536],[9.87357,47.53489],[9.87367,47.53072],[9.86266,47.53448],[9.85711,47.53822],[9.85165,47.53825],[9.85156,47.54176],[9.84889,47.54332],[9.83658,47.54462],[9.81313,47.55075],[9.8131,47.55246],[9.82387,47.56306],[9.8183,47.57161],[9.81825,47.57528],[9.82004,47.57529],[9.82326,47.57805],[9.82261,47.58517],[9.81814,47.5889],[9.81258,47.58992],[9.80154,47.59716],[9.77422,47.5968],[9.76341,47.58926],[9.75807,47.5818],[9.75266,47.57802],[9.75271,47.57429],[9.74724,47.57417],[9.74744,47.55902],[9.74584,47.55898],[9.73711,47.54968],[9.73563,47.54136],[9.73122,47.54626],[9.7259,47.54937],[9.71459,47.55172],[9.70393,47.5503],[9.69479,47.54385],[9.68873,47.54398],[9.6848,47.54706],[9.69068,47.55114],[9.6908,47.55529],[9.68919,47.55716],[9.68509,47.55845],[9.67105,47.55722],[9.66073,47.55855],[9.65558,47.56041],[9.65301,47.56478],[9.64948,47.56718],[9.63897,47.56818],[9.63514,47.57169],[9.6256,47.57065],[9.61987,47.57188],[9.61513,47.57618],[9.60929,47.58672],[9.60567,47.58844],[9.60058,47.58884],[9.57912,47.58588],[9.56747,47.58647],[9.5573,47.58923],[9.54206,47.60035],[9.53728,47.60558],[9.53506,47.61654],[9.52922,47.61883],[9.52738,47.62083],[9.52397,47.62759],[9.52362,47.63536],[9.52054,47.63966],[9.4987,47.65277],[9.48629,47.65191],[9.47838,47.65289],[9.46969,47.65178],[9.45751,47.65818],[9.44176,47.65986],[9.42591,47.66849],[9.41797,47.66987],[9.39942,47.66979],[9.39077,47.66758],[9.37565,47.66732],[9.36869,47.66405],[9.35618,47.66404],[9.3414,47.66875],[9.33016,47.67411],[9.31517,47.67697],[9.29756,47.68486],[9.28505,47.6925],[9.26812,47.69887],[9.25241,47.70838],[9.23387,47.72507],[9.23018,47.7312],[9.2313,47.74222],[9.22443,47.74821],[9.2162,47.75158],[9.19733,47.7557],[9.19056,47.75961],[9.15999,47.77242],[9.14112,47.7765],[9.13408,47.78087],[9.13015,47.78585],[9.12199,47.79169],[9.11535,47.79426],[9.10597,47.8002],[9.08927,47.80472],[9.07994,47.81061],[9.07437,47.81245],[9.06716,47.81993],[9.04401,47.82369],[9.04157,47.8232],[9.03242,47.81605],[9.03196,47.8127],[9.03998,47.80639],[9.04921,47.80147],[9.07135,47.78354],[9.09096,47.77311],[9.12091,47.76431],[9.13358,47.75558],[9.14116,47.75309],[9.15314,47.75304],[9.16207,47.74495],[9.177,47.73775],[9.17969,47.73395],[9.18198,47.72491],[9.18495,47.71954],[9.18399,47.70956],[9.19381,47.70113],[9.2065,47.69507],[9.21287,47.68995],[9.21538,47.686],[9.21515,47.67728],[9.22116,47.67088],[9.22114,47.66815],[9.21206,47.66487],[9.19867,47.66923],[9.18757,47.66925],[9.18504,47.66598],[9.18576,47.65774],[9.17451,47.65803],[9.16733,47.66219],[9.16409,47.65358],[9.15295,47.66057],[9.14898,47.66577],[9.12956,47.66899],[9.12997,47.67522],[9.12113,47.68479],[9.11627,47.68783],[9.10438,47.6899],[9.11174,47.69502],[9.11123,47.69795],[9.10384,47.70489],[9.09439,47.71001],[9.08274,47.7127],[9.05045,47.72615],[9.04484,47.72684],[9.03217,47.73213],[9.02359,47.73364],[9.00555,47.74199],[9.00088,47.74635],[8.99164,47.74799],[8.98609,47.74635],[8.98626,47.74252],[8.9922,47.73966],[9.0008,47.73769],[9.0093,47.73228],[9.0101,47.73016],[9.00109,47.73043],[8.975,47.7405],[8.9613,47.742],[8.9458,47.73916],[8.94181,47.73574],[8.94137,47.73182],[8.94502,47.72838],[8.95422,47.72549],[8.97347,47.7167],[8.99673,47.71027],[9.00835,47.70122],[9.00857,47.69821],[9.00637,47.69509],[8.99539,47.6863],[8.98132,47.68076],[8.97597,47.67553],[8.95362,47.66927],[8.94187,47.66196],[8.92625,47.66165],[8.91862,47.65863],[8.90638,47.6571],[8.9015,47.65519],[8.89183,47.65522],[8.87892,47.65868],[8.87745,47.67139],[8.87039,47.67913],[8.8633,47.6838],[8.85385,47.68377],[8.85449,47.68746],[8.85836,47.69191],[8.85904,47.69447],[8.85586,47.69988],[8.85983,47.70213],[8.86807,47.69946],[8.86787,47.69677],[8.8757,47.69741],[8.87831,47.70021],[8.87384,47.70338],[8.87411,47.70764],[8.86905,47.70885],[8.85601,47.70831],[8.84865,47.70587],[8.84813,47.71345],[8.84465,47.71629],[8.83664,47.71794],[8.82831,47.7151],[8.82344,47.71564],[8.82245,47.71757],[8.82443,47.72147],[8.82012,47.72202],[8.81555,47.72708],[8.80819,47.72923],[8.81263,47.73433],[8.80985,47.73668],[8.80822,47.74168],[8.79996,47.73878],[8.80025,47.73138],[8.79323,47.73326],[8.78918,47.73209],[8.78573,47.73058],[8.78154,47.72551],[8.7725,47.72178],[8.77116,47.71977],[8.77122,47.7139],[8.77281,47.71146],[8.79734,47.708],[8.80063,47.7016],[8.8081,47.69923],[8.80816,47.69718],[8.80203,47.69614],[8.79736,47.69042],[8.79572,47.68302],[8.79815,47.67991],[8.79269,47.67932],[8.78662,47.6807],[8.77312,47.68674],[8.76686,47.6909],[8.75688,47.69431],[8.73865,47.69682],[8.72789,47.69684],[8.73015,47.70771],[8.73751,47.72124],[8.73549,47.72331],[8.72563,47.72674],[8.71937,47.72709],[8.71335,47.73562],[8.71519,47.74273],[8.72466,47.74978],[8.72789,47.75109],[8.7401,47.75126],[8.7423,47.7528],[8.74109,47.75758],[8.73171,47.76289],[8.73045,47.76611],[8.72432,47.76941],[8.71408,47.77079],[8.7054,47.76827],[8.69716,47.76186],[8.69027,47.76291],[8.6855,47.77552],[8.6884,47.7803],[8.68394,47.785],[8.68305,47.79148],[8.67212,47.793],[8.66254,47.79686],[8.66092,47.79839],[8.66163,47.80202],[8.65871,47.80519],[8.65627,47.80579],[8.64994,47.80427],[8.64613,47.79654],[8.64981,47.78907],[8.6498,47.7786],[8.64618,47.77411],[8.64871,47.77105],[8.64207,47.77103],[8.63735,47.76791],[8.62976,47.76597],[8.622,47.77304],[8.62337,47.78241],[8.61685,47.78945],[8.61707,47.79264],[8.62166,47.79797],[8.62189,47.80079],[8.61984,47.80404],[8.61475,47.80764],[8.60991,47.80903],[8.59951,47.80886],[8.59333,47.80601],[8.58687,47.80878],[8.5778,47.80684],[8.57599,47.80779],[8.57387,47.81205],[8.56799,47.81438],[8.56252,47.81038],[8.56233,47.79997],[8.56388,47.79807],[8.57384,47.79524],[8.57623,47.78908],[8.56746,47.78595],[8.55569,47.79095],[8.55112,47.79103],[8.52481,47.78411],[8.52108,47.77831],[8.51064,47.78294],[8.49696,47.77877],[8.48771,47.77968],[8.47271,47.7701],[8.46649,47.76046],[8.45942,47.75795],[8.45726,47.75586],[8.4563,47.75006],[8.45263,47.74618],[8.45275,47.73937],[8.4572,47.73526],[8.45429,47.72972],[8.44463,47.72802],[8.4407,47.72396],[8.43449,47.72331],[8.42356,47.71722],[8.41728,47.71656],[8.40571,47.7063],[8.40561,47.70342],[8.41264,47.6992],[8.41964,47.6894],[8.41507,47.68674],[8.40792,47.68509],[8.4044,47.68005],[8.40515,47.67816],[8.41301,47.67204],[8.42438,47.67122],[8.43219,47.66769],[8.43724,47.66277],[8.44554,47.65939],[8.45909,47.65848],[8.4647,47.66173],[8.46669,47.66155],[8.46757,47.6592],[8.46587,47.65331],[8.46623,47.64875],[8.4698,47.64402],[8.47368,47.64336],[8.47875,47.6448],[8.47282,47.64716],[8.47321,47.64837],[8.47731,47.64958],[8.47421,47.65309],[8.4763,47.65474],[8.48138,47.65421],[8.48466,47.64916],[8.49193,47.64747],[8.49495,47.6478],[8.49617,47.65109],[8.49873,47.65219],[8.52728,47.65042],[8.53375,47.65104],[8.5359,47.65445],[8.53186,47.66188],[8.52883,47.66471],[8.53377,47.6669],[8.53829,47.66392],[8.54044,47.66381],[8.54187,47.66918],[8.55159,47.67336],[8.56408,47.67496],[8.56744,47.6703],[8.57901,47.66759],[8.59284,47.67243],[8.60075,47.6769],[8.60715,47.67599],[8.60995,47.6694],[8.6285,47.65755],[8.62945,47.65234],[8.6251,47.64586],[8.61722,47.64184],[8.60649,47.64178],[8.60433,47.64315],[8.60503,47.64516],[8.61241,47.64668],[8.61516,47.64927],[8.614,47.65351],[8.60892,47.65664],[8.60555,47.65573],[8.60275,47.65066],[8.59685,47.64719],[8.59859,47.63161],[8.60612,47.62092],[8.60587,47.61689],[8.60293,47.61354],[8.58832,47.60488],[8.58469,47.60031],[8.57679,47.59989],[8.56146,47.60367],[8.56761,47.61309],[8.57192,47.61483],[8.57278,47.61633],[8.57002,47.61995],[8.56443,47.62172],[8.55907,47.62761],[8.54068,47.63152],[8.5374,47.63571],[8.52715,47.63626],[8.52091,47.6381],[8.51322,47.62821],[8.50822,47.62657],[8.50572,47.62146],[8.49477,47.61888],[8.48259,47.61864],[8.47052,47.60868],[8.45855,47.60596],[8.45821,47.60299],[8.46128,47.59878],[8.46143,47.59412],[8.46883,47.58817],[8.48098,47.58915],[8.48888,47.59301],[8.49164,47.59134],[8.49562,47.58516],[8.4914,47.58395],[8.4885,47.58139],[8.47721,47.58124],[8.46725,47.5765],[8.45692,47.57647],[8.44051,47.57188],[8.42343,47.57075],[8.41848,47.57396],[8.39744,47.58015],[8.39018,47.57805],[8.38462,47.57079],[8.37954,47.57025],[8.35744,47.57424],[8.33146,47.57468],[8.32461,47.57633],[8.31568,47.58173],[8.31036,47.58727],[8.30159,47.59028],[8.29653,47.59353],[8.29456,47.59753],[8.29568,47.61062],[8.29018,47.61414],[8.279,47.61664],[8.26135,47.61509],[8.26131,47.61916],[8.25601,47.62028],[8.23866,47.61798],[8.23522,47.61666],[8.23036,47.61192],[8.22503,47.61147],[8.22311,47.6118],[8.22067,47.6205],[8.21658,47.62376],[8.20872,47.62608],[8.20287,47.62616],[8.19691,47.62453],[8.1829,47.60978],[8.17595,47.60849],[8.16558,47.60027],[8.15761,47.5997],[8.15146,47.60128],[8.14723,47.60086],[8.13819,47.59586],[8.13704,47.5912],[8.13467,47.58926],[8.11192,47.58912],[8.10732,47.58746],[8.10175,47.58094],[8.1001,47.56892],[8.09852,47.56595],[8.08783,47.56289],[8.08104,47.56383],[8.07562,47.56624],[8.07238,47.5694],[8.06853,47.57053],[8.05821,47.56907],[8.04541,47.56029],[8.0206,47.55643],[8.00714,47.55852],[8.005,47.56102],[7.99954,47.56242],[7.97854,47.56096],[7.95824,47.56417],[7.95233,47.56106],[7.94805,47.55064],[7.94407,47.5497],[7.93707,47.5508],[7.93307,47.553],[7.9192,47.55342],[7.91199,47.55637],[7.90897,47.55982],[7.90667,47.566],[7.9104,47.57301],[7.90932,47.57832],[7.90274,47.58636],[7.89072,47.59364],[7.87496,47.59552],[7.86289,47.59497],[7.84882,47.58975],[7.84006,47.58889],[7.83561,47.58911],[7.83407,47.59164],[7.83006,47.59375],[7.82077,47.5947],[7.81712,47.59274],[7.81389,47.58835],[7.80869,47.57557],[7.79941,47.57017],[7.79305,47.56383],[7.78368,47.5606],[7.77046,47.55913],[7.75716,47.55573],[7.75306,47.55191],[7.71909,47.54888],[7.69743,47.53983],[7.69596,47.53736],[7.68694,47.5361],[7.66949,47.53712],[7.66099,47.54076],[7.65453,47.54782],[7.64268,47.55198],[7.63238,47.56242],[7.6356,47.56353],[7.64396,47.56316],[7.65434,47.56727],[7.66708,47.56786],[7.67345,47.57242],[7.67985,47.57091],[7.68146,47.57469],[7.67662,47.57716],[7.67209,47.58501],[7.66411,47.58788],[7.66502,47.58979],[7.67056,47.59326],[7.6392,47.59704],[7.63595,47.59515],[7.63492,47.59219],[7.63075,47.59034],[7.61894,47.58091],[7.60777,47.58096],[7.60721,47.58829],[7.60278,47.58968],[7.60273,47.59274],[7.59654,47.59631],[7.59142,47.59619],[7.59304,47.60082],[7.57432,47.6158],[7.56736,47.63174],[7.52467,47.66019],[7.52004,47.66625],[7.5198,47.68342],[7.51213,47.69609],[7.51375,47.70282],[7.53495,47.71472],[7.54389,47.72258],[7.54859,47.73541],[7.53337,47.76603],[7.53023,47.78344],[7.5624,47.84102],[7.56337,47.85117],[7.55564,47.87053],[7.55773,47.88095],[7.57761,47.89209],[7.58252,47.89826],[7.58099,47.92077],[7.58263,47.92989],[7.60334,47.94856],[7.62216,47.97366],[7.60858,48.00032],[7.57846,48.02489],[7.56859,48.03634],[7.57339,48.05964],[7.56932,48.08068],[7.57599,48.0939],[7.57977,48.10684],[7.57786,48.12139],[7.5989,48.13543],[7.5995,48.15563],[7.62934,48.18324],[7.64185,48.20399],[7.66615,48.2211],[7.68078,48.25732],[7.69394,48.30212],[7.70508,48.30964],[7.73412,48.31823],[7.74162,48.32322],[7.74523,48.32983],[7.7435,48.34033],[7.73097,48.38221],[7.73355,48.39869],[7.75342,48.43461],[7.76616,48.46397],[7.76687,48.4868],[7.77148,48.49244],[7.79397,48.50167],[7.80516,48.5135],[7.80547,48.55884],[7.80018,48.58317],[7.80501,48.59319],[7.83046,48.62006],[7.83592,48.63367],[7.84504,48.64553],[7.88098,48.65831],[7.89625,48.66721],[7.96174,48.72026],[7.9677,48.72979],[7.97025,48.75623],[7.98299,48.76109],[8.00346,48.75877],[8.01748,48.76275],[8.03186,48.78815],[8.04157,48.79073],[8.06241,48.78919],[8.08702,48.80201],[8.10107,48.81581],[8.1073,48.82841],[8.12144,48.86494],[8.14157,48.89607],[8.1974,48.9571],[8.22644,48.96493],[8.2303,48.9673],[8.22888,48.97063],[8.22143,48.97524],[8.20287,48.96936],[8.19778,48.97023],[8.19352,48.97647],[8.16248,48.97742],[8.13286,48.98107],[8.12491,48.98488],[8.09138,48.98926],[8.06814,48.99931],[8.05114,49.01276],[8.02057,49.01937],[7.99734,49.02802],[7.97632,49.0283],[7.96542,49.04049],[7.93704,49.05623],[7.91527,49.04191],[7.89009,49.04795],[7.88499,49.04681],[7.86741,49.03349],[7.85549,49.03542],[7.84733,49.0437],[7.83295,49.04771],[7.79993,49.06416],[7.79468,49.06429],[7.78875,49.05859],[7.77839,49.05764],[7.76645,49.04668],[7.74134,49.04686],[7.73223,49.04436],[7.7306,49.05446],[7.72065,49.05273],[7.69585,49.0563],[7.69708,49.04975],[7.67108,49.04597],[7.63529,49.05417],[7.6274,49.0734],[7.59977,49.08301],[7.56849,49.07991],[7.55886,49.08238],[7.53118,49.09713],[7.52386,49.10582],[7.51783,49.11877],[7.50495,49.12414],[7.49856,49.13356],[7.48958,49.13653],[7.50357,49.15053],[7.50332,49.15401],[7.49511,49.15843],[7.49134,49.16851],[7.47583,49.16877],[7.4568,49.16413],[7.44928,49.16905],[7.43733,49.16459],[7.44559,49.18402],[7.38151,49.17527],[7.36618,49.17201],[7.36277,49.14518],[7.32596,49.14344],[7.31369,49.13654],[7.30411,49.12408],[7.2934,49.11516],[7.28368,49.11758],[7.27933,49.12327],[7.24911,49.1274],[7.24545,49.12971],[7.21111,49.1249],[7.19833,49.11518],[7.19607,49.12208],[7.18488,49.12963],[7.16408,49.12692],[7.1588,49.12077],[7.13168,49.13218],[7.12493,49.1412],[7.10424,49.13868],[7.10362,49.14535],[7.11086,49.15031],[7.10818,49.15328],[7.09815,49.15433],[7.08321,49.15128],[7.08258,49.14132],[7.09002,49.13226],[7.07266,49.12512],[7.06741,49.11559],[7.05802,49.11259],[7.04594,49.11824],[7.0458,49.13881],[7.03414,49.15443],[7.02827,49.17131],[7.03371,49.18826],[7.02026,49.19273],[7.01544,49.19127],[7.01308,49.18863],[7.00809,49.19374],[6.99881,49.19429],[6.97657,49.20864],[6.95756,49.2038],[6.94357,49.21377],[6.93481,49.22213],[6.9243,49.22308],[6.89429,49.2102],[6.88481,49.21111],[6.85845,49.22163],[6.84044,49.21423],[6.83765,49.21126],[6.85117,49.20046],[6.85014,49.19352],[6.86094,49.17863],[6.85874,49.17575],[6.84471,49.17292],[6.84531,49.16014],[6.8477,49.15741],[6.83446,49.15138],[6.78413,49.16815],[6.77379,49.16764],[6.76376,49.16513],[6.74789,49.16592],[6.73799,49.16457],[6.71975,49.17659],[6.71284,49.18956],[6.73062,49.20671],[6.72211,49.21942],[6.69729,49.21557],[6.69292,49.21755],[6.6851,49.24374],[6.68879,49.24622],[6.68431,49.25208],[6.66153,49.25733],[6.66785,49.28044],[6.65323,49.28112],[6.65105,49.28741],[6.63176,49.29603],[6.6256,49.30128],[6.61599,49.30268],[6.58889,49.3221],[6.59335,49.32768],[6.59211,49.33364],[6.5787,49.33508],[6.56538,49.34929],[6.565,49.3561],[6.56963,49.3577],[6.57957,49.35646],[6.58723,49.35175],[6.59933,49.36662],[6.58596,49.37134],[6.58401,49.38472],[6.57544,49.38871],[6.5649,49.38854],[6.55205,49.39453],[6.54912,49.40005],[6.54053,49.40115],[6.53835,49.41101],[6.55464,49.41905],[6.53542,49.43416],[6.5205,49.43787],[6.50055,49.44972],[6.4849,49.45247],[6.46819,49.46473],[6.45394,49.46389],[6.44043,49.46667],[6.43184,49.47446],[6.42241,49.47601],[6.4032,49.46596],[6.3676,49.46654],[6.36886,49.45982],[6.36439,49.45948],[6.35482,49.46498],[6.35971,49.46516],[6.36629,49.46839],[6.36499,49.4819],[6.36746,49.49707],[6.36492,49.50689],[6.37254,49.50921],[6.36735,49.527],[6.36038,49.5256],[6.35945,49.53074],[6.36084,49.53512],[6.37151,49.54437],[6.37142,49.54801],[6.37816,49.548],[6.37947,49.55864],[6.37129,49.56445],[6.36365,49.57405],[6.36686,49.57697],[6.36934,49.57734],[6.3697,49.57369],[6.38131,49.57427],[6.38067,49.58038],[6.3817,49.58345],[6.37674,49.59218],[6.37927,49.59655],[6.39062,49.59719],[6.396,49.60124],[6.40634,49.61307],[6.41206,49.61343],[6.41742,49.61749],[6.41717,49.61997],[6.42241,49.62524],[6.42167,49.63266],[6.437,49.65225],[6.43626,49.65965],[6.42483,49.65893],[6.4241,49.66633],[6.42944,49.67038],[6.44951,49.67965],[6.45964,49.69093],[6.46192,49.69107],[6.46155,49.69477],[6.47304,49.69549],[6.48958,49.70354],[6.49684,49.71113],[6.50318,49.71571],[6.49712,49.72558],[6.50068,49.72897],[6.50708,49.72771],[6.51201,49.72378],[6.51649,49.72418],[6.49791,49.73478],[6.51058,49.73499],[6.50668,49.73721],[6.50329,49.74231],[6.50197,49.74848],[6.5044,49.75391],[6.51512,49.75903],[6.51882,49.76368],[6.5139,49.77988],[6.51773,49.78511],[6.50694,49.79007],[6.51116,49.79439],[6.5178,49.79646],[6.52461,49.80254],[6.52825,49.80857],[6.52434,49.81309],[6.51758,49.80575],[6.51238,49.80325],[6.51158,49.80451],[6.50833,49.80204],[6.50797,49.80574],[6.50229,49.80538],[6.50193,49.80908],[6.49589,49.81241],[6.48452,49.81169],[6.47848,49.81502],[6.47812,49.81872],[6.47209,49.82205],[6.46071,49.82133],[6.45005,49.8132],[6.44796,49.81307],[6.44345,49.81495],[6.43214,49.8152],[6.40522,49.81997],[6.39745,49.8236],[6.37578,49.84923],[6.37084,49.85269],[6.363,49.85403],[6.34243,49.85111],[6.33785,49.84666],[6.33541,49.8418],[6.332,49.84168],[6.32979,49.84009],[6.33018,49.83639],[6.31228,49.8355],[6.31152,49.84294],[6.31711,49.84692],[6.31673,49.85063],[6.31038,49.85405],[6.31,49.85776],[6.30403,49.85747],[6.30364,49.86117],[6.30962,49.86146],[6.30924,49.86517],[6.30288,49.86859],[6.2969,49.8683],[6.29159,49.86431],[6.28629,49.86403],[6.28535,49.87145],[6.2803,49.87117],[6.27979,49.87488],[6.26898,49.87448],[6.26269,49.87804],[6.25664,49.87793],[6.25631,49.88161],[6.25019,49.88151],[6.24987,49.88519],[6.2434,49.88878],[6.24308,49.89246],[6.23691,49.89237],[6.2366,49.89605],[6.23484,49.89602],[6.23876,49.899],[6.23076,49.90956],[6.2343,49.91732],[6.2318,49.92116],[6.22445,49.92308],[6.22573,49.94054],[6.21917,49.95164],[6.21299,49.9545],[6.20324,49.95464],[6.19838,49.95604],[6.19567,49.96068],[6.19518,49.9671],[6.19054,49.97124],[6.18373,49.96893],[6.179,49.96033],[6.17083,49.96512],[6.16858,49.96509],[6.16888,49.96142],[6.17513,49.9615],[6.17572,49.95414],[6.16321,49.95398],[6.16262,49.96134],[6.15637,49.96126],[6.1546,49.98332],[6.16085,49.98341],[6.14805,49.98692],[6.14149,49.99052],[6.1412,49.9942],[6.12868,49.99404],[6.12838,49.99772],[6.13465,49.99779],[6.13435,50.00147],[6.14032,50.00523],[6.14003,50.00891],[6.13377,50.00883],[6.12066,50.01602],[6.12692,50.0161],[6.12663,50.01978],[6.13289,50.01986],[6.13259,50.02354],[6.12634,50.02346],[6.11949,50.03073],[6.11891,50.03809],[6.12516,50.03817],[6.11861,50.04177],[6.11832,50.04544],[6.11177,50.04904],[6.11089,50.06007],[6.10463,50.05999],[6.10492,50.05632],[6.09837,50.05991],[6.098,50.06456],[6.09964,50.06538],[6.10426,50.06472],[6.10434,50.06368],[6.1106,50.06375],[6.11031,50.06743],[6.11627,50.07119],[6.11568,50.07854],[6.10972,50.07478],[6.11001,50.07111],[6.10346,50.0747],[6.10317,50.07839],[6.10943,50.07846],[6.10826,50.09317],[6.12075,50.09333],[6.11421,50.09693],[6.11391,50.10061],[6.12639,50.10077],[6.1261,50.10445],[6.11986,50.10437],[6.11956,50.10805],[6.1255,50.11181],[6.11927,50.11173],[6.11838,50.12276],[6.1246,50.12284],[6.13052,50.1266],[6.12991,50.13396],[6.14229,50.13413],[6.14202,50.13749],[6.1498,50.1374],[6.15346,50.14963],[6.13529,50.1547],[6.14643,50.17389],[6.15137,50.17112],[6.15739,50.17122],[6.15682,50.1773],[6.16953,50.17901],[6.18964,50.18946],[6.17038,50.23626],[6.19198,50.24347],[6.20279,50.2548],[6.22891,50.25969],[6.23958,50.26016],[6.2426,50.26225],[6.25479,50.26453],[6.27564,50.26544],[6.27508,50.27132],[6.28068,50.28031],[6.27926,50.29161],[6.28534,50.29187],[6.28499,50.29557],[6.29106,50.29582],[6.29004,50.30692],[6.3022,50.30743],[6.30118,50.31853],[6.31943,50.31928],[6.32517,50.32323],[6.32535,50.32118],[6.33126,50.32347],[6.33141,50.32181],[6.34137,50.32283],[6.3565,50.31293],[6.38191,50.32006],[6.38577,50.31788],[6.39172,50.31802],[6.40334,50.32193],[6.40834,50.33307],[6.40238,50.33294],[6.40206,50.33662],[6.39609,50.3365],[6.39544,50.34385],[6.38287,50.35095],[6.37738,50.35083],[6.37658,50.3545],[6.37274,50.35442],[6.36405,50.36113],[6.36369,50.36527],[6.33976,50.37989],[6.34048,50.39069],[6.36207,50.40473],[6.36226,50.42075],[6.37467,50.44595],[6.37327,50.44675],[6.37287,50.45066],[6.3665,50.45417],[6.36367,50.45222],[6.34246,50.46431],[6.33003,50.49364],[6.3151,50.50264],[6.2989,50.49778],[6.27127,50.49922],[6.26484,50.50269],[6.25914,50.49877],[6.25951,50.49507],[6.25344,50.49483],[6.25307,50.49853],[6.24699,50.49829],[6.24673,50.50091],[6.22385,50.50228],[6.21035,50.51704],[6.18083,50.53306],[6.17219,50.55051],[6.17564,50.55985],[6.1795,50.56251],[6.1856,50.56277],[6.19746,50.56698],[6.19675,50.5744],[6.20286,50.57465],[6.21215,50.57968],[6.22007,50.58709],[6.23265,50.58331],[6.2323,50.58702],[6.24172,50.59351],[6.25157,50.5921],[6.27838,50.6164],[6.2659,50.62018],[6.26575,50.62191],[6.25934,50.6254],[6.22892,50.62421],[6.20995,50.63092],[6.19757,50.63116],[6.17309,50.62143],[6.16809,50.63696],[6.15966,50.64373],[6.16583,50.64401],[6.16612,50.64027],[6.17193,50.64426],[6.17805,50.64453],[6.17773,50.64825],[6.16949,50.65266],[6.17379,50.65841],[6.14915,50.67687],[6.11873,50.70874],[6.10073,50.71863],[6.07883,50.71983],[6.07893,50.7186],[6.06033,50.71767],[6.03493,50.72393],[6.02842,50.72735],[6.02862,50.72522],[6.01162,50.75689],[6.00713,50.75663],[6.00622,50.76741],[6.01247,50.76775],[6.01188,50.77525],[5.99937,50.77456],[5.99908,50.77831],[5.99282,50.77796],[5.99253,50.78171],[5.98626,50.78136],[5.98597,50.78511],[5.97971,50.78477],[5.97941,50.78852],[5.97284,50.7919],[5.96666,50.79159],[5.9632,50.79505],[5.96104,50.80245],[5.96582,50.80279],[5.96567,50.80653],[5.96854,50.80669],[5.97528,50.81409],[5.98866,50.81037],[5.99974,50.80281],[6.00957,50.80452],[6.0271,50.81477],[6.03108,50.82139],[6.02912,50.82766],[6.02035,50.8394],[6.01968,50.84523],[6.04187,50.8495],[6.0631,50.85157],[6.07384,50.84686],[6.07875,50.86348],[6.08784,50.86964],[6.08993,50.8745],[6.08772,50.87893],[6.08362,50.88115],[6.07827,50.88642],[6.07565,50.89508],[6.07537,50.90092],[6.07799,50.90273],[6.07753,50.91025],[6.0834,50.9143],[6.08294,50.9218],[6.07072,50.92118],[6.07062,50.9229],[6.06767,50.92297],[6.06462,50.92086],[6.05851,50.92054],[6.05219,50.92396],[6.05197,50.92772],[6.04568,50.93113],[6.0398,50.92705],[6.03959,50.9308],[6.01517,50.93316],[6.00853,50.94775],[6.01435,50.95186],[6.00231,50.95485],[6.00217,50.95859],[6.00809,50.95897],[6.00795,50.9627],[6.01388,50.96308],[6.01373,50.96682],[6.01951,50.9714],[6.02791,50.97506],[6.03236,50.97997],[6.03,50.98336],[6.02283,50.98516],[6.01306,50.9846],[6.00845,50.98278],[5.98259,50.98807],[5.9669,50.98313],[5.95008,50.99216],[5.926,50.98796],[5.9137,50.98413],[5.90369,50.97827],[5.89971,50.98144],[5.90825,50.99346],[5.90796,51.00095],[5.89636,51.00389],[5.89615,51.01136],[5.88976,51.01511],[5.88599,51.02098],[5.88046,51.02578],[5.88227,51.03234],[5.87804,51.03631],[5.87796,51.04007],[5.87206,51.04341],[5.87162,51.05083],[5.88354,51.04792],[5.89512,51.04869],[5.90305,51.05451],[5.92476,51.05594],[5.9262,51.05574],[5.93002,51.04729],[5.94182,51.04059],[5.94188,51.03843],[5.94555,51.03465],[5.94779,51.03484],[5.94773,51.03725],[5.95931,51.03802],[5.95937,51.03586],[5.96954,51.03447],[5.96649,51.04224],[5.97342,51.04314],[5.97866,51.04726],[5.98233,51.05341],[5.97811,51.05743],[5.97835,51.06316],[5.98898,51.0651],[5.9895,51.07221],[5.99523,51.07371],[5.99671,51.07789],[5.99861,51.07802],[5.99842,51.08138],[6.00425,51.08213],[6.00412,51.08579],[6.00988,51.08623],[6.00965,51.08994],[6.01551,51.09034],[6.01527,51.09405],[6.03874,51.09565],[6.05847,51.10818],[6.06158,51.1084],[6.06146,51.11042],[6.07453,51.12045],[6.08448,51.12115],[6.08425,51.12486],[6.09015,51.12527],[6.08997,51.12825],[6.09583,51.12939],[6.0956,51.13309],[6.10128,51.13721],[6.1072,51.13766],[6.10696,51.14133],[6.12471,51.14256],[6.13042,51.14668],[6.13021,51.1504],[6.1718,51.15293],[6.17168,51.15496],[6.17852,51.1619],[6.16697,51.16717],[6.14478,51.17372],[6.15113,51.17796],[6.1738,51.18367],[6.18377,51.19035],[6.19314,51.19166],[6.17432,51.19809],[6.1683,51.19766],[6.14557,51.19044],[6.14226,51.1874],[6.12182,51.17847],[6.12209,51.17582],[6.09867,51.17371],[6.09183,51.17529],[6.09161,51.17734],[6.08517,51.18057],[6.08476,51.18424],[6.07831,51.18747],[6.07363,51.22407],[6.09169,51.22537],[6.09121,51.22903],[6.07819,51.24471],[6.09782,51.25451],[6.10915,51.26492],[6.11784,51.2699],[6.12454,51.27815],[6.12814,51.28624],[6.13552,51.29211],[6.14411,51.29571],[6.15454,51.30357],[6.15966,51.31123],[6.16525,51.31522],[6.16476,51.31903],[6.16991,51.3265],[6.17114,51.33135],[6.17505,51.33412],[6.17457,51.33778],[6.19886,51.3389],[6.1984,51.34256],[6.23197,51.36598],[6.23152,51.36965],[6.22273,51.39145],[6.22789,51.39902],[6.2335,51.40292],[6.2209,51.40613],[6.21528,51.40222],[6.21435,51.40956],[6.22286,51.43942],[6.22149,51.45044],[6.22759,51.45068],[6.2259,51.46425],[6.23141,51.4693],[6.23051,51.47665],[6.21983,51.49256],[6.22036,51.50917],[6.21553,51.51697],[6.19519,51.53478],[6.18699,51.53703],[6.18437,51.53968],[6.17926,51.5409],[6.15687,51.56924],[6.13008,51.58236],[6.12241,51.59293],[6.11627,51.59253],[6.09096,51.60522],[6.09544,51.61665],[6.09503,51.62029],[6.09821,51.62277],[6.10562,51.62265],[6.10891,51.62992],[6.11399,51.64937],[6.12114,51.65363],[6.11877,51.66046],[6.10181,51.66058],[6.05145,51.67261],[6.03901,51.67773],[6.03542,51.68281],[6.03434,51.6892],[6.03287,51.70291],[6.03442,51.71091],[6.04161,51.71556],[6.05058,51.71677],[6.03776,51.72223],[6.03654,51.72748],[6.01286,51.7358],[6.00104,51.738],[5.96953,51.73787],[5.96932,51.74164],[5.96401,51.74161],[5.9689,51.74917],[5.9687,51.75293],[5.974,51.75296],[5.98417,51.76054],[5.98964,51.7568],[5.98944,51.76057],[5.99974,51.76437],[6.00478,51.76817],[5.99955,51.76814],[5.99937,51.77191],[5.99412,51.77189],[5.99374,51.77942],[6.00071,51.782],[5.99238,51.79506],[5.99014,51.7963],[5.99275,51.79824],[5.98746,51.79822],[5.98195,51.80194],[5.98174,51.80571],[5.97621,51.80944],[5.97088,51.8094],[5.9653,51.81312],[5.96508,51.81688],[5.97579,51.81696],[5.96465,51.82441],[5.97212,51.83186],[6.00121,51.82851],[6.00954,51.83222],[6.01737,51.83226],[6.02243,51.83604],[6.02765,51.83606],[6.02748,51.83983],[6.03269,51.83984],[6.03298,51.8429],[6.04804,51.84363],[6.06099,51.85159],[6.06033,51.8573],[6.06496,51.85705],[6.06825,51.8649],[6.09094,51.85551],[6.09858,51.85098],[6.11006,51.84696],[6.14464,51.84731],[6.15346,51.84473],[6.16898,51.84503],[6.167,51.85861],[6.15389,51.8651],[6.15174,51.86786],[6.14459,51.87052],[6.1446,51.87637],[6.1383,51.87906],[6.13829,51.88493],[6.132,51.88468],[6.1257,51.88738],[6.1194,51.88715],[6.11936,51.89014],[6.10715,51.88899],[6.1068,51.89255],[6.11811,51.89886],[6.12977,51.89921],[6.15005,51.90453],[6.15889,51.90538],[6.16902,51.90294],[6.18054,51.89806],[6.193,51.89001],[6.1926,51.8868],[6.2018,51.88423],[6.20131,51.87918],[6.21311,51.86876],[6.21854,51.86749],[6.24823,51.86942],[6.26087,51.87192],[6.27051,51.87232],[6.27035,51.87408],[6.27863,51.87609],[6.28898,51.87658],[6.28908,51.8755],[6.30499,51.87069],[6.3069,51.85756],[6.31053,51.85099],[6.34053,51.85439],[6.35292,51.8545],[6.36584,51.84705],[6.36975,51.8422],[6.36989,51.83928],[6.3751,51.83643],[6.38126,51.83661],[6.38706,51.84055],[6.39962,51.83714],[6.39975,51.83569],[6.40155,51.83565],[6.40865,51.82869],[6.41747,51.82563],[6.41054,51.83594],[6.41589,51.83876],[6.41783,51.83767],[6.41749,51.84143],[6.41112,51.84501],[6.41047,51.85367],[6.39909,51.86],[6.39732,51.87136],[6.4023,51.8748],[6.40834,51.875],[6.41469,51.87199],[6.41435,51.87518],[6.42036,51.87536],[6.42674,51.87179],[6.43275,51.87195],[6.43311,51.86821],[6.4391,51.86837],[6.43983,51.86088],[6.44583,51.86104],[6.44547,51.86479],[6.45146,51.86495],[6.45709,51.86885],[6.46309,51.86901],[6.46346,51.86527],[6.46983,51.86169],[6.47008,51.85911],[6.48034,51.85462],[6.48807,51.85566],[6.50179,51.85898],[6.55333,51.88271],[6.5683,51.88317],[6.56981,51.88383],[6.5695,51.88682],[6.58111,51.89088],[6.58673,51.89477],[6.58711,51.89104],[6.59273,51.89494],[6.63395,51.90355],[6.63995,51.90371],[6.64557,51.90761],[6.65763,51.90796],[6.66919,51.91201],[6.67481,51.91592],[6.68081,51.91608],[6.69244,51.92016],[6.69271,51.91744],[6.70482,51.91675],[6.70541,51.9109],[6.70699,51.90931],[6.71148,51.90944],[6.71195,51.9057],[6.73071,51.89871],[6.7311,51.89497],[6.74271,51.89905],[6.74639,51.90442],[6.75082,51.90678],[6.75997,51.90704],[6.75966,51.91008],[6.76559,51.91095],[6.76522,51.9147],[6.77722,51.91504],[6.78675,51.92157],[6.79373,51.93051],[6.79935,51.93444],[6.80536,51.93461],[6.80423,51.94584],[6.80872,51.96098],[6.82622,51.96239],[6.83484,51.9655],[6.83838,51.9656],[6.83536,51.99553],[6.81733,51.99499],[6.81696,51.99873],[6.77862,52.02008],[6.77261,52.0199],[6.77223,52.02363],[6.75945,52.03074],[6.72223,52.04084],[6.69818,52.04012],[6.69624,52.05873],[6.70148,52.06636],[6.70711,52.07027],[6.70109,52.07008],[6.70069,52.07379],[6.74282,52.07512],[6.75972,52.08686],[6.75933,52.09059],[6.75294,52.09413],[6.75255,52.09785],[6.76459,52.09823],[6.76381,52.10569],[6.76945,52.1096],[6.76845,52.12077],[6.82888,52.11898],[6.85296,52.11975],[6.85861,52.12368],[6.87629,52.128],[6.87592,52.13173],[6.88195,52.13193],[6.88279,52.13847],[6.88529,52.14065],[6.88758,52.15007],[6.88659,52.1568],[6.90831,52.17026],[6.91434,52.17047],[6.91376,52.17621],[6.91636,52.17802],[6.93769,52.17875],[6.94334,52.1827],[6.95539,52.18311],[6.96889,52.19045],[6.97413,52.20181],[6.98257,52.21405],[6.98221,52.21779],[6.98787,52.22174],[6.98843,52.22537],[6.99941,52.22964],[7.02325,52.23051],[7.0236,52.22677],[7.02961,52.22697],[7.04126,52.23116],[7.06489,52.23576],[7.06931,52.23925],[7.07106,52.24348],[7.04487,52.25752],[7.03728,52.27592],[7.03123,52.2757],[7.0306,52.28314],[7.03668,52.28337],[7.03001,52.2906],[7.02972,52.29432],[7.04121,52.30602],[7.04714,52.30999],[7.0469,52.31372],[7.05257,52.3214],[7.05232,52.32513],[7.05791,52.33275],[7.06141,52.33511],[7.06474,52.34154],[7.08045,52.35722],[7.08224,52.36583],[7.07912,52.38272],[7.06433,52.40075],[7.05285,52.40333],[7.04661,52.40693],[7.04323,52.40687],[7.03927,52.41179],[7.03332,52.42528],[7.02086,52.43253],[7.00684,52.46209],[7.00628,52.4695],[7.00038,52.46948],[7.00011,52.47318],[6.98761,52.47277],[6.98779,52.46901],[6.98145,52.46491],[6.97529,52.45703],[6.97546,52.45328],[6.96284,52.44508],[6.95029,52.44071],[6.95054,52.43697],[6.93135,52.43983],[6.91193,52.44645],[6.88669,52.44909],[6.86737,52.45572],[6.8625,52.45401],[6.85949,52.45988],[6.8545,52.46009],[6.85424,52.46263],[6.81112,52.46089],[6.76486,52.46493],[6.74412,52.47215],[6.7289,52.47954],[6.71363,52.48441],[6.70952,52.49385],[6.70791,52.50138],[6.71153,52.51917],[6.71043,52.52808],[6.68379,52.55606],[6.71813,52.55222],[6.72441,52.55528],[6.72889,52.56061],[6.73016,52.5668],[6.74197,52.56708],[6.76709,52.56424],[6.76826,52.56517],[6.76814,52.56667],[6.76218,52.5664],[6.74967,52.57324],[6.7243,52.59061],[6.7264,52.60061],[6.73265,52.60929],[6.73168,52.61499],[6.72781,52.62271],[6.71926,52.62958],[6.73053,52.63512],[6.73563,52.63932],[6.7384,52.63944],[6.7381,52.64313],[6.74381,52.64709],[6.75584,52.64762],[6.75835,52.64935],[6.76173,52.64952],[6.76187,52.64788],[6.7679,52.64814],[6.77365,52.65209],[6.78075,52.65238],[6.78657,52.65615],[6.80161,52.65693],[6.8313,52.65332],[6.8433,52.65498],[6.85957,52.65267],[6.88314,52.6571],[6.88944,52.65421],[6.90522,52.65544],[6.93005,52.64545],[6.94878,52.64259],[6.98788,52.64983],[7.00644,52.64473],[7.00768,52.64554],[7.02089,52.63866],[7.03966,52.63553],[7.05186,52.63585],[7.06306,52.64718],[7.07144,52.69153],[7.06954,52.71354],[7.07534,52.71739],[7.0783,52.75423],[7.08038,52.81387],[7.09145,52.82755],[7.10028,52.83577],[7.09428,52.84645],[7.10212,52.85423],[7.12285,52.86824],[7.13662,52.8754],[7.21219,52.93294],[7.21232,52.93653],[7.21914,52.94012],[7.22622,52.95089],[7.22647,52.95808],[7.24041,52.97242],[7.24764,52.98677],[7.24775,52.99036],[7.26149,52.99754],[7.25486,53.00112],[7.25549,53.02267],[7.24903,53.04432],[7.2493,53.06598],[7.25658,53.09841],[7.24937,53.10578],[7.24212,53.10591],[7.23476,53.1097],[7.23468,53.11334],[7.22719,53.11716],[7.22697,53.12446],[7.23431,53.12793],[7.23421,53.13158],[7.24156,53.13504],[7.24134,53.14234],[7.24871,53.1458],[7.2486,53.14945],[7.26324,53.16001],[7.27069,53.15982],[7.29271,53.16294],[7.27032,53.17441],[7.2702,53.17807],[7.27773,53.17785],[7.27763,53.1815],[7.28495,53.18859],[7.28456,53.19957],[7.27613,53.2109],[7.27452,53.22947],[7.27611,53.23018],[7.27235,53.23378],[7.26932,53.23124],[7.2716,53.22858],[7.2692,53.22873],[7.23906,53.23104],[7.22563,53.2342],[7.2188,53.2336],[7.20528,53.23881],[7.20694,53.24236],[7.21972,53.24875],[7.22639,53.25764],[7.22806,53.25819],[7.23639,53.27653],[7.23639,53.2868],[7.23528,53.28986],[7.23028,53.29264],[7.22972,53.2943],[7.23361,53.29542],[7.23528,53.29847],[7.23833,53.3],[5.8,53.3],[5.8,55.1],[8.8,55.1],[8.8,54.91557],[8.81204,54.91674],[8.8133,54.91231]],[[8.69661,47.69922],[8.69213,47.69934],[8.68232,47.69281],[8.67433,47.6902],[8.66407,47.69079],[8.66483,47.69294],[8.66131,47.69521],[8.66248,47.69704],[8.67119,47.6982],[8.67654,47.70361],[8.67444,47.70952],[8.66675,47.713],[8.66725,47.71703],[8.67944,47.71808],[8.68298,47.71488],[8.68717,47.71364],[8.69296,47.71772],[8.7027,47.72026],[8.70837,47.71556],[8.71407,47.70119],[8.72245,47.69653],[8.71293,47.69413],[8.70396,47.69588],[8.69661,47.69922]],[[8.96639,54.06347],[8.96694,54.06597],[8.97417,54.06542],[8.97417,54.06764],[8.9775,54.06792],[8.9825,54.06458],[8.97639,54.06181],[8.97361,54.06181],[8.97195,54.06347],[8.96639,54.06347]],[[14.25583,53.7013],[14.25083,53.70208],[14.24806,53.70458],[14.24806,53.70681],[14.25139,53.70903],[14.25972,53.70875],[14.2625,53.71069],[14.26694,53.70958],[14.2675,53.70764],[14.26917,53.70708],[14.26917,53.7057],[14.25861,53.70347],[14.25583,53.7013]]]}}]}